{"features":[{"geometry":{"coordinates":[[-81.26946,37.25326],[-81.26893,37.25341],[-81.26928,37.25479],[-81.26886,37.25491],[-81.26896,37.25523],[-81.26601,37.25607],[-81.26603,37.25706],[-81.2665,37.2579],[-81.26683,37.25923],[-81.26653,37.25951],[-81.26684,37.26002],[-81.26651,37.25945],[-81.26684,37.25926],[-81.26654,37.25802],[-81.26603,37.25706],[-81.26605,37.25603],[-81.26896,37.25523],[-81.26886,37.25491],[-81.26921,37.2548],[-81.27197,37.25466],[-81.27153,37.25355],[-81.27382,37.25373],[-81.27546,37.25364],[-81.27699,37.25402],[-81.27856,37.25387],[-81.27797,37.25251],[-81.27869,37.25178],[-81.28029,37.25097],[-81.28016,37.2508],[-81.27936,37.25053],[-81.27874,37.25053],[-81.27936,37.25053],[-81.28029,37.25097],[-81.27869,37.25178],[-81.27797,37.25251],[-81.27856,37.25387],[-81.27699,37.25402],[-81.27546,37.25364],[-81.2736,37.25372],[-81.26967,37.25336],[-81.26906,37.25213],[-81.27088,37.25162],[-81.27012,37.24995],[-81.26984,37.24977],[-81.26846,37.24961],[-81.26747,37.24891],[-81.26703,37.24768],[-81.26487,37.24422],[-81.26375,37.24336],[-81.2619,37.24267],[-81.26135,37.2423],[-81.26064,37.24103],[-81.26015,37.23948],[-81.25704,37.23986],[-81.25627,37.23793],[-81.25324,37.23869],[-81.25383,37.2402],[-81.25287,37.24054],[-81.25262,37.23993],[-81.25191,37.24011],[-81.25129,37.23892],[-81.24929,37.23943],[-81.2502,37.24166],[-81.24854,37.24218],[-81.24653,37.24318],[-81.24176,37.24654],[-81.23974,37.24442],[-81.23896,37.24321],[-81.24072,37.24333],[-81.2407,37.2428],[-81.23956,37.24283],[-81.23944,37.24329],[-81.23896,37.24321],[-81.23974,37.24443],[-81.24018,37.24424],[-81.24008,37.24406],[-81.23981,37.24368],[-81.2393,37.24373],[-81.23896,37.24321],[-81.24017,37.24338],[-81.24223,37.24308],[-81.2434,37.24317],[-81.24314,37.2424],[-81.2434,37.24173],[-81.24314,37.2424],[-81.2434,37.24317],[-81.24223,37.24308],[-81.24017,37.24338],[-81.23896,37.24321],[-81.23974,37.24442],[-81.24176,37.24654],[-81.24282,37.24593],[-81.24403,37.24652],[-81.24511,37.24773],[-81.24514,37.24827],[-81.24494,37.24858],[-81.24214,37.25059],[-81.2389,37.25222],[-81.23938,37.25315],[-81.2398,37.25326],[-81.23954,37.25359],[-81.23932,37.25496],[-81.23912,37.25523],[-81.23821,37.25559],[-81.2374,37.25446],[-81.23633,37.25489],[-81.23537,37.25504],[-81.23492,37.25523],[-81.23481,37.25547],[-81.23492,37.25523],[-81.23537,37.25504],[-81.23633,37.25489],[-81.2374,37.25446],[-81.23821,37.25559],[-81.23898,37.2553],[-81.23932,37.25496],[-81.23951,37.25367],[-81.2398,37.25326],[-81.23938,37.25315],[-81.2389,37.25222],[-81.24214,37.25059],[-81.24467,37.24879],[-81.24506,37.24947],[-81.24792,37.24833],[-81.24828,37.24798],[-81.24768,37.2472],[-81.24596,37.24781],[-81.24516,37.24784],[-81.24421,37.24664],[-81.24282,37.24593],[-81.24621,37.24338],[-81.24854,37.24218],[-81.25704,37.23986],[-81.25627,37.23793],[-81.25539,37.23815],[-81.25627,37.23793],[-81.25704,37.23986],[-81.25869,37.23956],[-81.25989,37.23996],[-81.2615,37.24243],[-81.26358,37.24327],[-81.26487,37.24422],[-81.26703,37.24768],[-81.26747,37.24891],[-81.26846,37.24961],[-81.26984,37.24977],[-81.27012,37.24995],[-81.27056,37.25063],[-81.27127,37.25272],[-81.26946,37.25326]],"type":"LineString"},"properties":{"color":"#B3414F","color_name":"brown","kind":"route","label":"Main","long":"Main","route_id":"19128","text_color":"#FFFFFF","type_label":"Bus"},"type":"Feature"},{"geometry":{"coordinates":[[-81.26946,37.25326],[-81.27033,37.25353],[-81.27382,37.25373],[-81.27546,37.25364],[-81.27699,37.25402],[-81.28039,37.25367],[-81.28329,37.25217],[-81.28336,37.25056],[-81.2835,37.25044],[-81.28542,37.25053],[-81.28751,37.25034],[-81.28897,37.24985],[-81.30387,37.24735],[-81.30388,37.24702],[-81.30378,37.24686],[-81.30315,37.24702],[-81.30322,37.24744],[-81.28897,37.24985],[-81.28751,37.25034],[-81.28542,37.25053],[-81.28547,37.24862],[-81.28585,37.24848],[-81.28591,37.24827],[-81.2847,37.2469],[-81.28399,37.2443],[-81.28401,37.24395],[-81.28471,37.24354],[-81.28476,37.2433],[-81.2843,37.24258],[-81.28189,37.2404],[-81.28113,37.23903],[-81.28615,37.23738],[-81.28977,37.23724],[-81.29177,37.23694],[-81.29245,37.23652],[-81.29271,37.23608],[-81.29264,37.23464],[-81.29387,37.23498],[-81.29401,37.23658],[-81.29617,37.23657],[-81.29626,37.23523],[-81.29463,37.23526],[-81.29253,37.23463],[-81.28961,37.23527],[-81.28813,37.235],[-81.2851,37.234],[-81.28408,37.23411],[-81.28311,37.23463],[-81.28303,37.233],[-81.28262,37.23172],[-81.28264,37.23127],[-81.28307,37.23078],[-81.28331,37.22984],[-81.28299,37.229],[-81.28332,37.22972],[-81.28325,37.23031],[-81.28256,37.23148],[-81.28303,37.233],[-81.28311,37.23463],[-81.28008,37.23512],[-81.2783,37.23581],[-81.27553,37.23579],[-81.26946,37.23683],[-81.26913,37.23562],[-81.26826,37.23577],[-81.2664,37.23648],[-81.2658,37.23604],[-81.2647,37.23565],[-81.26455,37.23521],[-81.26471,37.23565],[-81.2658,37.23604],[-81.2664,37.23648],[-81.26668,37.23732],[-81.26593,37.23741],[-81.26456,37.2373],[-81.26284,37.23675],[-81.25951,37.23705],[-81.25494,37.23618],[-81.25182,37.23633],[-81.24919,37.23719],[-81.24156,37.24108],[-81.23813,37.24226],[-81.23896,37.24321],[-81.24073,37.24333],[-81.24061,37.2428],[-81.23959,37.24283],[-81.23944,37.24329],[-81.23896,37.24321],[-81.23862,37.2428],[-81.23864,37.2423],[-81.24219,37.241],[-81.24851,37.23775],[-81.24929,37.23943],[-81.25129,37.23892],[-81.25191,37.24011],[-81.25262,37.23993],[-81.25287,37.24054],[-81.25383,37.2402],[-81.25324,37.23869],[-81.25627,37.23793],[-81.25704,37.23986],[-81.25853,37.23957],[-81.25938,37.23968],[-81.25989,37.23996],[-81.2615,37.24243],[-81.26358,37.24327],[-81.26487,37.24422],[-81.26703,37.24768],[-81.26747,37.24891],[-81.26846,37.24961],[-81.26984,37.24977],[-81.27012,37.24995],[-81.27056,37.25063],[-81.27127,37.25272],[-81.26946,37.25326]],"type":"LineString"},"properties":{"color":"#806432","color_name":"brown","kind":"route","label":"Gold","long":"Gold","route_id":"19163","text_color":"#FFFFFF","type_label":"Bus"},"type":"Feature"},{"geometry":{"coordinates":[[-81.27874,37.25053],[-81.27936,37.25053],[-81.28029,37.25097],[-81.27869,37.25178],[-81.27797,37.25251],[-81.27856,37.25387],[-81.27699,37.25402],[-81.27546,37.25364],[-81.27382,37.25373],[-81.27153,37.25355],[-81.27181,37.25444],[-81.27229,37.25487],[-81.2732,37.25525],[-81.2752,37.2553],[-81.27634,37.25598],[-81.27665,37.25726],[-81.2779,37.25833],[-81.27848,37.2591],[-81.28269,37.26788],[-81.28332,37.2686],[-81.28471,37.26916],[-81.2864,37.26896],[-81.29261,37.26497],[-81.29382,37.26473],[-81.29451,37.26507],[-81.29795,37.26803],[-81.30377,37.26934],[-81.30495,37.27072],[-81.30558,37.27182],[-81.3067,37.27299],[-81.30812,37.27378],[-81.31099,37.27486],[-81.3113,37.27514],[-81.31167,37.27717],[-81.31269,37.2783],[-81.31347,37.27999],[-81.31409,37.28405],[-81.31378,37.28562],[-81.3143,37.28827],[-81.31422,37.28924],[-81.3139,37.2898],[-81.31263,37.29078],[-81.31121,37.29257],[-81.31082,37.2927],[-81.31002,37.29237],[-81.30933,37.29243],[-81.30515,37.29458],[-81.30415,37.2955],[-81.30377,37.29669],[-81.30425,37.30138],[-81.30452,37.30214],[-81.30525,37.30298],[-81.30614,37.30345],[-81.31137,37.30528],[-81.31412,37.30681],[-81.31464,37.30737],[-81.31509,37.30828],[-81.31596,37.31056],[-81.31613,37.3118],[-81.31646,37.31224],[-81.31803,37.31301],[-81.32164,37.31429],[-81.32389,37.31411],[-81.32568,37.31458],[-81.32634,37.31431],[-81.32715,37.31332],[-81.32643,37.31184],[-81.32652,37.31143],[-81.32782,37.31069],[-81.32814,37.31026],[-81.32802,37.3082],[-81.32827,37.30769],[-81.32886,37.3073],[-81.33049,37.30808],[-81.3312,37.31002],[-81.3335,37.31149],[-81.33424,37.31169],[-81.33492,37.31152],[-81.33524,37.31123],[-81.33537,37.31065],[-81.33443,37.30936],[-81.33458,37.30843],[-81.33511,37.30841],[-81.33666,37.30897],[-81.33872,37.30918],[-81.33913,37.30903],[-81.33908,37.30734],[-81.33943,37.30607],[-81.34046,37.30506],[-81.3398,37.30406],[-81.34045,37.3051],[-81.33946,37.306],[-81.34045,37.3051],[-81.34011,37.30452],[-81.3417,37.30381],[-81.34215,37.30379],[-81.34592,37.30579],[-81.34582,37.306],[-81.34614,37.30687],[-81.34589,37.30736],[-81.34614,37.30687],[-81.34582,37.306],[-81.34592,37.30579],[-81.34529,37.30539],[-81.34205,37.30377],[-81.34011,37.30452],[-81.33942,37.30353],[-81.34011,37.30452],[-81.33812,37.3054],[-81.33873,37.30631],[-81.33949,37.30591],[-81.33908,37.30734],[-81.3392,37.30846],[-81.33903,37.30911],[-81.33666,37.30897],[-81.33511,37.30841],[-81.33458,37.30843],[-81.33443,37.30936],[-81.33537,37.31083],[-81.33492,37.31152],[-81.33393,37.31165],[-81.3312,37.31002],[-81.33049,37.30808],[-81.32886,37.3073],[-81.32827,37.30769],[-81.32802,37.3082],[-81.32814,37.31026],[-81.32782,37.31069],[-81.32652,37.31143],[-81.32643,37.31184],[-81.32715,37.31332],[-81.32634,37.31431],[-81.32568,37.31458],[-81.32389,37.31411],[-81.32164,37.31429],[-81.31803,37.31301],[-81.31646,37.31224],[-81.31613,37.3118],[-81.31596,37.31056],[-81.31509,37.30828],[-81.31464,37.30737],[-81.31412,37.30681],[-81.31137,37.30528],[-81.30614,37.30345],[-81.30525,37.30298],[-81.30452,37.30214],[-81.30425,37.30138],[-81.30377,37.29669],[-81.30415,37.2955],[-81.30515,37.29458],[-81.30933,37.29243],[-81.31002,37.29237],[-81.31082,37.2927],[-81.31121,37.29257],[-81.31263,37.29078],[-81.3139,37.2898],[-81.31422,37.28924],[-81.3143,37.28827],[-81.31378,37.28562],[-81.31409,37.28405],[-81.31347,37.27999],[-81.31269,37.2783],[-81.31167,37.27717],[-81.3113,37.27514],[-81.31099,37.27486],[-81.30812,37.27378],[-81.3067,37.27299],[-81.30558,37.27182],[-81.30495,37.27072],[-81.30377,37.26934],[-81.29795,37.26803],[-81.29451,37.26507],[-81.29382,37.26473],[-81.29261,37.26497],[-81.2864,37.26896],[-81.28471,37.26916],[-81.28332,37.2686],[-81.28269,37.26788],[-81.27848,37.2591],[-81.2779,37.25833],[-81.27665,37.25726],[-81.27627,37.25591],[-81.2752,37.2553],[-81.27308,37.25522],[-81.27188,37.25457],[-81.27056,37.25063],[-81.27018,37.25004],[-81.26984,37.24977],[-81.26846,37.24961],[-81.26747,37.24891],[-81.26703,37.24768],[-81.26487,37.24422],[-81.26375,37.24336],[-81.2619,37.24267],[-81.26135,37.2423],[-81.26064,37.24103],[-81.26015,37.23948],[-81.25704,37.23986],[-81.25627,37.23793],[-81.2553,37.23817],[-81.25589,37.23965],[-81.25686,37.23941],[-81.25704,37.23986],[-81.25869,37.23956],[-81.25955,37.23975],[-81.26009,37.24018],[-81.2615,37.24243],[-81.26358,37.24327],[-81.26459,37.24392],[-81.26666,37.24703],[-81.26747,37.24891],[-81.26846,37.24961],[-81.26991,37.24979],[-81.27036,37.25028],[-81.27153,37.25355],[-81.27382,37.25373],[-81.27546,37.25364],[-81.27699,37.25402],[-81.27856,37.25387],[-81.27797,37.25251],[-81.27869,37.25178],[-81.28029,37.25097],[-81.27936,37.25053],[-81.27874,37.25053]],"type":"LineString"},"properties":{"color":"#453C4F","color_name":"green","kind":"route","label":"Pocahontas","long":"Pocahontas","route_id":"19164","text_color":"#FFFFFF","type_label":"Bus"},"type":"Feature"},{"geometry":{"coordinates":[-81.26943,37.2532],"type":"Point"},"properties":{"kind":"stop","name":"427 Virginia Ave at Treasury Office","stop_id":"2740183"},"type":"Feature"},{"geometry":{"coordinates":[-81.26611,37.25601],"type":"Point"},"properties":{"kind":"stop","name":"Crescent View","stop_id":"2740184"},"type":"Feature"},{"geometry":{"coordinates":[-81.27082,37.25478],"type":"Point"},"properties":{"kind":"stop","name":"111 Thayer St at Graham Manor","stop_id":"2740185"},"type":"Feature"},{"geometry":{"coordinates":[-81.27874,37.25048],"type":"Point"},"properties":{"kind":"stop","name":"3 Gurney St at Bluefield Transit","stop_id":"2740186"},"type":"Feature"},{"geometry":{"coordinates":[-81.26177,37.24271],"type":"Point"},"properties":{"kind":"stop","name":"Twin City Plaza","stop_id":"2740187"},"type":"Feature"},{"geometry":{"coordinates":[-81.25537,37.23809],"type":"Point"},"properties":{"kind":"stop","name":"Ridgeview Plaza at Walmart","stop_id":"2740188"},"type":"Feature"},{"geometry":{"coordinates":[-81.25118,37.23905],"type":"Point"},"properties":{"kind":"stop","name":"College Plaza Shopping Center","stop_id":"2740189"},"type":"Feature"},{"geometry":{"coordinates":[-81.24072,37.24287],"type":"Point"},"properties":{"kind":"stop","name":"1000 Leatherwood Ln at Food City","stop_id":"2740190"},"type":"Feature"},{"geometry":{"coordinates":[-81.2401,37.24404],"type":"Point"},"properties":{"kind":"stop","name":"2058 Leatherwood Ln at Westgate Shopping Center","stop_id":"2740191"},"type":"Feature"},{"geometry":{"coordinates":[-81.2348,37.25546],"type":"Point"},"properties":{"kind":"stop","name":"Bluefield Regional Hospital","stop_id":"2740192"},"type":"Feature"},{"geometry":{"coordinates":[-81.28455,37.24594],"type":"Point"},"properties":{"kind":"stop","name":"Mobile Estates","stop_id":"2740193"},"type":"Feature"},{"geometry":{"coordinates":[-81.28113,37.23916],"type":"Point"},"properties":{"kind":"stop","name":"Pine Hill Park","stop_id":"2740194"},"type":"Feature"},{"geometry":{"coordinates":[-81.29416,37.23663],"type":"Point"},"properties":{"kind":"stop","name":"Fincastle Estates","stop_id":"2740195"},"type":"Feature"},{"geometry":{"coordinates":[-81.28277,37.23229],"type":"Point"},"properties":{"kind":"stop","name":"Sedgewood","stop_id":"2740196"},"type":"Feature"},{"geometry":{"coordinates":[-81.27535,37.2359],"type":"Point"},"properties":{"kind":"stop","name":"Forest Hills","stop_id":"2740197"},"type":"Feature"},{"geometry":{"coordinates":[-81.26923,37.23567],"type":"Point"},"properties":{"kind":"stop","name":"Double Gates","stop_id":"2740198"},"type":"Feature"},{"geometry":{"coordinates":[-81.26456,37.23519],"type":"Point"},"properties":{"kind":"stop","name":"108 Huffard Dr at Public Library","stop_id":"2740199"},"type":"Feature"},{"geometry":{"coordinates":[-81.3091,37.24549],"type":"Point"},"properties":{"kind":"stop","name":"VFW Post 9696","stop_id":"2740200"},"type":"Feature"},{"geometry":{"coordinates":[-81.30485,37.30245],"type":"Point"},"properties":{"kind":"stop","name":"Nemours Grocery","stop_id":"2740201"},"type":"Feature"},{"geometry":{"coordinates":[-81.3072,37.29343],"type":"Point"},"properties":{"kind":"stop","name":"Yards","stop_id":"2740202"},"type":"Feature"},{"geometry":{"coordinates":[-81.31038,37.27455],"type":"Point"},"properties":{"kind":"stop","name":"3401 Falls Mills Rd","stop_id":"2740203"},"type":"Feature"},{"geometry":{"coordinates":[-81.28775,37.26829],"type":"Point"},"properties":{"kind":"stop","name":"1806 Falls Mills Rd at Woodtech","stop_id":"2740204"},"type":"Feature"},{"geometry":{"coordinates":[-81.346,37.30739],"type":"Point"},"properties":{"kind":"stop","name":"Pocahontas Exhibition Coal Mine & Museum","stop_id":"2740206"},"type":"Feature"},{"geometry":{"coordinates":[-81.33971,37.30405],"type":"Point"},"properties":{"kind":"stop","name":"Dollar General, Pocahontas","stop_id":"2740207"},"type":"Feature"},{"geometry":{"coordinates":[-81.33952,37.30602],"type":"Point"},"properties":{"kind":"stop","name":"Pocahontas","stop_id":"2740208"},"type":"Feature"},{"geometry":{"coordinates":[-81.33948,37.3035],"type":"Point"},"properties":{"kind":"stop","name":"Indian Princess Apartments, Pocahontas","stop_id":"2740209"},"type":"Feature"},{"geometry":{"coordinates":[-81.33808,37.30547],"type":"Point"},"properties":{"kind":"stop","name":"Water Street, Pocahontas","stop_id":"2740210"},"type":"Feature"},{"geometry":{"coordinates":[-81.26348,37.24355],"type":"Point"},"properties":{"kind":"stop","name":"Hardee's, Bluefield","stop_id":"2740211"},"type":"Feature"},{"geometry":{"coordinates":[-81.24437,37.26116],"type":"Point"},"properties":{"kind":"stop","name":"Bluefield Ave & Mulberry St","stop_id":"2740218"},"type":"Feature"},{"geometry":{"coordinates":[-81.24344,37.24179],"type":"Point"},"properties":{"kind":"stop","name":"Westwood Medical Park","stop_id":"2740478"},"type":"Feature"},{"geometry":{"coordinates":[-81.30335,37.24751],"type":"Point"},"properties":{"kind":"stop","name":"West Graham","stop_id":"2740479"},"type":"Feature"}],"type":"FeatureCollection"}
