{"features":[{"geometry":{"coordinates":[[-80.55622,37.12966],[-80.55726,37.12866],[-80.55625,37.12965],[-80.55572,37.12955],[-80.55531,37.13023],[-80.55666,37.13087],[-80.55624,37.13229],[-80.55596,37.13432],[-80.5559,37.13516],[-80.55607,37.1357],[-80.55261,37.13497],[-80.55317,37.1397],[-80.55374,37.14049],[-80.5537,37.14154],[-80.5529,37.14144],[-80.55378,37.14115],[-80.55214,37.14119],[-80.5502,37.14055],[-80.5489,37.13947],[-80.5459,37.13784],[-80.54791,37.13554],[-80.54851,37.13588],[-80.54845,37.1361],[-80.54814,37.13628],[-80.54756,37.13594],[-80.54964,37.13358],[-80.5504,37.13382],[-80.5507,37.13374],[-80.55144,37.13409],[-80.55166,37.134],[-80.55254,37.13484],[-80.55273,37.13582],[-80.55568,37.13561],[-80.55644,37.13579],[-80.55607,37.1357],[-80.5559,37.13499],[-80.55616,37.13269],[-80.55666,37.13087],[-80.55531,37.13027],[-80.55572,37.12955],[-80.55624,37.12965]],"type":"LineString"},"properties":{"color":"#17BECF","color_name":"teal","kind":"route","label":"60","long":"South Beech Express","route_id":"77239","text_color":"#FFFFFF","type_label":"Bus"},"type":"Feature"},{"geometry":{"coordinates":[[-80.54111,37.13379],[-80.54224,37.13429],[-80.54261,37.13372],[-80.54032,37.1328],[-80.53998,37.13333],[-80.54224,37.13429],[-80.54316,37.13286],[-80.54444,37.13359],[-80.54562,37.13228],[-80.54589,37.13222],[-80.54925,37.13403],[-80.54791,37.13554],[-80.54851,37.13588],[-80.54814,37.13628],[-80.54756,37.13594],[-80.54964,37.13358],[-80.5504,37.13382],[-80.5507,37.13374],[-80.55144,37.13409],[-80.55166,37.134],[-80.55263,37.13503],[-80.55317,37.1397],[-80.55377,37.14063],[-80.5537,37.14154],[-80.55291,37.14154],[-80.55378,37.14115],[-80.55214,37.14119],[-80.5502,37.14055],[-80.5487,37.13936],[-80.54312,37.13628],[-80.54141,37.13556],[-80.54223,37.13429],[-80.54112,37.13379]],"type":"LineString"},"properties":{"color":"#1F77B4","color_name":"teal","kind":"route","label":"50","long":"Highlander Circle","route_id":"77240","text_color":"#FFFFFF","type_label":"Bus"},"type":"Feature"},{"geometry":{"coordinates":[[-80.55369,37.14136],[-80.5537,37.14154],[-80.55291,37.14154],[-80.55378,37.14115],[-80.55214,37.14119],[-80.55005,37.14047],[-80.54923,37.1397],[-80.54841,37.13926],[-80.54885,37.13859],[-80.54955,37.13859],[-80.54927,37.13911],[-80.54856,37.13908],[-80.54841,37.13926],[-80.54312,37.13628],[-80.53495,37.13303],[-80.53054,37.13238],[-80.52518,37.13244],[-80.52281,37.13312],[-80.52226,37.13312],[-80.51853,37.13148],[-80.51687,37.13044],[-80.51527,37.13065],[-80.5131,37.13124],[-80.51211,37.13115],[-80.51125,37.13063],[-80.50984,37.129],[-80.50871,37.1286],[-80.50062,37.12983],[-80.49869,37.12989],[-80.49607,37.12957],[-80.48868,37.13054],[-80.48208,37.13108],[-80.47715,37.13094],[-80.46393,37.13267],[-80.46167,37.13279],[-80.45836,37.13237],[-80.44846,37.12968],[-80.43672,37.12712],[-80.41726,37.12783],[-80.41661,37.12776],[-80.41274,37.12652],[-80.40881,37.12984],[-80.41255,37.13247],[-80.41143,37.13366],[-80.41054,37.13508],[-80.40838,37.1377],[-80.40939,37.13861],[-80.41158,37.13831],[-80.41376,37.13851],[-80.41419,37.13902],[-80.4145,37.13911],[-80.41479,37.14028],[-80.41503,37.14133],[-80.41505,37.14545],[-80.41449,37.15264],[-80.4142,37.15336],[-80.413,37.15475],[-80.41279,37.15565],[-80.41305,37.15613],[-80.41355,37.15647],[-80.41571,37.1566],[-80.41724,37.1573],[-80.42046,37.15932],[-80.42162,37.16039],[-80.4227,37.16174],[-80.42323,37.16314],[-80.42329,37.16456],[-80.42278,37.16613],[-80.42398,37.16646],[-80.42471,37.16625],[-80.42521,37.16666],[-80.42772,37.16764],[-80.42886,37.16743],[-80.42933,37.16708],[-80.42964,37.16473],[-80.42987,37.1642],[-80.42974,37.1639],[-80.42902,37.16426],[-80.4288,37.16469],[-80.42852,37.16591],[-80.42896,37.16713],[-80.42886,37.16743],[-80.42772,37.16764],[-80.42521,37.16666],[-80.42467,37.16615],[-80.42383,37.16641],[-80.423,37.16621],[-80.42344,37.16511],[-80.42356,37.1636],[-80.42329,37.16247],[-80.42269,37.16134],[-80.42085,37.15929],[-80.41673,37.15676],[-80.41512,37.15465],[-80.41427,37.154],[-80.41456,37.15333],[-80.4147,37.15227],[-80.41518,37.14547],[-80.41517,37.14136],[-80.41463,37.13907],[-80.41419,37.13902],[-80.41376,37.13851],[-80.41243,37.13834],[-80.41247,37.1382],[-80.41251,37.13835],[-80.40939,37.13861],[-80.40838,37.1377],[-80.41054,37.13508],[-80.41143,37.13366],[-80.41255,37.13247],[-80.40881,37.12984],[-80.41238,37.12681],[-80.41284,37.12669],[-80.41726,37.12783],[-80.43672,37.12712],[-80.44846,37.12968],[-80.45836,37.13237],[-80.46167,37.13279],[-80.46393,37.13267],[-80.47715,37.13094],[-80.48208,37.13108],[-80.48868,37.13054],[-80.49607,37.12957],[-80.49869,37.12989],[-80.50062,37.12983],[-80.50871,37.1286],[-80.50984,37.129],[-80.51125,37.13063],[-80.51211,37.13115],[-80.5131,37.13124],[-80.51527,37.13065],[-80.51687,37.13044],[-80.51853,37.13148],[-80.52226,37.13312],[-80.52541,37.13243],[-80.53082,37.13238],[-80.53448,37.1329],[-80.54277,37.13612],[-80.5459,37.13784],[-80.54791,37.13554],[-80.54851,37.13588],[-80.54845,37.1361],[-80.54814,37.13628],[-80.54756,37.13594],[-80.54964,37.13358],[-80.5504,37.13382],[-80.5507,37.13374],[-80.55144,37.13409],[-80.55166,37.134],[-80.55263,37.13503],[-80.55317,37.1397],[-80.55374,37.14049],[-80.5537,37.14137]],"type":"LineString"},"properties":{"color":"#A55194","color_name":"purple","kind":"route","label":"41","long":"NRV Connect","route_id":"77242","text_color":"#FFFFFF","type_label":"Bus"},"type":"Feature"},{"geometry":{"coordinates":[[-80.55369,37.14136],[-80.5537,37.14154],[-80.55291,37.14154],[-80.55378,37.14115],[-80.55214,37.14119],[-80.5502,37.14055],[-80.5489,37.13947],[-80.54312,37.13628],[-80.53495,37.13303],[-80.53054,37.13238],[-80.52518,37.13244],[-80.52281,37.13312],[-80.52226,37.13312],[-80.51853,37.13148],[-80.51687,37.13044],[-80.51527,37.13065],[-80.5131,37.13124],[-80.51211,37.13115],[-80.51125,37.13063],[-80.50984,37.129],[-80.50871,37.1286],[-80.50062,37.12983],[-80.49869,37.12989],[-80.49607,37.12957],[-80.48868,37.13054],[-80.48208,37.13108],[-80.47715,37.13094],[-80.46393,37.13267],[-80.46167,37.13279],[-80.45836,37.13237],[-80.44846,37.12968],[-80.43672,37.12712],[-80.41726,37.12783],[-80.41661,37.12776],[-80.41274,37.12652],[-80.40881,37.12984],[-80.41255,37.13247],[-80.41143,37.13366],[-80.41054,37.13508],[-80.40838,37.1377],[-80.40939,37.13861],[-80.41158,37.13831],[-80.41376,37.13851],[-80.41419,37.13902],[-80.4145,37.13911],[-80.41479,37.14028],[-80.41503,37.14133],[-80.41505,37.14545],[-80.41449,37.15264],[-80.4142,37.15336],[-80.41288,37.15497],[-80.41284,37.15578],[-80.41314,37.15622],[-80.41375,37.15654],[-80.41571,37.1566],[-80.41724,37.1573],[-80.42046,37.15932],[-80.42162,37.16039],[-80.4227,37.16174],[-80.42323,37.16314],[-80.42329,37.16456],[-80.42278,37.16613],[-80.42398,37.16646],[-80.42471,37.16625],[-80.42521,37.16666],[-80.42772,37.16764],[-80.42886,37.16743],[-80.42933,37.16708],[-80.42964,37.16473],[-80.42987,37.1642],[-80.42974,37.1639],[-80.42902,37.16426],[-80.42854,37.1658],[-80.42898,37.16738],[-80.4278,37.16764],[-80.42521,37.16666],[-80.42467,37.16615],[-80.42383,37.16641],[-80.423,37.16621],[-80.42344,37.16511],[-80.42356,37.1636],[-80.41343,37.16486],[-80.41303,37.16477],[-80.41262,37.16438],[-80.41257,37.16388],[-80.41277,37.16356],[-80.41358,37.16337],[-80.41415,37.16378],[-80.41673,37.17003],[-80.41701,37.17191],[-80.41669,37.17333],[-80.41603,37.17451],[-80.41503,37.17553],[-80.40434,37.18255],[-80.40319,37.18352],[-80.40238,37.18479],[-80.40096,37.18855],[-80.40071,37.18962],[-80.40078,37.19082],[-80.40152,37.19237],[-80.40286,37.19361],[-80.4086,37.19751],[-80.42727,37.20942],[-80.43017,37.2116],[-80.43245,37.21369],[-80.43608,37.21764],[-80.43765,37.21951],[-80.43874,37.22119],[-80.43991,37.22388],[-80.44014,37.22547],[-80.43952,37.22757],[-80.43875,37.22869],[-80.43802,37.22933],[-80.43516,37.23111],[-80.43422,37.23148],[-80.43313,37.23159],[-80.42938,37.23138],[-80.42824,37.23171],[-80.42531,37.23315],[-80.42364,37.23221],[-80.42448,37.2322],[-80.42506,37.23175],[-80.42492,37.23157],[-80.424,37.23213],[-80.4234,37.23224],[-80.4234,37.23246],[-80.42452,37.23272],[-80.42508,37.23341],[-80.42828,37.23182],[-80.42936,37.23148],[-80.43315,37.23171],[-80.43431,37.23157],[-80.43532,37.23116],[-80.43818,37.22937],[-80.44006,37.22733],[-80.44085,37.22673],[-80.44162,37.22663],[-80.44183,37.22709],[-80.44141,37.22763],[-80.44086,37.22736],[-80.44006,37.22355],[-80.43928,37.22171],[-80.4381,37.21976],[-80.43325,37.21421],[-80.4307,37.21179],[-80.42747,37.20932],[-80.40971,37.19799],[-80.40334,37.19369],[-80.40188,37.19247],[-80.40109,37.19108],[-80.40092,37.18992],[-80.40109,37.1889],[-80.40262,37.18481],[-80.40338,37.18364],[-80.4044,37.18276],[-80.41481,37.17597],[-80.41579,37.17513],[-80.41653,37.17417],[-80.41715,37.17267],[-80.41724,37.17123],[-80.41691,37.16986],[-80.41594,37.16767],[-80.41576,37.16506],[-80.41592,37.16484],[-80.41633,37.16465],[-80.42299,37.16385],[-80.42325,37.16416],[-80.42326,37.16481],[-80.42276,37.16613],[-80.42398,37.16647],[-80.42471,37.16625],[-80.42522,37.16667],[-80.42785,37.16766],[-80.42896,37.16739],[-80.42931,37.16713],[-80.42963,37.16475],[-80.42987,37.16417],[-80.42974,37.16389],[-80.42902,37.16426],[-80.4288,37.16469],[-80.42852,37.16591],[-80.42896,37.16713],[-80.42886,37.16743],[-80.42772,37.16764],[-80.42521,37.16666],[-80.42467,37.16615],[-80.42383,37.16641],[-80.423,37.16621],[-80.42344,37.16511],[-80.42356,37.1636],[-80.42329,37.16247],[-80.42269,37.16134],[-80.42085,37.15929],[-80.41673,37.15676],[-80.41512,37.15465],[-80.41427,37.154],[-80.41456,37.15333],[-80.4147,37.15227],[-80.41518,37.14547],[-80.41517,37.14136],[-80.41463,37.13907],[-80.41419,37.13902],[-80.41376,37.13851],[-80.41243,37.13834],[-80.41247,37.1382],[-80.41251,37.13835],[-80.40939,37.13861],[-80.40838,37.1377],[-80.41054,37.13508],[-80.41143,37.13366],[-80.41255,37.13247],[-80.40881,37.12984],[-80.41264,37.12673],[-80.41309,37.12668],[-80.41726,37.12783],[-80.43672,37.12712],[-80.44846,37.12968],[-80.45836,37.13237],[-80.46167,37.13279],[-80.46393,37.13267],[-80.47715,37.13094],[-80.48208,37.13108],[-80.48868,37.13054],[-80.49607,37.12957],[-80.49869,37.12989],[-80.50062,37.12983],[-80.50871,37.1286],[-80.50984,37.129],[-80.51125,37.13063],[-80.51211,37.13115],[-80.5131,37.13124],[-80.51527,37.13065],[-80.51687,37.13044],[-80.51853,37.13148],[-80.52226,37.13312],[-80.52541,37.13243],[-80.53082,37.13238],[-80.53448,37.1329],[-80.54277,37.13612],[-80.5459,37.13784],[-80.54791,37.13554],[-80.54851,37.13588],[-80.54845,37.1361],[-80.54814,37.13628],[-80.54756,37.13594],[-80.54964,37.13358],[-80.5504,37.13382],[-80.5507,37.13374],[-80.55144,37.13409],[-80.55166,37.134],[-80.55263,37.13503],[-80.55317,37.1397],[-80.55374,37.14049],[-80.5537,37.14137]],"type":"LineString"},"properties":{"color":"#A55194","color_name":"purple","kind":"route","label":"40","long":"NRV Connect Late Night","route_id":"77243","text_color":"#FFFFFF","type_label":"Bus"},"type":"Feature"},{"geometry":{"coordinates":[[-80.55369,37.14136],[-80.5537,37.14154],[-80.55291,37.14154],[-80.55378,37.14115],[-80.55214,37.14119],[-80.55005,37.14047],[-80.54923,37.1397],[-80.54841,37.13926],[-80.54885,37.13859],[-80.54955,37.13859],[-80.54926,37.13912],[-80.54856,37.13908],[-80.5488,37.1391],[-80.54841,37.13926],[-80.54312,37.13628],[-80.53495,37.13303],[-80.53054,37.13238],[-80.52518,37.13244],[-80.52281,37.13312],[-80.52226,37.13312],[-80.51853,37.13148],[-80.51687,37.13044],[-80.51527,37.13065],[-80.5131,37.13124],[-80.51211,37.13115],[-80.51125,37.13063],[-80.50984,37.129],[-80.50871,37.1286],[-80.50062,37.12983],[-80.49869,37.12989],[-80.49607,37.12957],[-80.48868,37.13054],[-80.48208,37.13108],[-80.47715,37.13094],[-80.46393,37.13267],[-80.46167,37.13279],[-80.45836,37.13237],[-80.44846,37.12968],[-80.43672,37.12712],[-80.41726,37.12783],[-80.41661,37.12776],[-80.41274,37.12652],[-80.40881,37.12984],[-80.41255,37.13247],[-80.41143,37.13366],[-80.41054,37.13508],[-80.40838,37.1377],[-80.40939,37.13861],[-80.41158,37.13831],[-80.41376,37.13851],[-80.41419,37.13902],[-80.4145,37.13911],[-80.41479,37.14028],[-80.41503,37.14133],[-80.41505,37.14545],[-80.41449,37.15264],[-80.4142,37.15336],[-80.413,37.15475],[-80.41279,37.15565],[-80.41305,37.15613],[-80.41355,37.15647],[-80.41571,37.1566],[-80.41724,37.1573],[-80.42046,37.15932],[-80.42162,37.16039],[-80.4227,37.16174],[-80.42323,37.16314],[-80.42329,37.16456],[-80.42278,37.16613],[-80.42398,37.16646],[-80.42471,37.16625],[-80.42521,37.16666],[-80.42772,37.16764],[-80.42886,37.16743],[-80.42933,37.16708],[-80.42964,37.16473],[-80.42987,37.1642],[-80.42974,37.1639],[-80.42902,37.16426],[-80.4288,37.16469],[-80.42852,37.16591],[-80.42896,37.16713],[-80.42886,37.16743],[-80.42772,37.16764],[-80.42521,37.16666],[-80.42467,37.16615],[-80.42383,37.16641],[-80.423,37.16621],[-80.42344,37.16511],[-80.42356,37.1636],[-80.42329,37.16247],[-80.42269,37.16134],[-80.42085,37.15929],[-80.41673,37.15676],[-80.41512,37.15465],[-80.41427,37.154],[-80.41456,37.15333],[-80.4147,37.15227],[-80.41518,37.14547],[-80.41517,37.14136],[-80.41463,37.13907],[-80.41419,37.13902],[-80.41376,37.13851],[-80.41243,37.13834],[-80.41247,37.1382],[-80.41251,37.13835],[-80.40939,37.13861],[-80.40838,37.1377],[-80.41054,37.13508],[-80.41143,37.13366],[-80.41255,37.13247],[-80.40881,37.12984],[-80.41238,37.12681],[-80.41284,37.12669],[-80.41726,37.12783],[-80.43672,37.12712],[-80.44846,37.12968],[-80.45836,37.13237],[-80.46167,37.13279],[-80.46393,37.13267],[-80.47715,37.13094],[-80.48208,37.13108],[-80.48868,37.13054],[-80.49607,37.12957],[-80.49869,37.12989],[-80.50062,37.12983],[-80.50871,37.1286],[-80.50984,37.129],[-80.51125,37.13063],[-80.51211,37.13115],[-80.5131,37.13124],[-80.51527,37.13065],[-80.51687,37.13044],[-80.51853,37.13148],[-80.52226,37.13312],[-80.52541,37.13243],[-80.53082,37.13238],[-80.53448,37.1329],[-80.54277,37.13612],[-80.5459,37.13784],[-80.54791,37.13554],[-80.54851,37.13588],[-80.54845,37.1361],[-80.54814,37.13628],[-80.54756,37.13594],[-80.54964,37.13358],[-80.5504,37.13382],[-80.5507,37.13374],[-80.55144,37.13409],[-80.55166,37.134],[-80.55263,37.13503],[-80.55317,37.1397],[-80.55374,37.14049],[-80.5537,37.14137]],"type":"LineString"},"properties":{"color":"#A55194","color_name":"purple","kind":"route","label":"40","long":"NRV Connect","route_id":"77244","text_color":"#FFFFFF","type_label":"Bus"},"type":"Feature"},{"geometry":{"coordinates":[[-80.57979,37.10635],[-80.57916,37.10574],[-80.57835,37.10534],[-80.57923,37.10428],[-80.58038,37.10405],[-80.58071,37.10512],[-80.58153,37.10596],[-80.58264,37.10647],[-80.58553,37.10726],[-80.58459,37.10766],[-80.5848,37.10819],[-80.58614,37.10808],[-80.58651,37.10833],[-80.58765,37.1081],[-80.58904,37.10971],[-80.59007,37.10943],[-80.59037,37.1098],[-80.59041,37.11188],[-80.58934,37.11297],[-80.5904,37.11307],[-80.59024,37.11985],[-80.58882,37.12408],[-80.58615,37.12685],[-80.57631,37.13347],[-80.57112,37.13641],[-80.57564,37.13995],[-80.57994,37.14275],[-80.58018,37.14251],[-80.58097,37.14298],[-80.58213,37.14185],[-80.58134,37.14135],[-80.57994,37.14275],[-80.58603,37.14675],[-80.58599,37.14713],[-80.5831,37.14977],[-80.58379,37.15039],[-80.5824,37.1514],[-80.58246,37.15159],[-80.58356,37.15255],[-80.58513,37.15143],[-80.58515,37.15129],[-80.58451,37.15101],[-80.5831,37.14977],[-80.58644,37.1466],[-80.58428,37.14558],[-80.57842,37.14175],[-80.57214,37.13696],[-80.57179,37.13648],[-80.57203,37.13591],[-80.57631,37.13347],[-80.57868,37.13189],[-80.56542,37.11922],[-80.56212,37.12091],[-80.56155,37.12152],[-80.56128,37.12157],[-80.56144,37.12166],[-80.56212,37.12091],[-80.56542,37.11922],[-80.56236,37.1163],[-80.56633,37.1148],[-80.57261,37.12083],[-80.57454,37.11976],[-80.57523,37.12026],[-80.57722,37.1209],[-80.57889,37.12204],[-80.58487,37.12773],[-80.58607,37.12691],[-80.58882,37.12408],[-80.59026,37.11979],[-80.5904,37.11307],[-80.58934,37.11297],[-80.59041,37.11188],[-80.59042,37.1099],[-80.58917,37.10837],[-80.58839,37.10792],[-80.58431,37.1068],[-80.58279,37.10754],[-80.58174,37.10764],[-80.58058,37.10732],[-80.57979,37.10635]],"type":"LineString"},"properties":{"color":"#2CA02C","color_name":"green","kind":"route","label":"35","long":"New River Rapid","route_id":"77245","text_color":"#FFFFFF","type_label":"Bus"},"type":"Feature"},{"geometry":{"coordinates":[[-80.57979,37.10635],[-80.57916,37.10574],[-80.57835,37.10534],[-80.57923,37.10428],[-80.58038,37.10405],[-80.58071,37.10512],[-80.58153,37.10596],[-80.58264,37.10647],[-80.58553,37.10726],[-80.58459,37.10766],[-80.5848,37.10819],[-80.58614,37.10808],[-80.58651,37.10833],[-80.58765,37.1081],[-80.58904,37.10971],[-80.59007,37.10943],[-80.59039,37.10983],[-80.59041,37.11188],[-80.58934,37.11297],[-80.5904,37.11307],[-80.59027,37.11971],[-80.58877,37.12415],[-80.58615,37.12685],[-80.58487,37.12773],[-80.57889,37.12204],[-80.57754,37.12106],[-80.57523,37.12026],[-80.57454,37.11976],[-80.57261,37.12083],[-80.56633,37.1148],[-80.56236,37.1163],[-80.56542,37.11922],[-80.56212,37.12091],[-80.56131,37.12164],[-80.56212,37.12091],[-80.56542,37.11922],[-80.57264,37.12613],[-80.56829,37.12883],[-80.56906,37.1297],[-80.56777,37.13043],[-80.56854,37.1313],[-80.56726,37.13199],[-80.56572,37.1304],[-80.56249,37.1294],[-80.56213,37.12905],[-80.55929,37.12942],[-80.55702,37.1305],[-80.55666,37.13087],[-80.55749,37.13122],[-80.55915,37.13264],[-80.55964,37.13268],[-80.56039,37.13226],[-80.56118,37.13221],[-80.56138,37.13232],[-80.56144,37.1329],[-80.56028,37.13296],[-80.56006,37.13245],[-80.55921,37.13267],[-80.55749,37.13122],[-80.55666,37.13087],[-80.55616,37.13269],[-80.55591,37.13529],[-80.55607,37.1357],[-80.55763,37.13607],[-80.55813,37.13857],[-80.55814,37.1409],[-80.55378,37.14115],[-80.55378,37.14138],[-80.55324,37.14134],[-80.55293,37.14155],[-80.55377,37.14153],[-80.55378,37.14114],[-80.55804,37.14091],[-80.5609,37.14048],[-80.56499,37.13929],[-80.56866,37.13774],[-80.57631,37.13347],[-80.58599,37.12698],[-80.58877,37.12415],[-80.59028,37.11969],[-80.5904,37.11307],[-80.58934,37.11297],[-80.59041,37.11188],[-80.59039,37.10983],[-80.58908,37.10828],[-80.58839,37.10792],[-80.58431,37.1068],[-80.58279,37.10754],[-80.58174,37.10764],[-80.58058,37.10732],[-80.57979,37.10635]],"type":"LineString"},"properties":{"color":"#637939","color_name":"brown","kind":"route","label":"30","long":"New River Rapid","route_id":"77246","text_color":"#FFFFFF","type_label":"Bus"},"type":"Feature"},{"geometry":{"coordinates":[[-80.54263,37.12401],[-80.54283,37.12393],[-80.54305,37.12422],[-80.54254,37.12444],[-80.54226,37.12416],[-80.54114,37.12492],[-80.54016,37.12425],[-80.53722,37.12356],[-80.53683,37.1237],[-80.5323,37.11894],[-80.53106,37.11956],[-80.53224,37.1214],[-80.5336,37.12066],[-80.53557,37.1228],[-80.54129,37.12797],[-80.5425,37.12853],[-80.54655,37.12953],[-80.55241,37.13469],[-80.55266,37.13522],[-80.55317,37.1397],[-80.55376,37.14057],[-80.5537,37.14154],[-80.5529,37.14144],[-80.55378,37.14115],[-80.55214,37.14119],[-80.5502,37.14055],[-80.5489,37.13947],[-80.5459,37.13784],[-80.54791,37.13554],[-80.54851,37.13588],[-80.54845,37.1361],[-80.54814,37.13628],[-80.54756,37.13594],[-80.55054,37.1328],[-80.54679,37.12955],[-80.54576,37.12915],[-80.54614,37.12881],[-80.54576,37.12915],[-80.54278,37.12851],[-80.54183,37.12812],[-80.54188,37.1277],[-80.54114,37.12492],[-80.54263,37.12401]],"type":"LineString"},"properties":{"color":"#E6550D","color_name":"orange","kind":"route","label":"25","long":"New River Rapid","route_id":"77247","text_color":"#FFFFFF","type_label":"Bus"},"type":"Feature"},{"geometry":{"coordinates":[[-80.58401,37.15223],[-80.58515,37.15129],[-80.58451,37.15101],[-80.5831,37.14977],[-80.58644,37.1466],[-80.58428,37.14558],[-80.57994,37.14275],[-80.58018,37.14251],[-80.58094,37.14298],[-80.58212,37.14186],[-80.58134,37.14135],[-80.57994,37.14275],[-80.57785,37.14135],[-80.57129,37.13631],[-80.56709,37.13847],[-80.56362,37.13973],[-80.56005,37.14066],[-80.5559,37.14107],[-80.55234,37.14122],[-80.55137,37.14099],[-80.55005,37.14047],[-80.5489,37.13947],[-80.5459,37.13784],[-80.54791,37.13554],[-80.54851,37.13588],[-80.54845,37.1361],[-80.54814,37.13628],[-80.54756,37.13594],[-80.54964,37.13358],[-80.5504,37.13382],[-80.5507,37.13374],[-80.55144,37.13409],[-80.55166,37.134],[-80.55263,37.13503],[-80.55317,37.1397],[-80.55377,37.14063],[-80.5537,37.14137],[-80.55322,37.14134],[-80.55291,37.14155],[-80.55369,37.14155],[-80.55378,37.14115],[-80.55234,37.14122],[-80.55049,37.14068],[-80.54841,37.13926],[-80.54675,37.14059],[-80.54559,37.14094],[-80.54563,37.14124],[-80.54603,37.14181],[-80.54768,37.14279],[-80.54755,37.14321],[-80.54768,37.14362],[-80.54918,37.14513],[-80.55454,37.14574],[-80.5564,37.14533],[-80.56817,37.14012],[-80.56862,37.13915],[-80.56824,37.13874],[-80.56789,37.13867],[-80.56654,37.13913],[-80.56612,37.13888],[-80.57053,37.13674],[-80.57139,37.13673],[-80.57621,37.14035],[-80.58603,37.14675],[-80.58599,37.14713],[-80.5831,37.14977],[-80.58379,37.15039],[-80.5824,37.15141],[-80.58356,37.15255],[-80.58401,37.15223]],"type":"LineString"},"properties":{"color":"#FDAE6B","color_name":"yellow","kind":"route","label":"20","long":"New River Rapid","route_id":"77248","text_color":"#FFFFFF","type_label":"Bus"},"type":"Feature"},{"geometry":{"coordinates":[[-80.54988,37.14499],[-80.55006,37.14499],[-80.54995,37.14524],[-80.54918,37.14513],[-80.54761,37.1435],[-80.54768,37.14279],[-80.54841,37.14289],[-80.54765,37.14193],[-80.54831,37.14115],[-80.54739,37.14063],[-80.54662,37.14109],[-80.54629,37.14086],[-80.54841,37.13926],[-80.54312,37.13628],[-80.54141,37.13556],[-80.54261,37.13372],[-80.54036,37.1328],[-80.53997,37.13333],[-80.54224,37.13429],[-80.54316,37.13286],[-80.54444,37.13359],[-80.54562,37.13228],[-80.54589,37.13222],[-80.54925,37.13403],[-80.54791,37.13554],[-80.54851,37.13588],[-80.54814,37.13628],[-80.54756,37.13594],[-80.54964,37.13358],[-80.5504,37.13382],[-80.5507,37.13374],[-80.55144,37.13409],[-80.55166,37.134],[-80.55247,37.13475],[-80.55266,37.13522],[-80.55317,37.1397],[-80.55376,37.14057],[-80.5537,37.14154],[-80.5529,37.14144],[-80.55378,37.14115],[-80.55234,37.14122],[-80.55049,37.14068],[-80.54841,37.13926],[-80.54644,37.14075],[-80.54567,37.14093],[-80.5449,37.14086],[-80.54357,37.14021],[-80.54381,37.14004],[-80.54502,37.14054],[-80.5461,37.1405],[-80.5464,37.14008],[-80.54566,37.13954],[-80.54514,37.13956],[-80.54447,37.14027],[-80.54381,37.14004],[-80.54357,37.14021],[-80.54257,37.13957],[-80.54264,37.13868],[-80.54248,37.13833],[-80.54122,37.13762],[-80.54059,37.13771],[-80.53993,37.13844],[-80.54457,37.14075],[-80.54559,37.14094],[-80.54593,37.14173],[-80.54768,37.14279],[-80.54761,37.1435],[-80.54878,37.14483],[-80.5493,37.14518],[-80.54947,37.14497],[-80.54988,37.14498]],"type":"LineString"},"properties":{"color":"#FFFF55","color_name":"yellow","kind":"route","label":"15","long":"University Express","route_id":"77249","text_color":"#FFFFFF","type_label":"Bus"},"type":"Feature"},{"geometry":{"coordinates":[[-80.54988,37.14499],[-80.55006,37.14499],[-80.54995,37.14524],[-80.54918,37.14513],[-80.54761,37.1435],[-80.54768,37.14279],[-80.54841,37.14289],[-80.54765,37.14193],[-80.54831,37.14115],[-80.54739,37.14063],[-80.54662,37.14109],[-80.54629,37.14086],[-80.54841,37.13926],[-80.5459,37.13784],[-80.54791,37.13554],[-80.54851,37.13588],[-80.54845,37.1361],[-80.54814,37.13628],[-80.54756,37.13594],[-80.54964,37.13358],[-80.5504,37.13382],[-80.5507,37.13374],[-80.55144,37.13409],[-80.55166,37.134],[-80.55263,37.13503],[-80.55317,37.1397],[-80.55374,37.14049],[-80.5537,37.14154],[-80.5529,37.14144],[-80.55378,37.14115],[-80.55234,37.14122],[-80.55049,37.14068],[-80.54841,37.13926],[-80.54644,37.14075],[-80.54567,37.14093],[-80.5449,37.14086],[-80.54357,37.14021],[-80.54381,37.14004],[-80.54502,37.14054],[-80.5461,37.1405],[-80.5464,37.14008],[-80.54566,37.13954],[-80.54514,37.13956],[-80.54447,37.14027],[-80.54381,37.14004],[-80.54357,37.14021],[-80.54257,37.13957],[-80.54264,37.13868],[-80.54248,37.13833],[-80.54122,37.13762],[-80.54059,37.13771],[-80.53993,37.13844],[-80.54457,37.14075],[-80.54559,37.14094],[-80.54593,37.14173],[-80.54768,37.14279],[-80.54761,37.1435],[-80.54878,37.14483],[-80.5493,37.14518],[-80.54947,37.14497],[-80.54988,37.14498]],"type":"LineString"},"properties":{"color":"#756BB1","color_name":"purple","kind":"route","label":"11","long":"University Express","route_id":"77250","text_color":"#FFFFFF","type_label":"Bus"},"type":"Feature"},{"geometry":{"coordinates":[[-80.54765,37.14357],[-80.54918,37.14513],[-80.54947,37.14497],[-80.55008,37.14507],[-80.54997,37.14524],[-80.54918,37.14513],[-80.54761,37.1435],[-80.54768,37.14279],[-80.54841,37.14289],[-80.54765,37.14201],[-80.54831,37.14115],[-80.54739,37.14063],[-80.54662,37.14109],[-80.54629,37.14086],[-80.54841,37.13926],[-80.5459,37.13784],[-80.54791,37.13554],[-80.54851,37.13588],[-80.54845,37.1361],[-80.54814,37.13628],[-80.54756,37.13594],[-80.54964,37.13358],[-80.5504,37.13382],[-80.5507,37.13374],[-80.55144,37.13409],[-80.55166,37.134],[-80.55241,37.13469],[-80.55266,37.13522],[-80.55317,37.1397],[-80.55376,37.14057],[-80.5537,37.14154],[-80.5529,37.14144],[-80.55378,37.14115],[-80.55234,37.14122],[-80.55049,37.14068],[-80.54841,37.13926],[-80.54644,37.14075],[-80.54567,37.14093],[-80.5449,37.14086],[-80.54357,37.14021],[-80.54381,37.14004],[-80.54502,37.14054],[-80.5461,37.1405],[-80.5464,37.14008],[-80.54566,37.13954],[-80.54514,37.13956],[-80.54447,37.14027],[-80.54381,37.14004],[-80.54357,37.14021],[-80.54257,37.13957],[-80.54264,37.13868],[-80.54248,37.13833],[-80.54122,37.13762],[-80.54059,37.13771],[-80.53993,37.13844],[-80.54457,37.14075],[-80.54559,37.14094],[-80.54593,37.14173],[-80.54768,37.14279],[-80.54761,37.1435],[-80.54878,37.14483],[-80.5493,37.14518],[-80.54947,37.14497],[-80.55006,37.14499],[-80.54995,37.14524],[-80.54918,37.14513],[-80.54765,37.14357]],"type":"LineString"},"properties":{"color":"#D62728","color_name":"red","kind":"route","label":"10","long":"University Express Sunday","route_id":"77251","text_color":"#FFFFFF","type_label":"Bus"},"type":"Feature"},{"geometry":{"coordinates":[[-80.54765,37.14357],[-80.54918,37.14513],[-80.54947,37.14497],[-80.55008,37.14507],[-80.54997,37.14524],[-80.54918,37.14513],[-80.54761,37.1435],[-80.54768,37.14279],[-80.54841,37.14289],[-80.54765,37.14201],[-80.54831,37.14115],[-80.54739,37.14063],[-80.54662,37.14109],[-80.54629,37.14086],[-80.54841,37.13926],[-80.5459,37.13784],[-80.54791,37.13554],[-80.54851,37.13588],[-80.54845,37.1361],[-80.54814,37.13628],[-80.54756,37.13594],[-80.54964,37.13358],[-80.5504,37.13382],[-80.5507,37.13374],[-80.55144,37.13409],[-80.55166,37.134],[-80.55241,37.13469],[-80.55266,37.13522],[-80.55317,37.1397],[-80.55376,37.14057],[-80.5537,37.14154],[-80.5529,37.14144],[-80.55378,37.14115],[-80.55234,37.14122],[-80.55049,37.14068],[-80.54841,37.13926],[-80.54644,37.14075],[-80.54567,37.14093],[-80.5449,37.14086],[-80.54357,37.14021],[-80.54381,37.14004],[-80.54502,37.14054],[-80.5461,37.1405],[-80.5464,37.14008],[-80.54566,37.13954],[-80.54514,37.13956],[-80.54447,37.14027],[-80.54381,37.14004],[-80.54357,37.14021],[-80.54257,37.13957],[-80.54264,37.13868],[-80.54248,37.13833],[-80.54122,37.13762],[-80.54059,37.13771],[-80.53993,37.13844],[-80.54457,37.14075],[-80.54559,37.14094],[-80.54593,37.14173],[-80.54768,37.14279],[-80.54761,37.1435],[-80.54878,37.14483],[-80.5493,37.14518],[-80.54947,37.14497],[-80.55006,37.14499],[-80.54995,37.14524],[-80.54918,37.14513],[-80.54765,37.14357]],"type":"LineString"},"properties":{"color":"#D62728","color_name":"red","kind":"route","label":"10","long":"University Express","route_id":"77252","text_color":"#FFFFFF","type_label":"Bus"},"type":"Feature"},{"geometry":{"coordinates":[-80.54507,37.13288],"type":"Point"},"properties":{"kind":"stop","name":"Wilson St/Davis St","stop_id":"4249574"},"type":"Feature"},{"geometry":{"coordinates":[-80.56302,37.12051],"type":"Point"},"properties":{"kind":"stop","name":"Willow Woods Apts Exit","stop_id":"4249575"},"type":"Feature"},{"geometry":{"coordinates":[-80.56221,37.12078],"type":"Point"},"properties":{"kind":"stop","name":"Willow Woods Apts","stop_id":"4249576"},"type":"Feature"},{"geometry":{"coordinates":[-80.58404,37.15228],"type":"Point"},"properties":{"kind":"stop","name":"Walmart","stop_id":"4249577"},"type":"Feature"},{"geometry":{"coordinates":[-80.55287,37.13791],"type":"Point"},"properties":{"kind":"stop","name":"Walker Hall","stop_id":"4249578"},"type":"Feature"},{"geometry":{"coordinates":[-80.54857,37.13471],"type":"Point"},"properties":{"kind":"stop","name":"Waldron Hall","stop_id":"4249579"},"type":"Feature"},{"geometry":{"coordinates":[-80.56669,37.12053],"type":"Point"},"properties":{"kind":"stop","name":"Wadsworth St/Sheppard Ave NB","stop_id":"4249580"},"type":"Feature"},{"geometry":{"coordinates":[-80.56948,37.12321],"type":"Point"},"properties":{"kind":"stop","name":"Wadsworth St/Roosevelt Ave NB","stop_id":"4249581"},"type":"Feature"},{"geometry":{"coordinates":[-80.5644,37.11835],"type":"Point"},"properties":{"kind":"stop","name":"Wadsworth St/Heather Glen Dr NB","stop_id":"4249582"},"type":"Feature"},{"geometry":{"coordinates":[-80.57212,37.12579],"type":"Point"},"properties":{"kind":"stop","name":"Wadsworth St/8th St NB","stop_id":"4249583"},"type":"Feature"},{"geometry":{"coordinates":[-80.54693,37.14036],"type":"Point"},"properties":{"kind":"stop","name":"University Dr Bridge","stop_id":"4249584"},"type":"Feature"},{"geometry":{"coordinates":[-80.54581,37.12932],"type":"Point"},"properties":{"kind":"stop","name":"Tyler Ave/Milton Ln","stop_id":"4249585"},"type":"Feature"},{"geometry":{"coordinates":[-80.54161,37.12823],"type":"Point"},"properties":{"kind":"stop","name":"Tyler Ave/Auburn Ave","stop_id":"4249586"},"type":"Feature"},{"geometry":{"coordinates":[-80.55369,37.14137],"type":"Point"},"properties":{"kind":"stop","name":"The HUB","stop_id":"4249587"},"type":"Feature"},{"geometry":{"coordinates":[-80.53174,37.12097],"type":"Point"},"properties":{"kind":"stop","name":"Tall Oaks Crossing","stop_id":"4249588"},"type":"Feature"},{"geometry":{"coordinates":[-80.56737,37.1157],"type":"Point"},"properties":{"kind":"stop","name":"Staples St/Rock Rd SB","stop_id":"4249589"},"type":"Feature"},{"geometry":{"coordinates":[-80.56951,37.11776],"type":"Point"},"properties":{"kind":"stop","name":"Staples St/PT Travis Ave SB","stop_id":"4249590"},"type":"Feature"},{"geometry":{"coordinates":[-80.57181,37.11994],"type":"Point"},"properties":{"kind":"stop","name":"Staples St/12th St SB","stop_id":"4249591"},"type":"Feature"},{"geometry":{"coordinates":[-80.41854,37.22984],"type":"Point"},"properties":{"kind":"stop","name":"Squires Student Center","stop_id":"4249592"},"type":"Feature"},{"geometry":{"coordinates":[-80.58478,37.10825],"type":"Point"},"properties":{"kind":"stop","name":"Riverbend Apts","stop_id":"4249593"},"type":"Feature"},{"geometry":{"coordinates":[-80.54265,37.12403],"type":"Point"},"properties":{"kind":"stop","name":"Ridgewood Lane","stop_id":"4249594"},"type":"Feature"},{"geometry":{"coordinates":[-80.42906,37.1642],"type":"Point"},"properties":{"kind":"stop","name":"Regal Cinemas","stop_id":"4249595"},"type":"Feature"},{"geometry":{"coordinates":[-80.56074,37.1323],"type":"Point"},"properties":{"kind":"stop","name":"Rec Center","stop_id":"4249596"},"type":"Feature"},{"geometry":{"coordinates":[-80.56846,37.12864],"type":"Point"},"properties":{"kind":"stop","name":"Randolph St/8th St NB","stop_id":"4249597"},"type":"Feature"},{"geometry":{"coordinates":[-80.56888,37.12959],"type":"Point"},"properties":{"kind":"stop","name":"Randolph St/7th St","stop_id":"4249598"},"type":"Feature"},{"geometry":{"coordinates":[-80.53884,37.12591],"type":"Point"},"properties":{"kind":"stop","name":"Quality Inn","stop_id":"4249599"},"type":"Feature"},{"geometry":{"coordinates":[-80.57574,37.12034],"type":"Point"},"properties":{"kind":"stop","name":"Preston St/Lyle St SB","stop_id":"4249600"},"type":"Feature"},{"geometry":{"coordinates":[-80.57985,37.12287],"type":"Point"},"properties":{"kind":"stop","name":"Preston St/7th St SB","stop_id":"4249601"},"type":"Feature"},{"geometry":{"coordinates":[-80.58245,37.12534],"type":"Point"},"properties":{"kind":"stop","name":"Preston St/4th St SB","stop_id":"4249602"},"type":"Feature"},{"geometry":{"coordinates":[-80.57467,37.11981],"type":"Point"},"properties":{"kind":"stop","name":"Preston St/12th St SB","stop_id":"4249603"},"type":"Feature"},{"geometry":{"coordinates":[-80.56391,37.12975],"type":"Point"},"properties":{"kind":"stop","name":"Park Rd/Sundell Dr WB","stop_id":"4249604"},"type":"Feature"},{"geometry":{"coordinates":[-80.4285,37.16571],"type":"Point"},"properties":{"kind":"stop","name":"NRV Mall","stop_id":"4249605"},"type":"Feature"},{"geometry":{"coordinates":[-80.69635,37.10574],"type":"Point"},"properties":{"kind":"stop","name":"NRCC Dublin Campus","stop_id":"4249606"},"type":"Feature"},{"geometry":{"coordinates":[-80.54768,37.14355],"type":"Point"},"properties":{"kind":"stop","name":"New River Dr","stop_id":"4249607"},"type":"Feature"},{"geometry":{"coordinates":[-80.5531,37.13982],"type":"Point"},"properties":{"kind":"stop","name":"Muse Hall","stop_id":"4249608"},"type":"Feature"},{"geometry":{"coordinates":[-80.55262,37.13588],"type":"Point"},"properties":{"kind":"stop","name":"Moffett Hall","stop_id":"4249609"},"type":"Feature"},{"geometry":{"coordinates":[-80.55621,37.13072],"type":"Point"},"properties":{"kind":"stop","name":"Miller St Exit","stop_id":"4249610"},"type":"Feature"},{"geometry":{"coordinates":[-80.55673,37.1411],"type":"Point"},"properties":{"kind":"stop","name":"Main St/Virginia St WB","stop_id":"4249611"},"type":"Feature"},{"geometry":{"coordinates":[-80.55697,37.14095],"type":"Point"},"properties":{"kind":"stop","name":"Main St/Virginia St EB","stop_id":"4249612"},"type":"Feature"},{"geometry":{"coordinates":[-80.58229,37.1294],"type":"Point"},"properties":{"kind":"stop","name":"Main St/Staples St EB","stop_id":"4249613"},"type":"Feature"},{"geometry":{"coordinates":[-80.58061,37.13051],"type":"Point"},"properties":{"kind":"stop","name":"Main St/Robertson St EB","stop_id":"4249614"},"type":"Feature"},{"geometry":{"coordinates":[-80.57369,37.13488],"type":"Point"},"properties":{"kind":"stop","name":"Main St/Randolph St EB","stop_id":"4249615"},"type":"Feature"},{"geometry":{"coordinates":[-80.56944,37.13728],"type":"Point"},"properties":{"kind":"stop","name":"Main St/Public Library EB","stop_id":"4249616"},"type":"Feature"},{"geometry":{"coordinates":[-80.58491,37.12758],"type":"Point"},"properties":{"kind":"stop","name":"Main St/Preston St EB","stop_id":"4249617"},"type":"Feature"},{"geometry":{"coordinates":[-80.54431,37.13687],"type":"Point"},"properties":{"kind":"stop","name":"Main St/Madison St","stop_id":"4249618"},"type":"Feature"},{"geometry":{"coordinates":[-80.57694,37.13318],"type":"Point"},"properties":{"kind":"stop","name":"Main St/Kent St WB","stop_id":"4249619"},"type":"Feature"},{"geometry":{"coordinates":[-80.59024,37.11968],"type":"Point"},"properties":{"kind":"stop","name":"Main St/Denby St EB","stop_id":"4249620"},"type":"Feature"},{"geometry":{"coordinates":[-80.56946,37.13738],"type":"Point"},"properties":{"kind":"stop","name":"Main St/CVS WB","stop_id":"4249621"},"type":"Feature"},{"geometry":{"coordinates":[-80.59024,37.11552],"type":"Point"},"properties":{"kind":"stop","name":"Main St/Custis St EB","stop_id":"4249622"},"type":"Feature"},{"geometry":{"coordinates":[-80.5901,37.10953],"type":"Point"},"properties":{"kind":"stop","name":"Main St/Cowan St EB","stop_id":"4249623"},"type":"Feature"},{"geometry":{"coordinates":[-80.58801,37.1248],"type":"Point"},"properties":{"kind":"stop","name":"Main St/Carter St EB","stop_id":"4249624"},"type":"Feature"},{"geometry":{"coordinates":[-80.5421,37.13574],"type":"Point"},"properties":{"kind":"stop","name":"Main St/Burlington St","stop_id":"4249625"},"type":"Feature"},{"geometry":{"coordinates":[-80.40027,37.21417],"type":"Point"},"properties":{"kind":"stop","name":"Main St/Ardmore St NB","stop_id":"4249626"},"type":"Feature"},{"geometry":{"coordinates":[-80.54642,37.14011],"type":"Point"},"properties":{"kind":"stop","name":"Lot CC/Shelter Sun","stop_id":"4249627"},"type":"Feature"},{"geometry":{"coordinates":[-80.54941,37.13892],"type":"Point"},"properties":{"kind":"stop","name":"Lot A","stop_id":"4249628"},"type":"Feature"},{"geometry":{"coordinates":[-80.55042,37.13387],"type":"Point"},"properties":{"kind":"stop","name":"Kyle Hall (COBE)","stop_id":"4249629"},"type":"Feature"},{"geometry":{"coordinates":[-80.58143,37.14133],"type":"Point"},"properties":{"kind":"stop","name":"Kroger","stop_id":"4249630"},"type":"Feature"},{"geometry":{"coordinates":[-80.57985,37.10631],"type":"Point"},"properties":{"kind":"stop","name":"Jeffries Dr","stop_id":"4249631"},"type":"Feature"},{"geometry":{"coordinates":[-80.54566,37.13762],"type":"Point"},"properties":{"kind":"stop","name":"Jefferson and Main","stop_id":"4249632"},"type":"Feature"},{"geometry":{"coordinates":[-80.54988,37.14502],"type":"Point"},"properties":{"kind":"stop","name":"Greenhill Apartments","stop_id":"4249633"},"type":"Feature"},{"geometry":{"coordinates":[-80.56391,37.13973],"type":"Point"},"properties":{"kind":"stop","name":"Golden Bowl WB","stop_id":"4249634"},"type":"Feature"},{"geometry":{"coordinates":[-80.56394,37.13951],"type":"Point"},"properties":{"kind":"stop","name":"Golden Bowl EB","stop_id":"4249635"},"type":"Feature"},{"geometry":{"coordinates":[-80.55703,37.13105],"type":"Point"},"properties":{"kind":"stop","name":"George St (to Rec Center)","stop_id":"4249636"},"type":"Feature"},{"geometry":{"coordinates":[-80.5571,37.13098],"type":"Point"},"properties":{"kind":"stop","name":"George St (Rec Center exit)","stop_id":"4249637"},"type":"Feature"},{"geometry":{"coordinates":[-80.58402,37.15048],"type":"Point"},"properties":{"kind":"stop","name":"Fulk Dr","stop_id":"4249638"},"type":"Feature"},{"geometry":{"coordinates":[-80.40021,37.21308],"type":"Point"},"properties":{"kind":"stop","name":"First and Main","stop_id":"4249639"},"type":"Feature"},{"geometry":{"coordinates":[-80.54853,37.13623],"type":"Point"},"properties":{"kind":"stop","name":"Fairfax Station","stop_id":"4249640"},"type":"Feature"},{"geometry":{"coordinates":[-80.5443,37.13359],"type":"Point"},"properties":{"kind":"stop","name":"Fairfax St/Wilson St","stop_id":"4249641"},"type":"Feature"},{"geometry":{"coordinates":[-80.55263,37.13554],"type":"Point"},"properties":{"kind":"stop","name":"Draper Hall","stop_id":"4249642"},"type":"Feature"},{"geometry":{"coordinates":[-80.41057,37.12828],"type":"Point"},"properties":{"kind":"stop","name":"Downtown Christiansburg EB","stop_id":"4249643"},"type":"Feature"},{"geometry":{"coordinates":[-80.59002,37.11208],"type":"Point"},"properties":{"kind":"stop","name":"Deli Mart EB","stop_id":"4249644"},"type":"Feature"},{"geometry":{"coordinates":[-80.55625,37.1297],"type":"Point"},"properties":{"kind":"stop","name":"Copper Beech","stop_id":"4249645"},"type":"Feature"},{"geometry":{"coordinates":[-80.54033,37.1327],"type":"Point"},"properties":{"kind":"stop","name":"Clement St/Whitehall St","stop_id":"4249646"},"type":"Feature"},{"geometry":{"coordinates":[-80.41248,37.13841],"type":"Point"},"properties":{"kind":"stop","name":"Chrstnsbrg Bnd Mllr St","stop_id":"4249647"},"type":"Feature"},{"geometry":{"coordinates":[-80.55151,37.14095],"type":"Point"},"properties":{"kind":"stop","name":"CHBS","stop_id":"4249648"},"type":"Feature"},{"geometry":{"coordinates":[-80.54616,37.1324],"type":"Point"},"properties":{"kind":"stop","name":"Calhoun St/Wilson St","stop_id":"4249649"},"type":"Feature"},{"geometry":{"coordinates":[-80.54779,37.13331],"type":"Point"},"properties":{"kind":"stop","name":"Calhoun St/Madison St","stop_id":"4249650"},"type":"Feature"},{"geometry":{"coordinates":[-80.54308,37.1331],"type":"Point"},"properties":{"kind":"stop","name":"Burlington St/Fairfax St","stop_id":"4249651"},"type":"Feature"},{"geometry":{"coordinates":[-80.54256,37.1339],"type":"Point"},"properties":{"kind":"stop","name":"Burlington St/Clement St","stop_id":"4249652"},"type":"Feature"},{"geometry":{"coordinates":[-80.54108,37.13385],"type":"Point"},"properties":{"kind":"stop","name":"Burlington Lot","stop_id":"4249653"},"type":"Feature"},{"geometry":{"coordinates":[-80.41218,37.22758],"type":"Point"},"properties":{"kind":"stop","name":"Bburg Municipal Building","stop_id":"4249654"},"type":"Feature"},{"geometry":{"coordinates":[-80.5401,37.12417],"type":"Point"},"properties":{"kind":"stop","name":"Auburn Ave/Villa Trailer Park","stop_id":"4249655"},"type":"Feature"},{"geometry":{"coordinates":[-80.53706,37.12353],"type":"Point"},"properties":{"kind":"stop","name":"Auburn Ave/Tyler Ave","stop_id":"4249656"},"type":"Feature"},{"geometry":{"coordinates":[-80.54723,37.14065],"type":"Point"},"properties":{"kind":"stop","name":"Armstrong","stop_id":"4249657"},"type":"Feature"},{"geometry":{"coordinates":[-80.56535,37.11932],"type":"Point"},"properties":{"kind":"stop","name":"Allen Ave/Wadsworth St","stop_id":"4249658"},"type":"Feature"},{"geometry":{"coordinates":[-80.5674,37.13187],"type":"Point"},"properties":{"kind":"stop","name":"6th St/Scott St NB","stop_id":"4249659"},"type":"Feature"},{"geometry":{"coordinates":[-80.55768,37.13667],"type":"Point"},"properties":{"kind":"stop","name":"3rd Ave/Fairfax St NB","stop_id":"4249660"},"type":"Feature"},{"geometry":{"coordinates":[-80.55808,37.13892],"type":"Point"},"properties":{"kind":"stop","name":"3rd Ave/Downey St NB","stop_id":"4249661"},"type":"Feature"},{"geometry":{"coordinates":[-80.58828,37.10886],"type":"Point"},"properties":{"kind":"stop","name":"2nd St/Highland Ave","stop_id":"4249662"},"type":"Feature"},{"geometry":{"coordinates":[-80.5559,37.13544],"type":"Point"},"properties":{"kind":"stop","name":"2nd Ave/Lawrence St","stop_id":"4249663"},"type":"Feature"},{"geometry":{"coordinates":[-80.5453,37.13957],"type":"Point"},"properties":{"kind":"stop","name":"Lot CC Stadium Gates","stop_id":"4249727"},"type":"Feature"},{"geometry":{"coordinates":[-80.54348,37.14004],"type":"Point"},"properties":{"kind":"stop","name":"University Dr / Lot CC","stop_id":"4249728"},"type":"Feature"},{"geometry":{"coordinates":[-80.54169,37.13774],"type":"Point"},"properties":{"kind":"stop","name":"Dedmon Center Upper","stop_id":"4249729"},"type":"Feature"},{"geometry":{"coordinates":[-80.54142,37.13932],"type":"Point"},"properties":{"kind":"stop","name":"Dedmon Center Riverside","stop_id":"4249730"},"type":"Feature"},{"geometry":{"coordinates":[-80.54337,37.14012],"type":"Point"},"properties":{"kind":"stop","name":"University Dr/Pulaski Ave","stop_id":"4249731"},"type":"Feature"},{"geometry":{"coordinates":[-80.54658,37.14224],"type":"Point"},"properties":{"kind":"stop","name":"Lot FF","stop_id":"4249732"},"type":"Feature"},{"geometry":{"coordinates":[-80.54771,37.14379],"type":"Point"},"properties":{"kind":"stop","name":"Greenhill Clubhouse","stop_id":"4249733"},"type":"Feature"},{"geometry":{"coordinates":[-80.54609,37.12876],"type":"Point"},"properties":{"kind":"stop","name":"Food Lion Plaza","stop_id":"4249734"},"type":"Feature"},{"geometry":{"coordinates":[-80.5417,37.1266],"type":"Point"},"properties":{"kind":"stop","name":"Aubum Ave/Cedar Ridge Dr","stop_id":"4249735"},"type":"Feature"},{"geometry":{"coordinates":[-80.5736,37.13509],"type":"Point"},"properties":{"kind":"stop","name":"Main St. / Randolph St. WB","stop_id":"4249736"},"type":"Feature"},{"geometry":{"coordinates":[-80.57792,37.13109],"type":"Point"},"properties":{"kind":"stop","name":"Wadsworth St/2nd St","stop_id":"4249737"},"type":"Feature"},{"geometry":{"coordinates":[-80.57448,37.12783],"type":"Point"},"properties":{"kind":"stop","name":"Wadsworth St/6th St","stop_id":"4249738"},"type":"Feature"},{"geometry":{"coordinates":[-80.58438,37.12732],"type":"Point"},"properties":{"kind":"stop","name":"Preston St/Alley by Soc Serv","stop_id":"4249739"},"type":"Feature"},{"geometry":{"coordinates":[-80.58833,37.12474],"type":"Point"},"properties":{"kind":"stop","name":"Main St/Carter St WB","stop_id":"4249740"},"type":"Feature"},{"geometry":{"coordinates":[-80.59036,37.1196],"type":"Point"},"properties":{"kind":"stop","name":"Main St. / Denby St. WB","stop_id":"4249741"},"type":"Feature"},{"geometry":{"coordinates":[-80.59042,37.1158],"type":"Point"},"properties":{"kind":"stop","name":"Main St/Custis St WB","stop_id":"4249742"},"type":"Feature"},{"geometry":{"coordinates":[-80.59014,37.11218],"type":"Point"},"properties":{"kind":"stop","name":"Deli Mart WB","stop_id":"4249743"},"type":"Feature"},{"geometry":{"coordinates":[-80.59012,37.10935],"type":"Point"},"properties":{"kind":"stop","name":"Main St/Cowan St WB","stop_id":"4249744"},"type":"Feature"},{"geometry":{"coordinates":[-80.58135,37.1075],"type":"Point"},"properties":{"kind":"stop","name":"Jeffries Dr Midhill","stop_id":"4249745"},"type":"Feature"},{"geometry":{"coordinates":[-80.41244,37.13821],"type":"Point"},"properties":{"kind":"stop","name":"Radford Bnd Mllr St","stop_id":"4249746"},"type":"Feature"},{"geometry":{"coordinates":[-80.41064,37.12833],"type":"Point"},"properties":{"kind":"stop","name":"Downtown Christiansburg WB","stop_id":"4249747"},"type":"Feature"},{"geometry":{"coordinates":[-80.56226,37.14268],"type":"Point"},"properties":{"kind":"stop","name":"Dudley's Landing","stop_id":"4249750"},"type":"Feature"},{"geometry":{"coordinates":[-80.55482,37.14572],"type":"Point"},"properties":{"kind":"stop","name":"Veterans Field","stop_id":"4249751"},"type":"Feature"},{"geometry":{"coordinates":[-80.56849,37.13975],"type":"Point"},"properties":{"kind":"stop","name":"Shelter 1","stop_id":"4249752"},"type":"Feature"},{"geometry":{"coordinates":[-80.58358,37.12874],"type":"Point"},"properties":{"kind":"stop","name":"Main St/Wirt St WB","stop_id":"4249753"},"type":"Feature"},{"geometry":{"coordinates":[-80.42482,37.23198],"type":"Point"},"properties":{"kind":"stop","name":"Multi-Modal Transfer","stop_id":"4249754"},"type":"Feature"},{"geometry":{"coordinates":[-80.5533,37.13581],"type":"Point"},"properties":{"kind":"stop","name":"Calhoun St","stop_id":"4249755"},"type":"Feature"},{"geometry":{"coordinates":[-80.55646,37.13574],"type":"Point"},"properties":{"kind":"stop","name":"Lawrence St/2nd Ave","stop_id":"4249756"},"type":"Feature"},{"geometry":{"coordinates":[-80.55628,37.13061],"type":"Point"},"properties":{"kind":"stop","name":"Miller St Entrance","stop_id":"4249757"},"type":"Feature"},{"geometry":{"coordinates":[-80.54809,37.13892],"type":"Point"},"properties":{"kind":"stop","name":"Artis Shelter","stop_id":"4250796"},"type":"Feature"}],"type":"FeatureCollection"}
