{"features":[{"geometry":{"coordinates":[[-79.30985,42.49704],[-79.32495,42.48907],[-79.32276,42.48793],[-79.32904,42.48698],[-79.32955,42.48882],[-79.32904,42.48698],[-79.33214,42.48653],[-79.3318,42.48526],[-79.32868,42.4857],[-79.32822,42.48406],[-79.32978,42.48382],[-79.32997,42.48452],[-79.32978,42.48382],[-79.32761,42.484],[-79.32659,42.48342],[-79.32719,42.48283],[-79.31951,42.47846],[-79.31431,42.48351],[-79.31694,42.48488],[-79.32331,42.47871],[-79.32367,42.47855],[-79.31841,42.46936],[-79.31916,42.46908],[-79.31938,42.46946],[-79.31916,42.46908],[-79.31841,42.46936],[-79.31026,42.45488],[-79.31105,42.45466],[-79.31088,42.45435],[-79.3125,42.45379],[-79.31088,42.45435],[-79.31105,42.45466],[-79.31026,42.45488],[-79.31247,42.45896],[-79.31706,42.4587],[-79.3169,42.45827],[-79.31706,42.4587],[-79.31807,42.45862],[-79.31822,42.45957],[-79.31908,42.45945],[-79.31822,42.45957],[-79.31807,42.45862],[-79.31706,42.4587],[-79.31672,42.45808],[-79.31669,42.45753],[-79.31934,42.45751],[-79.31944,42.45852],[-79.32319,42.45824],[-79.327,42.45874],[-79.3292,42.45857],[-79.32916,42.45786],[-79.33388,42.45783],[-79.3329,42.47742],[-79.33392,42.48134],[-79.3324,42.48157],[-79.33288,42.48336],[-79.33442,42.48312],[-79.33524,42.48606],[-79.34595,42.48445],[-79.3459,42.48568],[-79.35139,42.48484],[-79.35318,42.48427],[-79.35611,42.48228]],"type":"LineString"},"properties":{"color":"#417505","color_name":"green","kind":"route","label":"Green","long":"Dunkirk City Route - Green","route_id":"12433","text_color":"#000000","type_label":"Bus"},"type":"Feature"},{"geometry":{"coordinates":[[-79.23798,42.09685],[-79.24368,42.09596],[-79.24334,42.09476],[-79.24223,42.09255],[-79.24153,42.09179],[-79.24168,42.0915],[-79.24217,42.09151],[-79.24221,42.09218],[-79.2414,42.09255],[-79.23805,42.09325],[-79.23826,42.09389],[-79.23774,42.094],[-79.23751,42.09335],[-79.24114,42.09265],[-79.24221,42.09218],[-79.24214,42.09196],[-79.24255,42.09185],[-79.24291,42.09147],[-79.24838,42.0915],[-79.24837,42.09118],[-79.24838,42.0915],[-79.24532,42.0916],[-79.24322,42.09142],[-79.24214,42.09196],[-79.24242,42.09079],[-79.24332,42.08873],[-79.24312,42.08613],[-79.23711,42.08616],[-79.23713,42.08188],[-79.2473,42.08186],[-79.24731,42.08297],[-79.25519,42.08297],[-79.25122,42.089],[-79.25016,42.08943],[-79.25016,42.09015],[-79.25147,42.09038],[-79.25148,42.09226],[-79.25294,42.09251],[-79.25553,42.09239],[-79.25581,42.09397],[-79.24604,42.09554],[-79.24585,42.09478],[-79.24532,42.09472],[-79.24344,42.09512],[-79.24368,42.09596],[-79.23798,42.09685]],"type":"LineString"},"properties":{"color":"#D0021B","color_name":"red","kind":"route","label":"Baker","long":"City of Jamestown- Baker Route","route_id":"12434","text_color":"#000000","type_label":"Bus"},"type":"Feature"},{"geometry":{"coordinates":[[-79.23798,42.09685],[-79.23771,42.09688],[-79.23851,42.09955],[-79.23652,42.09986],[-79.2366,42.10327],[-79.23309,42.10331],[-79.22935,42.10412],[-79.22945,42.10793],[-79.22837,42.10793],[-79.22838,42.10954],[-79.22687,42.10966],[-79.22695,42.11282],[-79.229,42.1128],[-79.22894,42.10946],[-79.23034,42.10951],[-79.23353,42.11055],[-79.23906,42.11051],[-79.2388,42.10432],[-79.23895,42.10131],[-79.245,42.10033],[-79.24561,42.11095],[-79.24725,42.11412],[-79.24816,42.11438],[-79.24372,42.11354],[-79.24097,42.11151],[-79.24135,42.10785],[-79.24147,42.10116],[-79.24206,42.09895],[-79.24448,42.09859],[-79.24368,42.09596],[-79.23798,42.09685]],"type":"LineString"},"properties":{"color":"#7A2D8C","color_name":"purple","kind":"route","label":"North Main","long":"City of Jamestown- North Main Route","route_id":"ROUTE_314ef596-f49f-49dc-b1f1-a6a1a39f0dd8","text_color":"#FFFFFF","type_label":"Bus"},"type":"Feature"},{"geometry":{"coordinates":[[-79.23798,42.09685],[-79.26117,42.09314],[-79.26183,42.09702],[-79.26384,42.09699],[-79.26382,42.09991],[-79.2653,42.09994],[-79.26485,42.09698],[-79.29083,42.09742],[-79.29506,42.09774],[-79.2951,42.09594],[-79.29408,42.09584],[-79.29399,42.09495],[-79.28822,42.09484],[-79.28887,42.09573],[-79.2902,42.09573],[-79.29085,42.096],[-79.29083,42.09742],[-79.29463,42.09766],[-79.29994,42.09905],[-79.30006,42.09753],[-79.29984,42.09752],[-79.29984,42.09832],[-79.29916,42.09834],[-79.29904,42.09883],[-79.3012,42.09923],[-79.30249,42.09916],[-79.30483,42.09864],[-79.30461,42.09729],[-79.30483,42.09864],[-79.31175,42.09765],[-79.3206,42.09811],[-79.32933,42.09776],[-79.34813,42.09886],[-79.34814,42.09906],[-79.34789,42.09926],[-79.34442,42.09977],[-79.33931,42.10214],[-79.33297,42.10421],[-79.32955,42.10339],[-79.32288,42.10336],[-79.31594,42.10286],[-79.30779,42.10281],[-79.30105,42.10124],[-79.29538,42.10046],[-79.29441,42.10053],[-79.29195,42.10134],[-79.28722,42.10367],[-79.28709,42.10887],[-79.28299,42.10884],[-79.28299,42.10999],[-79.27776,42.10991],[-79.27351,42.11013],[-79.27047,42.10971],[-79.26361,42.10663],[-79.25412,42.1001],[-79.25357,42.09883],[-79.2524,42.09802],[-79.25024,42.09941],[-79.245,42.10033],[-79.24368,42.09596],[-79.23798,42.09685]],"type":"LineString"},"properties":{"color":"#4A90E2","color_name":"teal","kind":"route","label":"Lakewood via Fairmount","long":"City of Jamestown- Lakewood via Fairmount","route_id":"ROUTE_6df536dc-6a68-4a89-87cb-4750df70e2e6","text_color":"#FFFFFF","type_label":"Bus"},"type":"Feature"},{"geometry":{"coordinates":[[-79.23798,42.09685],[-79.23771,42.09688],[-79.23738,42.09613],[-79.23544,42.09692],[-79.23401,42.09777],[-79.22668,42.10366],[-79.21717,42.11227],[-79.21564,42.11287],[-79.20721,42.1136],[-79.20733,42.10925],[-79.19412,42.11308],[-79.19356,42.11191],[-79.19231,42.10754],[-79.19199,42.10701],[-79.19157,42.10674],[-79.18235,42.10671],[-79.18176,42.10652],[-79.18053,42.10542],[-79.17856,42.10531],[-79.17862,42.10775],[-79.17922,42.1087],[-79.18748,42.11253],[-79.19153,42.11525],[-79.19404,42.11651],[-79.17884,42.12709],[-79.17872,42.12727],[-79.17997,42.12982],[-79.17891,42.13386],[-79.17903,42.13467],[-79.17932,42.13497],[-79.18351,42.13192],[-79.19391,42.12275],[-79.19815,42.12536],[-79.19945,42.12425],[-79.19514,42.12159],[-79.19954,42.11761],[-79.20043,42.11817],[-79.20255,42.11631],[-79.20407,42.11579],[-79.2047,42.11525],[-79.206,42.11495],[-79.20992,42.11417],[-79.21483,42.11433],[-79.21652,42.11414],[-79.21709,42.1139],[-79.22268,42.10883],[-79.22165,42.10821],[-79.22668,42.10366],[-79.23444,42.09748],[-79.23526,42.09714],[-79.23587,42.09722],[-79.23798,42.09685]],"type":"LineString"},"properties":{"color":"#F5A623","color_name":"yellow","kind":"route","label":"Falconer Route","long":"Jamestown- Falconer Route","route_id":"ROUTE_8c355458-0941-453c-a986-3556d9724836","text_color":"#FFFFFF","type_label":"Bus"},"type":"Feature"},{"geometry":{"coordinates":[[-79.23798,42.09685],[-79.24368,42.09596],[-79.24497,42.10034],[-79.25024,42.09941],[-79.2524,42.09802],[-79.25357,42.09883],[-79.2542,42.10015],[-79.26361,42.10663],[-79.27047,42.10971],[-79.27351,42.11013],[-79.27776,42.10991],[-79.28299,42.10999],[-79.28299,42.10942],[-79.28477,42.10942],[-79.28489,42.10884],[-79.28709,42.10887],[-79.28722,42.10367],[-79.29195,42.10134],[-79.29441,42.10053],[-79.29538,42.10046],[-79.30105,42.10124],[-79.30779,42.10281],[-79.31594,42.10286],[-79.32288,42.10336],[-79.32955,42.10339],[-79.33297,42.10421],[-79.33931,42.10214],[-79.34442,42.09977],[-79.34789,42.09926],[-79.34814,42.09906],[-79.34813,42.09886],[-79.32933,42.09776],[-79.3206,42.09811],[-79.31175,42.09765],[-79.30483,42.09864],[-79.30461,42.09729],[-79.30483,42.09864],[-79.30249,42.09916],[-79.3012,42.09923],[-79.29994,42.09905],[-79.30006,42.09753],[-79.29984,42.09752],[-79.29984,42.09832],[-79.29916,42.09834],[-79.29904,42.09883],[-79.29506,42.09774],[-79.2951,42.09594],[-79.29408,42.09584],[-79.29399,42.09495],[-79.28822,42.09484],[-79.28887,42.09573],[-79.2902,42.09573],[-79.29085,42.096],[-79.29083,42.09742],[-79.26485,42.09698],[-79.2653,42.09994],[-79.26473,42.09994],[-79.26475,42.10124],[-79.26373,42.10089],[-79.26384,42.09699],[-79.26183,42.09702],[-79.25702,42.09809],[-79.25639,42.09806],[-79.25467,42.09747],[-79.25224,42.09716],[-79.25084,42.09672],[-79.25241,42.09803],[-79.25036,42.09935],[-79.245,42.10033],[-79.24368,42.09596],[-79.23798,42.09685]],"type":"LineString"},"properties":{"color":"#50E3C2","color_name":"teal","kind":"route","label":"Lakewood via Jones & Gifford","long":"City of Jamestown- Lakewood via Jones & Gifford","route_id":"ROUTE_8e7bf696-4cfa-43c1-b463-7a6989a0a8b5","text_color":"#FFFFFF","type_label":"Bus"},"type":"Feature"},{"geometry":{"coordinates":[[-79.35611,42.48228],[-79.35344,42.48411],[-79.35252,42.48454],[-79.3459,42.48568],[-79.34595,42.48445],[-79.33214,42.48653],[-79.3318,42.48526],[-79.32868,42.4857],[-79.32822,42.48406],[-79.32978,42.48382],[-79.32997,42.48452],[-79.32978,42.48382],[-79.33442,42.48312],[-79.33448,42.48334],[-79.3329,42.47742],[-79.33388,42.45783],[-79.32493,42.45789],[-79.32458,42.45846],[-79.32292,42.45824],[-79.31807,42.45862],[-79.31791,42.45752],[-79.31807,42.45862],[-79.31911,42.45854],[-79.31337,42.45891],[-79.31334,42.45777],[-79.31355,42.45777],[-79.31186,42.45784],[-79.31027,42.45488],[-79.31105,42.45465],[-79.31088,42.45435],[-79.31251,42.45381],[-79.31219,42.45333],[-79.30992,42.45423],[-79.31434,42.46233],[-79.32368,42.47855],[-79.32331,42.47871],[-79.31694,42.48488],[-79.31431,42.48351],[-79.31951,42.47846],[-79.32719,42.48283],[-79.32659,42.48342],[-79.32761,42.484],[-79.32978,42.48382],[-79.32997,42.48452],[-79.32978,42.48382],[-79.33442,42.48312],[-79.33489,42.4848],[-79.3318,42.48526],[-79.33246,42.48767],[-79.32937,42.4882],[-79.3296,42.48901],[-79.32937,42.4882],[-79.32588,42.48872],[-79.32495,42.48907],[-79.32276,42.48793],[-79.32495,42.48907],[-79.30985,42.49704]],"type":"LineString"},"properties":{"color":"#D0021B","color_name":"red","kind":"route","label":"Red","long":"Dunkirk City - Red Route","route_id":"ROUTE_bb320423-50d7-4b30-9d24-86edd4c1b02f","text_color":"#FFFFFF","type_label":"Bus"},"type":"Feature"},{"geometry":{"coordinates":[[-79.23798,42.09685],[-79.24368,42.09596],[-79.24334,42.09476],[-79.24223,42.09255],[-79.24202,42.09225],[-79.24114,42.09265],[-79.23902,42.09307],[-79.23707,42.09181],[-79.23542,42.09131],[-79.23339,42.09005],[-79.23277,42.08919],[-79.23235,42.08775],[-79.2312,42.08534],[-79.23089,42.08368],[-79.22862,42.08],[-79.22909,42.07984],[-79.22919,42.07999],[-79.22909,42.07984],[-79.22847,42.08005],[-79.23072,42.08361],[-79.23094,42.08503],[-79.23203,42.08733],[-79.23277,42.08951],[-79.23273,42.0898],[-79.2312,42.08994],[-79.23119,42.092],[-79.23308,42.09169],[-79.23384,42.09588],[-79.23334,42.09594],[-79.23384,42.09588],[-79.23474,42.09833],[-79.24275,42.09701],[-79.24248,42.09616],[-79.23798,42.09685]],"type":"LineString"},"properties":{"color":"#F9C7C7","color_name":"white","kind":"route","label":"Southwest Express","long":"City of Jamestown- Southwest Express","route_id":"ROUTE_d16fbdb8-642b-4274-ae49-1513ff3fac90","text_color":"#FFFFFF","type_label":"Bus"},"type":"Feature"},{"geometry":{"coordinates":[[-79.23798,42.09685],[-79.24368,42.09596],[-79.24334,42.09476],[-79.24223,42.09255],[-79.24153,42.09179],[-79.24168,42.0915],[-79.24217,42.09151],[-79.24221,42.09218],[-79.24114,42.09265],[-79.23557,42.09374],[-79.23496,42.09229],[-79.2351,42.09163],[-79.23404,42.09154],[-79.22921,42.09236],[-79.22556,42.09722],[-79.22516,42.09739],[-79.21569,42.09737],[-79.21584,42.09126],[-79.22273,42.09134],[-79.22271,42.08466],[-79.22099,42.08466],[-79.22099,42.08381],[-79.22125,42.0831],[-79.22112,42.08156],[-79.2208,42.08119],[-79.22079,42.07932],[-79.22349,42.07928],[-79.22616,42.08112],[-79.22924,42.08126],[-79.22966,42.0819],[-79.23463,42.08187],[-79.23474,42.08842],[-79.23609,42.09089],[-79.23714,42.09186],[-79.24039,42.0941],[-79.24096,42.09512],[-79.24129,42.09634],[-79.23798,42.09685]],"type":"LineString"},"properties":{"color":"#417505","color_name":"green","kind":"route","label":"Willard","long":"City of Jamestown-Willard Route","route_id":"Willard","text_color":"#FFFFFF","type_label":"Bus"},"type":"Feature"},{"geometry":{"coordinates":[-79.10248,42.15795],"type":"Point"},"properties":{"kind":"stop","name":"Kennedy Supermarket","stop_id":"17s1"},"type":"Feature"},{"geometry":{"coordinates":[-79.47006,42.37866],"type":"Point"},"properties":{"kind":"stop","name":"Portland Post Office","stop_id":"1p8a"},"type":"Feature"},{"geometry":{"coordinates":[-79.30983,42.49704],"type":"Point"},"properties":{"kind":"stop","name":"Lakeside Community","stop_id":"364743"},"type":"Feature"},{"geometry":{"coordinates":[-79.32288,42.48795],"type":"Point"},"properties":{"kind":"stop","name":"E 2nd & Roberts Rd.","stop_id":"364744"},"type":"Feature"},{"geometry":{"coordinates":[-79.31955,42.47847],"type":"Point"},"properties":{"kind":"stop","name":"Doughty & Lincoln","stop_id":"364746"},"type":"Feature"},{"geometry":{"coordinates":[-79.33074,42.45782],"type":"Point"},"properties":{"kind":"stop","name":"D&F Plaza","stop_id":"364750"},"type":"Feature"},{"geometry":{"coordinates":[-79.33315,42.47318],"type":"Point"},"properties":{"kind":"stop","name":"Central & Howard","stop_id":"364751"},"type":"Feature"},{"geometry":{"coordinates":[-79.34687,42.48552],"type":"Point"},"properties":{"kind":"stop","name":"Resource Center","stop_id":"364753"},"type":"Feature"},{"geometry":{"coordinates":[-79.35592,42.48214],"type":"Point"},"properties":{"kind":"stop","name":"Don's Motel","stop_id":"364754"},"type":"Feature"},{"geometry":{"coordinates":[-79.33835,42.48561],"type":"Point"},"properties":{"kind":"stop","name":"2nd & Swan","stop_id":"364755"},"type":"Feature"},{"geometry":{"coordinates":[-79.33346,42.47963],"type":"Point"},"properties":{"kind":"stop","name":"Central & 6th","stop_id":"364756"},"type":"Feature"},{"geometry":{"coordinates":[-79.32982,42.48898],"type":"Point"},"properties":{"kind":"stop","name":"Steger Apts","stop_id":"364758"},"type":"Feature"},{"geometry":{"coordinates":[-79.23798,42.09688],"type":"Point"},"properties":{"kind":"stop","name":"Junction","stop_id":"364759"},"type":"Feature"},{"geometry":{"coordinates":[-79.23774,42.094],"type":"Point"},"properties":{"kind":"stop","name":"Riverwalk Medical Center","stop_id":"364760"},"type":"Feature"},{"geometry":{"coordinates":[-79.24307,42.08615],"type":"Point"},"properties":{"kind":"stop","name":"Barrett & Newland","stop_id":"364761"},"type":"Feature"},{"geometry":{"coordinates":[-79.23711,42.08617],"type":"Point"},"properties":{"kind":"stop","name":"Newland & Prospect","stop_id":"364762"},"type":"Feature"},{"geometry":{"coordinates":[-79.24728,42.08191],"type":"Point"},"properties":{"kind":"stop","name":"Cole & Sampson","stop_id":"364763"},"type":"Feature"},{"geometry":{"coordinates":[-79.25014,42.08948],"type":"Point"},"properties":{"kind":"stop","name":"Baker & Sprague","stop_id":"364764"},"type":"Feature"},{"geometry":{"coordinates":[-79.25555,42.09239],"type":"Point"},"properties":{"kind":"stop","name":"Front & Hall","stop_id":"364765"},"type":"Feature"},{"geometry":{"coordinates":[-79.25501,42.09385],"type":"Point"},"properties":{"kind":"stop","name":"Farm Fresh Foods","stop_id":"364766"},"type":"Feature"},{"geometry":{"coordinates":[-79.23443,42.09748],"type":"Point"},"properties":{"kind":"stop","name":"2nd & Foote","stop_id":"364767"},"type":"Feature"},{"geometry":{"coordinates":[-79.22241,42.10751],"type":"Point"},"properties":{"kind":"stop","name":"2nd & Buffalo","stop_id":"364768"},"type":"Feature"},{"geometry":{"coordinates":[-79.21828,42.11126],"type":"Point"},"properties":{"kind":"stop","name":"2nd & Hopkins","stop_id":"364769"},"type":"Feature"},{"geometry":{"coordinates":[-79.19403,42.11652],"type":"Point"},"properties":{"kind":"stop","name":"Elmwood & S Work","stop_id":"364770"},"type":"Feature"},{"geometry":{"coordinates":[-79.19735,42.12539],"type":"Point"},"properties":{"kind":"stop","name":"Methodist Gardens (OR)","stop_id":"364771"},"type":"Feature"},{"geometry":{"coordinates":[-79.20874,42.11451],"type":"Point"},"properties":{"kind":"stop","name":"Falconer & Aldren","stop_id":"364773"},"type":"Feature"},{"geometry":{"coordinates":[-79.21752,42.11362],"type":"Point"},"properties":{"kind":"stop","name":"JCC","stop_id":"364774"},"type":"Feature"},{"geometry":{"coordinates":[-79.23068,42.10045],"type":"Point"},"properties":{"kind":"stop","name":"2nd & Winsor","stop_id":"364775"},"type":"Feature"},{"geometry":{"coordinates":[-79.2072,42.11359],"type":"Point"},"properties":{"kind":"stop","name":"2nd & Tiffany","stop_id":"364776"},"type":"Feature"},{"geometry":{"coordinates":[-79.19079,42.10683],"type":"Point"},"properties":{"kind":"stop","name":"MASON DR (OR)","stop_id":"364777"},"type":"Feature"},{"geometry":{"coordinates":[-79.18662,42.12163],"type":"Point"},"properties":{"kind":"stop","name":"Trucklite/MRC","stop_id":"364778"},"type":"Feature"},{"geometry":{"coordinates":[-79.19799,42.11897],"type":"Point"},"properties":{"kind":"stop","name":"Budget Inn","stop_id":"364779"},"type":"Feature"},{"geometry":{"coordinates":[-79.20721,42.11469],"type":"Point"},"properties":{"kind":"stop","name":"Falconer & Tiffany","stop_id":"364780"},"type":"Feature"},{"geometry":{"coordinates":[-79.19899,42.11952],"type":"Point"},"properties":{"kind":"stop","name":"Falconer & N Work","stop_id":"364781"},"type":"Feature"},{"geometry":{"coordinates":[-79.26116,42.09314],"type":"Point"},"properties":{"kind":"stop","name":"Hallock & W 3rd st.","stop_id":"364782"},"type":"Feature"},{"geometry":{"coordinates":[-79.26575,42.09698],"type":"Point"},"properties":{"kind":"stop","name":"Fairmount & McDaniel","stop_id":"364783"},"type":"Feature"},{"geometry":{"coordinates":[-79.30457,42.09729],"type":"Point"},"properties":{"kind":"stop","name":"Chautauqua Mall","stop_id":"364785"},"type":"Feature"},{"geometry":{"coordinates":[-79.32622,42.10337],"type":"Point"},"properties":{"kind":"stop","name":"Chautauqua & Summit","stop_id":"364786"},"type":"Feature"},{"geometry":{"coordinates":[-79.28708,42.10887],"type":"Point"},"properties":{"kind":"stop","name":"Ellicott Shores","stop_id":"364787"},"type":"Feature"},{"geometry":{"coordinates":[-79.25616,42.1015],"type":"Point"},"properties":{"kind":"stop","name":"TRC","stop_id":"364788"},"type":"Feature"},{"geometry":{"coordinates":[-79.24496,42.10034],"type":"Point"},"properties":{"kind":"stop","name":"Washington & W 8TH","stop_id":"364790"},"type":"Feature"},{"geometry":{"coordinates":[-79.2382,42.0987],"type":"Point"},"properties":{"kind":"stop","name":"5th & Prendergast","stop_id":"364792"},"type":"Feature"},{"geometry":{"coordinates":[-79.23656,42.10326],"type":"Point"},"properties":{"kind":"stop","name":"Lakeview & Falconer","stop_id":"364794"},"type":"Feature"},{"geometry":{"coordinates":[-79.22943,42.10792],"type":"Point"},"properties":{"kind":"stop","name":"Thayer & Newton","stop_id":"364795"},"type":"Feature"},{"geometry":{"coordinates":[-79.22695,42.11283],"type":"Point"},"properties":{"kind":"stop","name":"Hotchkiss & Clyde (OR)","stop_id":"364796"},"type":"Feature"},{"geometry":{"coordinates":[-79.23899,42.1105],"type":"Point"},"properties":{"kind":"stop","name":"Buffalo & Prendergast","stop_id":"364797"},"type":"Feature"},{"geometry":{"coordinates":[-79.23895,42.10131],"type":"Point"},"properties":{"kind":"stop","name":"Prendergast & 8th","stop_id":"364798"},"type":"Feature"},{"geometry":{"coordinates":[-79.24507,42.10967],"type":"Point"},"properties":{"kind":"stop","name":"TOPS","stop_id":"364799"},"type":"Feature"},{"geometry":{"coordinates":[-79.24139,42.1028],"type":"Point"},"properties":{"kind":"stop","name":"N Main & 10th","stop_id":"364800"},"type":"Feature"},{"geometry":{"coordinates":[-79.24445,42.0986],"type":"Point"},"properties":{"kind":"stop","name":"6th & Washington","stop_id":"364801"},"type":"Feature"},{"geometry":{"coordinates":[-79.24129,42.09637],"type":"Point"},"properties":{"kind":"stop","name":"S Main & 3rd","stop_id":"364802"},"type":"Feature"},{"geometry":{"coordinates":[-79.239,42.09307],"type":"Point"},"properties":{"kind":"stop","name":"S Main & Harrison","stop_id":"364803"},"type":"Feature"},{"geometry":{"coordinates":[-79.234,42.09043],"type":"Point"},"properties":{"kind":"stop","name":"Arterial & Prather","stop_id":"364804"},"type":"Feature"},{"geometry":{"coordinates":[-79.22926,42.07997],"type":"Point"},"properties":{"kind":"stop","name":"Southside Plaza","stop_id":"364805"},"type":"Feature"},{"geometry":{"coordinates":[-79.2312,42.09067],"type":"Point"},"properties":{"kind":"stop","name":"Sherman & Prather","stop_id":"364806"},"type":"Feature"},{"geometry":{"coordinates":[-79.23348,42.09428],"type":"Point"},"properties":{"kind":"stop","name":"Foote & Harrison","stop_id":"364807"},"type":"Feature"},{"geometry":{"coordinates":[-79.23796,42.0978],"type":"Point"},"properties":{"kind":"stop","name":"Prendergast & 4th st","stop_id":"364808"},"type":"Feature"},{"geometry":{"coordinates":[-79.24393,42.09683],"type":"Point"},"properties":{"kind":"stop","name":"4th & Washington","stop_id":"364809"},"type":"Feature"},{"geometry":{"coordinates":[-79.24835,42.09118],"type":"Point"},"properties":{"kind":"stop","name":"Jones Hill (OR)","stop_id":"3i48"},"type":"Feature"},{"geometry":{"coordinates":[-79.34603,42.47542],"type":"Point"},"properties":{"kind":"stop","name":"REM-Tronics","stop_id":"3p9g"},"type":"Feature"},{"geometry":{"coordinates":[-79.50505,42.25418],"type":"Point"},"properties":{"kind":"stop","name":"Mayville County Office","stop_id":"4gpa"},"type":"Feature"},{"geometry":{"coordinates":[-79.2166,42.09122],"type":"Point"},"properties":{"kind":"stop","name":"Bush Elementary","stop_id":"54by"},"type":"Feature"},{"geometry":{"coordinates":[-79.23464,42.08619],"type":"Point"},"properties":{"kind":"stop","name":"S Main St & Newland Ave","stop_id":"5fez"},"type":"Feature"},{"geometry":{"coordinates":[-79.23768,42.094],"type":"Point"},"properties":{"kind":"stop","name":"Riverside Medical Center (OR)","stop_id":"69rr"},"type":"Feature"},{"geometry":{"coordinates":[-79.0996,42.29399],"type":"Point"},"properties":{"kind":"stop","name":"Cherry Creek Sub Shop","stop_id":"6cli"},"type":"Feature"},{"geometry":{"coordinates":[-79.23304,42.09167],"type":"Point"},"properties":{"kind":"stop","name":"WCA","stop_id":"7uue"},"type":"Feature"},{"geometry":{"coordinates":[-79.11293,42.22034],"type":"Point"},"properties":{"kind":"stop","name":"Ellington Town Park (OR)","stop_id":"8mw1"},"type":"Feature"},{"geometry":{"coordinates":[-79.32957,42.48468],"type":"Point"},"properties":{"kind":"stop","name":"Save-A-Lot","stop_id":"STOP_0bb67a21-f462-47cf-b583-bbf05609b1e2"},"type":"Feature"},{"geometry":{"coordinates":[-79.23334,42.09597],"type":"Point"},"properties":{"kind":"stop","name":"Crane St. (OR)","stop_id":"STOP_13581b6a-1760-4862-8bfc-6955a15a6fde"},"type":"Feature"},{"geometry":{"coordinates":[-79.31354,42.45779],"type":"Point"},"properties":{"kind":"stop","name":"Home Depot/Bob Evans (OR)","stop_id":"STOP_1b9f05b4-3df1-4213-b79b-3691ae2b29a2"},"type":"Feature"},{"geometry":{"coordinates":[-79.29294,42.09493],"type":"Point"},"properties":{"kind":"stop","name":"K-Mart (OR)","stop_id":"STOP_24c252f6-5e48-4512-8add-3f656d6998f7"},"type":"Feature"},{"geometry":{"coordinates":[-79.32333,42.4787],"type":"Point"},"properties":{"kind":"stop","name":"Courtney Apts","stop_id":"STOP_4b1efeed-c2fb-4934-b3e5-ff5e96084f5c"},"type":"Feature"},{"geometry":{"coordinates":[-79.31796,42.45755],"type":"Point"},"properties":{"kind":"stop","name":"Tops Plaza","stop_id":"STOP_512e3bb4-a26d-474c-8ec1-ca3edb608d75"},"type":"Feature"},{"geometry":{"coordinates":[-79.22493,42.10516],"type":"Point"},"properties":{"kind":"stop","name":"Passages Resource Center","stop_id":"STOP_5e72748e-99dd-43c0-9e79-0773a4afd1cd"},"type":"Feature"},{"geometry":{"coordinates":[-79.26518,42.09868],"type":"Point"},"properties":{"kind":"stop","name":"Shirley Lane (OR)","stop_id":"STOP_7446e78f-4364-4c73-9995-c78bc7b63972"},"type":"Feature"},{"geometry":{"coordinates":[-79.32953,42.48883],"type":"Point"},"properties":{"kind":"stop","name":"High Rise (OR)","stop_id":"STOP_8518fa5c-6605-499b-8d8f-f212377f3c62"},"type":"Feature"},{"geometry":{"coordinates":[-79.2999,42.0975],"type":"Point"},"properties":{"kind":"stop","name":"Walmart","stop_id":"STOP_9c42d68a-0be8-43f4-97da-8c2ab60d00fa"},"type":"Feature"},{"geometry":{"coordinates":[-79.33441,42.48336],"type":"Point"},"properties":{"kind":"stop","name":"Dunkirk City Hall","stop_id":"STOP_aaa24966-5097-4b44-a581-47bfc1e3e7ac"},"type":"Feature"},{"geometry":{"coordinates":[-79.31923,42.45937],"type":"Point"},"properties":{"kind":"stop","name":"TJ Maxx Plaza/Aldi (OR)","stop_id":"STOP_c9fdaa14-1699-47fc-99af-d886d22c9431"},"type":"Feature"},{"geometry":{"coordinates":[-79.34812,42.09887],"type":"Point"},"properties":{"kind":"stop","name":"Fairmount & Big Tree (OR)","stop_id":"STOP_cdf0109c-a9de-4c42-9a0c-fc52f1acec8b"},"type":"Feature"},{"geometry":{"coordinates":[-79.31253,42.45378],"type":"Point"},"properties":{"kind":"stop","name":"Walmart","stop_id":"STOP_cf45d44f-1408-4095-8d41-acb100f6c296"},"type":"Feature"},{"geometry":{"coordinates":[-79.24799,42.11469],"type":"Point"},"properties":{"kind":"stop","name":"Save-A-Lot (OR)","stop_id":"STOP_d7467004-6a75-4c81-9d0b-a37a8ed87bdc"},"type":"Feature"},{"geometry":{"coordinates":[-79.19809,42.11894],"type":"Point"},"properties":{"kind":"stop","name":"Four Corners","stop_id":"STOP_ddc1d189-e791-4529-a4d3-360499fe0ce8"},"type":"Feature"},{"geometry":{"coordinates":[-79.34326,42.09859],"type":"Point"},"properties":{"kind":"stop","name":"Fairmount & Lowe (OR)","stop_id":"STOP_f0130282-d71b-4081-9157-fdf44d024f8c"},"type":"Feature"},{"geometry":{"coordinates":[-79.32694,42.48391],"type":"Point"},"properties":{"kind":"stop","name":"Dunkirk Senior Center (OR)","stop_id":"STOP_f5bf6e93-f408-4925-a8f7-880ec2c7f013"},"type":"Feature"},{"geometry":{"coordinates":[-79.31944,42.46951],"type":"Point"},"properties":{"kind":"stop","name":"Connections North/JCC (OR)","stop_id":"STOP_fb97980b-5bcf-4c80-8e64-09de1c6358eb"},"type":"Feature"},{"geometry":{"coordinates":[-79.19796,42.11909],"type":"Point"},"properties":{"kind":"stop","name":"Falconer HSBC (OR)","stop_id":"c50g"},"type":"Feature"},{"geometry":{"coordinates":[-79.33126,42.43989],"type":"Point"},"properties":{"kind":"stop","name":"Fredonia-Water Street","stop_id":"ccy4"},"type":"Feature"},{"geometry":{"coordinates":[-79.16032,42.05269],"type":"Point"},"properties":{"kind":"stop","name":"Frewsburg Town Hall","stop_id":"d67j"},"type":"Feature"},{"geometry":{"coordinates":[-79.11307,42.22031],"type":"Point"},"properties":{"kind":"stop","name":"Ellington Town Park - Thornton Rd","stop_id":"dvl3"},"type":"Feature"},{"geometry":{"coordinates":[-79.25239,42.09804],"type":"Point"},"properties":{"kind":"stop","name":"W 8th St & Jones and Gifford","stop_id":"e5jq"},"type":"Feature"},{"geometry":{"coordinates":[-79.21569,42.09738],"type":"Point"},"properties":{"kind":"stop","name":"Pardee Ave & Willard St","stop_id":"go4g"},"type":"Feature"},{"geometry":{"coordinates":[-79.33134,42.43987],"type":"Point"},"properties":{"kind":"stop","name":"Fredonia-Water Street (OR)","stop_id":"gpyq"},"type":"Feature"},{"geometry":{"coordinates":[-79.24367,42.09597],"type":"Point"},"properties":{"kind":"stop","name":"3rd St & Washington St","stop_id":"hbeh"},"type":"Feature"},{"geometry":{"coordinates":[-79.57639,42.32279],"type":"Point"},"properties":{"kind":"stop","name":"Westfield (Elm St Parking Lot)","stop_id":"hoca"},"type":"Feature"},{"geometry":{"coordinates":[-79.06007,42.23918],"type":"Point"},"properties":{"kind":"stop","name":"Conewango Good as New (OR)","stop_id":"hsem"},"type":"Feature"},{"geometry":{"coordinates":[-79.06001,42.23914],"type":"Point"},"properties":{"kind":"stop","name":"Conewango Good as New","stop_id":"kr6p"},"type":"Feature"},{"geometry":{"coordinates":[-79.09968,42.29397],"type":"Point"},"properties":{"kind":"stop","name":"Cherry Creek Sub Shop (OR)","stop_id":"lni1"},"type":"Feature"},{"geometry":{"coordinates":[-79.57648,42.32279],"type":"Point"},"properties":{"kind":"stop","name":"Westfield (Elm St Parking Lot) (OR)","stop_id":"lv4j"},"type":"Feature"},{"geometry":{"coordinates":[-79.22271,42.08521],"type":"Point"},"properties":{"kind":"stop","name":"Rogers Elementary","stop_id":"o4je"},"type":"Feature"},{"geometry":{"coordinates":[-79.57366,42.32502],"type":"Point"},"properties":{"kind":"stop","name":"Family Court (OR)","stop_id":"o9c7"},"type":"Feature"},{"geometry":{"coordinates":[-79.24478,42.09484],"type":"Point"},"properties":{"kind":"stop","name":"Gateway Station","stop_id":"p1rq"},"type":"Feature"},{"geometry":{"coordinates":[-79.43874,42.38949],"type":"Point"},"properties":{"kind":"stop","name":"Brocton Country Fair (OR)","stop_id":"pt0e"},"type":"Feature"},{"geometry":{"coordinates":[-79.25241,42.09803],"type":"Point"},"properties":{"kind":"stop","name":"W 8th St & Jones and Gifford (OR)","stop_id":"q0fo"},"type":"Feature"},{"geometry":{"coordinates":[-79.2604,42.26406],"type":"Point"},"properties":{"kind":"stop","name":"Sinclairville Post Office","stop_id":"qu4v"},"type":"Feature"},{"geometry":{"coordinates":[-79.24276,42.09701],"type":"Point"},"properties":{"kind":"stop","name":"W 4th St & Cherry St","stop_id":"rd27"},"type":"Feature"},{"geometry":{"coordinates":[-79.47013,42.37883],"type":"Point"},"properties":{"kind":"stop","name":"Portland Post Office (OR)","stop_id":"ri3e"},"type":"Feature"},{"geometry":{"coordinates":[-79.43871,42.38937],"type":"Point"},"properties":{"kind":"stop","name":"Brocton Country Fair","stop_id":"ugbu"},"type":"Feature"},{"geometry":{"coordinates":[-79.22964,42.08187],"type":"Point"},"properties":{"kind":"stop","name":"Cole Ave & Foote Ave","stop_id":"wyv1"},"type":"Feature"},{"geometry":{"coordinates":[-79.22555,42.09723],"type":"Point"},"properties":{"kind":"stop","name":"Allen St & Willard St","stop_id":"x2b2"},"type":"Feature"},{"geometry":{"coordinates":[-79.12746,42.10795],"type":"Point"},"properties":{"kind":"stop","name":"Pine Bluff Trailer Park (OR)","stop_id":"zwix"},"type":"Feature"}],"type":"FeatureCollection"}
