{"features":[{"geometry":{"coordinates":[[-107.87442,38.47832],[-107.87594,38.47727],[-107.87953,38.48036],[-107.88841,38.48862],[-107.89973,38.4987],[-107.89839,38.49955],[-107.89912,38.49986],[-107.90044,38.50108],[-107.90093,38.5011],[-107.90125,38.50085],[-107.90126,38.5006],[-107.8996,38.49907],[-107.89974,38.49872],[-107.90462,38.50311],[-107.90973,38.50851],[-107.91326,38.5118],[-107.92449,38.52079],[-107.93437,38.52935],[-107.93652,38.53184],[-107.95123,38.55505],[-107.97226,38.59489],[-107.97276,38.59654],[-107.9734,38.60516],[-107.98316,38.60522],[-107.98316,38.60621],[-107.98438,38.60621],[-107.98441,38.60523],[-107.9734,38.60516],[-107.97368,38.60745],[-107.97418,38.60854],[-107.97495,38.60953],[-107.98354,38.61827],[-107.98441,38.61973],[-107.98465,38.62078],[-107.98561,38.63086],[-107.98638,38.63448],[-107.98874,38.64497],[-107.99353,38.6607],[-108.01229,38.68746],[-108.01743,38.69244],[-108.019,38.69374],[-108.03216,38.7011],[-108.03179,38.70147],[-108.03052,38.70148],[-108.03032,38.70165],[-108.03044,38.70182],[-108.03147,38.70234],[-108.03184,38.70192],[-108.03188,38.70143],[-108.03216,38.7011],[-108.04473,38.70815],[-108.06527,38.72628],[-108.06496,38.72655],[-108.06499,38.72864],[-108.06808,38.72866],[-108.07026,38.73068],[-108.07059,38.73165],[-108.07071,38.73906],[-108.06943,38.73907],[-108.06947,38.74169],[-108.07075,38.74168],[-108.07081,38.74528],[-108.06783,38.7463],[-108.06461,38.74838],[-108.05501,38.75199],[-108.05501,38.7504],[-108.05539,38.74991],[-108.05532,38.74977],[-108.05069,38.75027],[-108.0507,38.74737],[-108.04863,38.74623],[-108.04856,38.74458],[-108.04766,38.74457]],"type":"LineString"},"properties":{"color":"#30BD1A","color_name":"green","kind":"route","label":"MOD Express","long":"MOD Express","route_id":"76429","text_color":"#FFFFFF","type_label":"Bus"},"type":"Feature"},{"geometry":{"coordinates":[[-107.87441,38.47834],[-107.87609,38.4772],[-107.86711,38.46913],[-107.86661,38.46848],[-107.86638,38.46779],[-107.86633,38.4509],[-107.86692,38.4412],[-107.86636,38.4337],[-107.86589,38.43253],[-107.85351,38.41805],[-107.7934,38.34885],[-107.79001,38.34474],[-107.78906,38.34321],[-107.78399,38.33342],[-107.77681,38.32304],[-107.77581,38.3212],[-107.77523,38.3188],[-107.77441,38.31121],[-107.77308,38.30704],[-107.77344,38.3009],[-107.77278,38.29765],[-107.77029,38.29147],[-107.76941,38.29039],[-107.76664,38.28804],[-107.76581,38.28699],[-107.76525,38.28601],[-107.76474,38.28439],[-107.76466,38.28283],[-107.76529,38.27835],[-107.76637,38.2757],[-107.7664,38.27417],[-107.76598,38.27318],[-107.76369,38.26942],[-107.75959,38.26525],[-107.75754,38.26252],[-107.75689,38.26081],[-107.757,38.25893],[-107.75829,38.25163],[-107.75925,38.24785],[-107.75917,38.24685],[-107.75887,38.24613],[-107.75796,38.24521],[-107.75676,38.24465],[-107.75125,38.24393],[-107.74837,38.24323],[-107.74058,38.23962],[-107.73859,38.23802],[-107.73573,38.23491],[-107.73483,38.23419],[-107.73167,38.23233],[-107.73047,38.23135],[-107.72975,38.23038],[-107.72715,38.22558],[-107.72684,38.22488],[-107.72674,38.22386],[-107.72803,38.22125],[-107.72818,38.21996],[-107.72705,38.21329],[-107.72707,38.21217],[-107.72741,38.21125],[-107.72832,38.21004],[-107.73215,38.20612],[-107.7344,38.20153],[-107.7354,38.19997],[-107.73695,38.19875],[-107.74057,38.19711],[-107.7421,38.19597],[-107.74446,38.19278],[-107.74542,38.19041],[-107.74647,38.18716],[-107.74649,38.18623],[-107.74615,38.18518],[-107.74427,38.18291],[-107.74372,38.17987],[-107.74217,38.17659],[-107.74195,38.17452],[-107.7422,38.17313],[-107.74701,38.16359],[-107.74844,38.16192],[-107.75214,38.1593],[-107.75281,38.15798],[-107.75279,38.15663],[-107.75252,38.15594],[-107.75183,38.15501],[-107.74903,38.15219],[-107.7489,38.1517],[-107.75017,38.15143],[-107.75007,38.15109],[-107.7501,38.15143],[-107.74875,38.15156],[-107.74802,38.15113],[-107.735,38.13856],[-107.73436,38.13776],[-107.73416,38.13684],[-107.73435,38.13495],[-107.73403,38.13359],[-107.73041,38.12806],[-107.72651,38.12347],[-107.72214,38.11744],[-107.72136,38.11448],[-107.71975,38.11187],[-107.7173,38.10533],[-107.71631,38.10318],[-107.71523,38.10156],[-107.71316,38.09916],[-107.70963,38.09598],[-107.70896,38.09508],[-107.70453,38.08631],[-107.70127,38.08131],[-107.69741,38.07442],[-107.69549,38.06985],[-107.69506,38.06784],[-107.6941,38.06658],[-107.69071,38.05956],[-107.69025,38.0561],[-107.68998,38.05539],[-107.68786,38.05408],[-107.68681,38.05258],[-107.68289,38.04897],[-107.68206,38.04721],[-107.68206,38.04546],[-107.68178,38.04449],[-107.67799,38.03666],[-107.67729,38.03589],[-107.67558,38.03494],[-107.67485,38.03422],[-107.67451,38.03326],[-107.67444,38.03103],[-107.6741,38.0304],[-107.67167,38.02919],[-107.67145,38.02743],[-107.67152,38.02167],[-107.67012,38.02166],[-107.67011,38.02277],[-107.67029,38.02277]],"type":"LineString"},"properties":{"color":"#6601CC","color_name":"purple","kind":"route","label":"OurWay","long":"OurWay","route_id":"76891","text_color":"#FFFFFF","type_label":"Bus"},"type":"Feature"},{"geometry":{"coordinates":[[-107.87441,38.47834],[-107.87838,38.47559],[-107.87886,38.47662],[-107.88004,38.4758],[-107.88806,38.48308],[-107.88836,38.48355],[-107.88902,38.48389],[-107.89225,38.48671],[-107.89267,38.48744],[-107.89242,38.48851],[-107.89153,38.48912],[-107.89121,38.48851],[-107.8915,38.48816],[-107.89179,38.48822],[-107.892,38.48796],[-107.89197,38.48762],[-107.89187,38.48727],[-107.89096,38.48651],[-107.89165,38.48768],[-107.89121,38.48851],[-107.89153,38.48912],[-107.88913,38.48926],[-107.882,38.48255],[-107.86767,38.46967],[-107.86661,38.46848],[-107.86638,38.46779],[-107.86627,38.45726],[-107.8681,38.4567],[-107.86729,38.45512],[-107.86725,38.45447],[-107.86623,38.45445],[-107.86631,38.44884],[-107.86655,38.44582],[-107.86911,38.44594],[-107.8699,38.44624],[-107.87055,38.44565],[-107.86964,38.44467],[-107.86881,38.44423],[-107.86792,38.44321],[-107.86755,38.44347],[-107.86752,38.44409],[-107.86849,38.4451],[-107.86791,38.44519],[-107.86786,38.44586],[-107.86645,38.44581],[-107.86624,38.44885],[-107.86424,38.44883],[-107.86422,38.45003],[-107.86262,38.45009],[-107.86223,38.44906],[-107.86172,38.44917],[-107.8613,38.44896],[-107.86008,38.449],[-107.86007,38.44851],[-107.86025,38.44844],[-107.86031,38.44902],[-107.86222,38.44906],[-107.86265,38.45016],[-107.86573,38.4501],[-107.86571,38.44884],[-107.86624,38.44885],[-107.86618,38.45448],[-107.86512,38.45447],[-107.86524,38.45574],[-107.86477,38.45584],[-107.86431,38.45446],[-107.8617,38.45447],[-107.86152,38.45384],[-107.86175,38.45378],[-107.86171,38.45344],[-107.86152,38.45337],[-107.86174,38.45378],[-107.86152,38.45384],[-107.8617,38.45446],[-107.86618,38.45448],[-107.86623,38.46576],[-107.86469,38.46603],[-107.86458,38.46589],[-107.86553,38.46596],[-107.86623,38.46576],[-107.86638,38.46828],[-107.86747,38.46961],[-107.86433,38.47173],[-107.87288,38.47938],[-107.87441,38.47834]],"type":"LineString"},"properties":{"color":"#FF3EFF","color_name":"pink","kind":"route","label":"Business Express","long":"Business Express","route_id":"76892","text_color":"#000000","type_label":"Bus"},"type":"Feature"},{"geometry":{"coordinates":[[-107.87441,38.47834],[-107.87394,38.47865],[-107.87351,38.47827],[-107.8745,38.47758],[-107.87491,38.47795],[-107.87604,38.47719],[-107.86711,38.46913],[-107.86647,38.46814],[-107.86638,38.46723],[-107.85131,38.46722],[-107.85143,38.46592],[-107.85122,38.46582],[-107.85131,38.46722],[-107.85666,38.46721],[-107.85664,38.47399],[-107.85648,38.47452],[-107.85669,38.48142],[-107.85654,38.48178],[-107.85712,38.48264],[-107.85715,38.48913],[-107.85801,38.48908],[-107.85892,38.48855],[-107.85898,38.48809],[-107.86313,38.48778],[-107.86454,38.48746],[-107.86738,38.48594],[-107.87086,38.48898],[-107.87351,38.48982],[-107.87376,38.48938],[-107.87585,38.48941],[-107.8784,38.48776],[-107.88015,38.48925],[-107.88852,38.4836],[-107.89129,38.48591],[-107.89084,38.4862],[-107.89103,38.48684],[-107.89165,38.48768],[-107.89121,38.48851],[-107.89153,38.48912],[-107.88913,38.48926],[-107.89973,38.4987],[-107.89839,38.49955],[-107.89912,38.49986],[-107.90044,38.50108],[-107.90093,38.5011],[-107.90128,38.50064],[-107.89959,38.49908],[-107.89973,38.4987],[-107.90528,38.50379],[-107.92172,38.50375],[-107.92171,38.50143],[-107.92152,38.5005],[-107.92097,38.49963],[-107.91966,38.49846],[-107.91571,38.49765],[-107.91344,38.49663],[-107.90945,38.49654],[-107.9075,38.49582],[-107.9056,38.49283],[-107.90333,38.49063],[-107.90292,38.48537],[-107.90063,38.48407],[-107.89939,38.48301],[-107.89401,38.48],[-107.89386,38.4746],[-107.88692,38.4746],[-107.88523,38.47528],[-107.88126,38.47642],[-107.87938,38.4776],[-107.87846,38.47558],[-107.87531,38.47055],[-107.87415,38.47052],[-107.87366,38.47069],[-107.87329,38.47011],[-107.87132,38.4709],[-107.87001,38.47187],[-107.87597,38.47728],[-107.87441,38.47834]],"type":"LineString"},"properties":{"color":"#0287BF","color_name":"teal","kind":"route","label":"Residential Rider","long":"Residential Rider","route_id":"76893","text_color":"#000000","type_label":"Bus"},"type":"Feature"},{"geometry":{"coordinates":[[-108.04775,38.74454],[-108.04748,38.74447],[-108.04755,38.74466],[-108.04856,38.74458],[-108.04859,38.74316],[-108.05526,38.74311],[-108.05528,38.73736],[-108.05063,38.73732],[-108.05063,38.71656],[-108.0508,38.71627],[-108.05253,38.71632],[-108.05364,38.71603],[-108.06527,38.72628],[-108.06496,38.72655],[-108.06497,38.72722],[-108.06358,38.72738],[-108.06353,38.7284],[-108.06382,38.72863],[-108.06499,38.72864],[-108.06508,38.73388],[-108.06789,38.73386],[-108.06794,38.73646],[-108.06652,38.73648],[-108.06654,38.73777],[-108.06796,38.73776],[-108.06798,38.73908],[-108.07213,38.73905],[-108.07215,38.74035],[-108.07356,38.74034],[-108.07354,38.73904],[-108.0763,38.73902],[-108.07635,38.7403],[-108.0773,38.74028],[-108.07582,38.74355],[-108.07485,38.74513],[-108.07468,38.74795],[-108.07509,38.74811],[-108.07542,38.74852],[-108.07535,38.74894],[-108.07495,38.74936],[-108.07643,38.75063],[-108.0773,38.75031],[-108.07724,38.7501],[-108.07645,38.75051],[-108.07504,38.74929],[-108.07542,38.7487],[-108.07524,38.74824],[-108.07326,38.74748],[-108.07274,38.74707],[-108.07186,38.74707],[-108.07194,38.74917],[-108.07148,38.74913],[-108.07144,38.74945],[-108.07051,38.74946],[-108.0705,38.74898],[-108.07069,38.74878],[-108.07188,38.74879],[-108.0709,38.74873],[-108.06997,38.74821],[-108.06952,38.74904],[-108.06937,38.74979],[-108.06926,38.75724],[-108.06806,38.75734],[-108.06926,38.75724],[-108.06933,38.75168],[-108.06958,38.74931],[-108.07081,38.74716],[-108.07095,38.7462],[-108.07094,38.74533],[-108.07081,38.74528],[-108.06955,38.74566],[-108.0695,38.74298],[-108.06804,38.743],[-108.06809,38.74618],[-108.06684,38.74696],[-108.06628,38.74678],[-108.06466,38.74688],[-108.06482,38.74769],[-108.06018,38.74824],[-108.06019,38.75006],[-108.05485,38.75205],[-108.05069,38.7529],[-108.05064,38.75402],[-108.04967,38.75404],[-108.04964,38.75385],[-108.05064,38.75387],[-108.05069,38.75202],[-108.05271,38.75198],[-108.05276,38.75123],[-108.05068,38.75128],[-108.05074,38.74746],[-108.05032,38.74704],[-108.04868,38.7463],[-108.04856,38.74458],[-108.04775,38.74454]],"type":"LineString"},"properties":{"color":"#00B9C2","color_name":"teal","kind":"route","label":"Delta Dash","long":"Delta Dash","route_id":"77074","text_color":"#000000","type_label":"Bus"},"type":"Feature"},{"geometry":{"coordinates":[-107.89375,38.47441],"type":"Point"},"properties":{"kind":"stop","name":"100 6400 RD","stop_id":"2583113"},"type":"Feature"},{"geometry":{"coordinates":[-107.88526,38.47521],"type":"Point"},"properties":{"kind":"stop","name":"West Main Trailhead","stop_id":"2583114"},"type":"Feature"},{"geometry":{"coordinates":[-107.88326,38.47573],"type":"Point"},"properties":{"kind":"stop","name":"Main St @ Maple Ave","stop_id":"2583115"},"type":"Feature"},{"geometry":{"coordinates":[-107.87795,38.47463],"type":"Point"},"properties":{"kind":"stop","name":"S Rio Grande Ave @ S 3rd St","stop_id":"2583116"},"type":"Feature"},{"geometry":{"coordinates":[-107.87162,38.47067],"type":"Point"},"properties":{"kind":"stop","name":"All Points Transit","stop_id":"2583117"},"type":"Feature"},{"geometry":{"coordinates":[-107.87,38.47157],"type":"Point"},"properties":{"kind":"stop","name":"Townsend Ave. @ Colorado Ave.","stop_id":"2583118"},"type":"Feature"},{"geometry":{"coordinates":[-107.86286,38.46715],"type":"Point"},"properties":{"kind":"stop","name":"Vista Charter School","stop_id":"2583119"},"type":"Feature"},{"geometry":{"coordinates":[-107.85646,38.47149],"type":"Point"},"properties":{"kind":"stop","name":"Hillcrest @ Stratford Ave","stop_id":"2583120"},"type":"Feature"},{"geometry":{"coordinates":[-107.85645,38.4797],"type":"Point"},"properties":{"kind":"stop","name":"Hillcrest @ Birch St","stop_id":"2583121"},"type":"Feature"},{"geometry":{"coordinates":[-107.8593,38.48185],"type":"Point"},"properties":{"kind":"stop","name":"Miami Rd @ E Star Ct","stop_id":"2583122"},"type":"Feature"},{"geometry":{"coordinates":[-107.86645,38.47987],"type":"Point"},"properties":{"kind":"stop","name":"S 5th St @ Lot Ave","stop_id":"2583123"},"type":"Feature"},{"geometry":{"coordinates":[-107.86996,38.48025],"type":"Point"},"properties":{"kind":"stop","name":"Nevada Ave @ Hospital","stop_id":"2583124"},"type":"Feature"},{"geometry":{"coordinates":[-107.87279,38.48237],"type":"Point"},"properties":{"kind":"stop","name":"Main St @ Nevada Ave","stop_id":"2583125"},"type":"Feature"},{"geometry":{"coordinates":[-107.87354,38.48151],"type":"Point"},"properties":{"kind":"stop","name":"E Main St @ S Mesa Ave","stop_id":"2583126"},"type":"Feature"},{"geometry":{"coordinates":[-107.86877,38.48209],"type":"Point"},"properties":{"kind":"stop","name":"Lot Ave @ S 2nd St (Hospital)","stop_id":"2583127"},"type":"Feature"},{"geometry":{"coordinates":[-107.86608,38.4799],"type":"Point"},"properties":{"kind":"stop","name":"S 5th St @ Lot Ave","stop_id":"2583128"},"type":"Feature"},{"geometry":{"coordinates":[-107.85892,38.48162],"type":"Point"},"properties":{"kind":"stop","name":"Miami Rd @ E Star Ct","stop_id":"2583129"},"type":"Feature"},{"geometry":{"coordinates":[-107.85666,38.47694],"type":"Point"},"properties":{"kind":"stop","name":"Hillcrest Dr @ S 11th St","stop_id":"2583130"},"type":"Feature"},{"geometry":{"coordinates":[-107.85674,38.47108],"type":"Point"},"properties":{"kind":"stop","name":"Hillcrest Dr @ Avon Dr","stop_id":"2583133"},"type":"Feature"},{"geometry":{"coordinates":[-107.86016,38.46729],"type":"Point"},"properties":{"kind":"stop","name":"Niagara @ Desonto Dr","stop_id":"2583134"},"type":"Feature"},{"geometry":{"coordinates":[-107.87056,38.47152],"type":"Point"},"properties":{"kind":"stop","name":"221 Colorado Ave","stop_id":"2583136"},"type":"Feature"},{"geometry":{"coordinates":[-107.87781,38.47477],"type":"Point"},"properties":{"kind":"stop","name":"S Rio Grande Ave @ S 3rd St","stop_id":"2583137"},"type":"Feature"},{"geometry":{"coordinates":[-107.8823,38.47619],"type":"Point"},"properties":{"kind":"stop","name":"Main St @ S Willerup Ave","stop_id":"2583138"},"type":"Feature"},{"geometry":{"coordinates":[-107.88692,38.47262],"type":"Point"},"properties":{"kind":"stop","name":"Chipeta Rd @ Willow Rd","stop_id":"2583140"},"type":"Feature"},{"geometry":{"coordinates":[-107.89133,38.46735],"type":"Point"},"properties":{"kind":"stop","name":"Orchard Rd @ Alpine Rd","stop_id":"2583141"},"type":"Feature"},{"geometry":{"coordinates":[-107.85907,38.48749],"type":"Point"},"properties":{"kind":"stop","name":"Rose Lane","stop_id":"2583159"},"type":"Feature"},{"geometry":{"coordinates":[-107.8596,38.49125],"type":"Point"},"properties":{"kind":"stop","name":"Locust Rd @ Pine View Dr","stop_id":"2583160"},"type":"Feature"},{"geometry":{"coordinates":[-107.86287,38.48901],"type":"Point"},"properties":{"kind":"stop","name":"Locust Rd @ J Rd","stop_id":"2583161"},"type":"Feature"},{"geometry":{"coordinates":[-107.86789,38.48663],"type":"Point"},"properties":{"kind":"stop","name":"San Juan Ave & N 1st","stop_id":"2583162"},"type":"Feature"},{"geometry":{"coordinates":[-107.87427,38.48978],"type":"Point"},"properties":{"kind":"stop","name":"N 7th St @ Cedar Creek Ave","stop_id":"2583163"},"type":"Feature"},{"geometry":{"coordinates":[-107.88117,38.48857],"type":"Point"},"properties":{"kind":"stop","name":"N 9th St @ Mesa Ave","stop_id":"2583164"},"type":"Feature"},{"geometry":{"coordinates":[-107.87954,38.48534],"type":"Point"},"properties":{"kind":"stop","name":"Park Ave @ N 6th St","stop_id":"2583165"},"type":"Feature"},{"geometry":{"coordinates":[-107.87652,38.48263],"type":"Point"},"properties":{"kind":"stop","name":"Park Ave @ N 2nd St","stop_id":"2583166"},"type":"Feature"},{"geometry":{"coordinates":[-107.87911,38.47794],"type":"Point"},"properties":{"kind":"stop","name":"Main St @ Selig","stop_id":"2583167"},"type":"Feature"},{"geometry":{"coordinates":[-107.88322,38.47885],"type":"Point"},"properties":{"kind":"stop","name":"Grand Ave. @ North 3rd","stop_id":"2583168"},"type":"Feature"},{"geometry":{"coordinates":[-107.886,38.48136],"type":"Point"},"properties":{"kind":"stop","name":"Grand Ave @ N 6th St","stop_id":"2583169"},"type":"Feature"},{"geometry":{"coordinates":[-107.89159,38.48763],"type":"Point"},"properties":{"kind":"stop","name":"Justice Center","stop_id":"2583170"},"type":"Feature"},{"geometry":{"coordinates":[-107.88523,38.48592],"type":"Point"},"properties":{"kind":"stop","name":"Townsend Ave @ N 9th St","stop_id":"2583171"},"type":"Feature"},{"geometry":{"coordinates":[-107.88104,38.48168],"type":"Point"},"properties":{"kind":"stop","name":"Townsend Ave @ N 4th St","stop_id":"2583172"},"type":"Feature"},{"geometry":{"coordinates":[-107.87772,38.47753],"type":"Point"},"properties":{"kind":"stop","name":"City Market North","stop_id":"2583173"},"type":"Feature"},{"geometry":{"coordinates":[-107.88431,38.48492],"type":"Point"},"properties":{"kind":"stop","name":"Townsend Ave @ N 8th St","stop_id":"2583174"},"type":"Feature"},{"geometry":{"coordinates":[-107.88716,38.48765],"type":"Point"},"properties":{"kind":"stop","name":"1122 Townsend Ave","stop_id":"2583175"},"type":"Feature"},{"geometry":{"coordinates":[-107.88616,38.48128],"type":"Point"},"properties":{"kind":"stop","name":"Grand Ave @ N 6th St","stop_id":"2583176"},"type":"Feature"},{"geometry":{"coordinates":[-107.88329,38.47868],"type":"Point"},"properties":{"kind":"stop","name":"Grand Ave @ Willerup Ave","stop_id":"2583177"},"type":"Feature"},{"geometry":{"coordinates":[-107.87948,38.47746],"type":"Point"},"properties":{"kind":"stop","name":"Main St @ Rio Grande Ave","stop_id":"2583178"},"type":"Feature"},{"geometry":{"coordinates":[-107.87801,38.48414],"type":"Point"},"properties":{"kind":"stop","name":"Park Ave @ N 4th St","stop_id":"2583179"},"type":"Feature"},{"geometry":{"coordinates":[-107.88194,38.48787],"type":"Point"},"properties":{"kind":"stop","name":"N 9th St @ Park Ave","stop_id":"2583180"},"type":"Feature"},{"geometry":{"coordinates":[-107.87576,38.48935],"type":"Point"},"properties":{"kind":"stop","name":"N 7th St @ Cedar Creek Ave","stop_id":"2583181"},"type":"Feature"},{"geometry":{"coordinates":[-107.8653,38.48702],"type":"Point"},"properties":{"kind":"stop","name":"Main St @ Tessitore Ct","stop_id":"2583182"},"type":"Feature"},{"geometry":{"coordinates":[-107.86346,38.44819],"type":"Point"},"properties":{"kind":"stop","name":"Walmart","stop_id":"2583183"},"type":"Feature"},{"geometry":{"coordinates":[-107.8643,38.45399],"type":"Point"},"properties":{"kind":"stop","name":"City Market South","stop_id":"2583184"},"type":"Feature"},{"geometry":{"coordinates":[-107.86498,38.45484],"type":"Point"},"properties":{"kind":"stop","name":"Alpine Dr @ Odelle Rd","stop_id":"2583185"},"type":"Feature"},{"geometry":{"coordinates":[-107.86604,38.46268],"type":"Point"},"properties":{"kind":"stop","name":"Townsend Ave @ Encanto Pl","stop_id":"2583186"},"type":"Feature"},{"geometry":{"coordinates":[-107.86624,38.47029],"type":"Point"},"properties":{"kind":"stop","name":"S 12th St @ Cascade Ave","stop_id":"2583187"},"type":"Feature"},{"geometry":{"coordinates":[-107.86771,38.47493],"type":"Point"},"properties":{"kind":"stop","name":"Park Ave @ S 8th St","stop_id":"2583188"},"type":"Feature"},{"geometry":{"coordinates":[-107.87127,38.47814],"type":"Point"},"properties":{"kind":"stop","name":"Park Ave @ S 4th St","stop_id":"2583189"},"type":"Feature"},{"geometry":{"coordinates":[-107.87532,38.47682],"type":"Point"},"properties":{"kind":"stop","name":"Townsend Ave @ Library","stop_id":"2583190"},"type":"Feature"},{"geometry":{"coordinates":[-107.87101,38.47768],"type":"Point"},"properties":{"kind":"stop","name":"Park Ave @ S 4th St","stop_id":"2583191"},"type":"Feature"},{"geometry":{"coordinates":[-107.86753,38.47453],"type":"Point"},"properties":{"kind":"stop","name":"Park Ave @ S 8th St","stop_id":"2583192"},"type":"Feature"},{"geometry":{"coordinates":[-107.86666,38.47021],"type":"Point"},"properties":{"kind":"stop","name":"315 S 12th St","stop_id":"2583193"},"type":"Feature"},{"geometry":{"coordinates":[-107.86643,38.46664],"type":"Point"},"properties":{"kind":"stop","name":"Townsend Ave. @ Poplar Rd.","stop_id":"2583194"},"type":"Feature"},{"geometry":{"coordinates":[-107.86641,38.46114],"type":"Point"},"properties":{"kind":"stop","name":"Townsend Ave. @ Division of Wildlife","stop_id":"2583195"},"type":"Feature"},{"geometry":{"coordinates":[-107.86635,38.45675],"type":"Point"},"properties":{"kind":"stop","name":"Townsend Ave @ Anderson Rd","stop_id":"2583196"},"type":"Feature"},{"geometry":{"coordinates":[-107.86644,38.45118],"type":"Point"},"properties":{"kind":"stop","name":"Townsend Ave. @ Ogden Rd.","stop_id":"2583197"},"type":"Feature"},{"geometry":{"coordinates":[-107.86738,38.44973],"type":"Point"},"properties":{"kind":"stop","name":"Hawk Parkway","stop_id":"2583198"},"type":"Feature"},{"geometry":{"coordinates":[-107.86924,38.44612],"type":"Point"},"properties":{"kind":"stop","name":"Petco","stop_id":"2583199"},"type":"Feature"},{"geometry":{"coordinates":[-107.87028,38.44529],"type":"Point"},"properties":{"kind":"stop","name":"Hobby Lobby","stop_id":"2583200"},"type":"Feature"},{"geometry":{"coordinates":[-107.86862,38.44389],"type":"Point"},"properties":{"kind":"stop","name":"Target (Bustang Connection)","stop_id":"2583201"},"type":"Feature"},{"geometry":{"coordinates":[-107.86416,38.4471],"type":"Point"},"properties":{"kind":"stop","name":"Oxbow @ Tower Bldg","stop_id":"2583202"},"type":"Feature"},{"geometry":{"coordinates":[-107.87452,38.47841],"type":"Point"},"properties":{"kind":"stop","name":"Montrose Transfer Point","stop_id":"2583203"},"type":"Feature"},{"geometry":{"coordinates":[-107.97884,38.60527],"type":"Point"},"properties":{"kind":"stop","name":"Lion's Park","stop_id":"2583204"},"type":"Feature"},{"geometry":{"coordinates":[-107.98323,38.60599],"type":"Point"},"properties":{"kind":"stop","name":"Horton @ Main St (River Valley Health Ctr.)","stop_id":"2583205"},"type":"Feature"},{"geometry":{"coordinates":[-107.98674,38.60621],"type":"Point"},"properties":{"kind":"stop","name":"Senior Center at 4th & Main St","stop_id":"2583206"},"type":"Feature"},{"geometry":{"coordinates":[-107.98538,38.60825],"type":"Point"},"properties":{"kind":"stop","name":"2nd St @ Church Ave","stop_id":"2583207"},"type":"Feature"},{"geometry":{"coordinates":[-107.98197,38.60918],"type":"Point"},"properties":{"kind":"stop","name":"1st St @ Roberts Ave","stop_id":"2583208"},"type":"Feature"},{"geometry":{"coordinates":[-107.98068,38.61088],"type":"Point"},"properties":{"kind":"stop","name":"Hwy 50 Business Loop @ N 3rd St","stop_id":"2583209"},"type":"Feature"},{"geometry":{"coordinates":[-107.98212,38.61346],"type":"Point"},"properties":{"kind":"stop","name":"Hwy 50 Business Loop @ Frontier","stop_id":"2583210"},"type":"Feature"},{"geometry":{"coordinates":[-108.57209,38.21773],"type":"Point"},"properties":{"kind":"stop","name":"Naturita - Visitors Center","stop_id":"2583211"},"type":"Feature"},{"geometry":{"coordinates":[-108.54665,38.26889],"type":"Point"},"properties":{"kind":"stop","name":"Nucla - Post Office","stop_id":"2583212"},"type":"Feature"},{"geometry":{"coordinates":[-108.29795,38.1293],"type":"Point"},"properties":{"kind":"stop","name":"Norwood - Uncompahgre Medical Clinic","stop_id":"2583213"},"type":"Feature"},{"geometry":{"coordinates":[-107.81644,37.93729],"type":"Point"},"properties":{"kind":"stop","name":"Telluride - Telluride Medical Clinic","stop_id":"2583214"},"type":"Feature"},{"geometry":{"coordinates":[-108.05291,38.01587],"type":"Point"},"properties":{"kind":"stop","name":"Placerville - Down Valley Park","stop_id":"2583215"},"type":"Feature"},{"geometry":{"coordinates":[-107.74758,38.15122],"type":"Point"},"properties":{"kind":"stop","name":"Ridgway / Ouray - Subway Restaurant","stop_id":"2583216"},"type":"Feature"},{"geometry":{"coordinates":[-107.86785,38.45607],"type":"Point"},"properties":{"kind":"stop","name":"Commercial Way at Nuvista","stop_id":"2615572"},"type":"Feature"},{"geometry":{"coordinates":[-107.86915,38.48453],"type":"Point"},"properties":{"kind":"stop","name":"Main St @ Pythian Ave","stop_id":"2730170"},"type":"Feature"},{"geometry":{"coordinates":[-107.86158,38.48806],"type":"Point"},"properties":{"kind":"stop","name":"E. Main St @ Arby's","stop_id":"2730173"},"type":"Feature"},{"geometry":{"coordinates":[-107.86819,38.48848],"type":"Point"},"properties":{"kind":"stop","name":"Cedar Ave @ KOA","stop_id":"2730176"},"type":"Feature"},{"geometry":{"coordinates":[-107.86993,38.48432],"type":"Point"},"properties":{"kind":"stop","name":"E Main St @ McDonalds","stop_id":"2730177"},"type":"Feature"},{"geometry":{"coordinates":[-107.87715,38.4766],"type":"Point"},"properties":{"kind":"stop","name":"South 2nd St @ City Market","stop_id":"2730179"},"type":"Feature"},{"geometry":{"coordinates":[-107.87435,38.47828],"type":"Point"},"properties":{"kind":"stop","name":"Montrose Transfer Point","stop_id":"2730191"},"type":"Feature"},{"geometry":{"coordinates":[-107.87661,38.47755],"type":"Point"},"properties":{"kind":"stop","name":"Townsend at S 1st St - City Market","stop_id":"4208673"},"type":"Feature"},{"geometry":{"coordinates":[-107.85158,38.4659],"type":"Point"},"properties":{"kind":"stop","name":"Pavilion Dr.","stop_id":"4208675"},"type":"Feature"},{"geometry":{"coordinates":[-107.85705,38.48609],"type":"Point"},"properties":{"kind":"stop","name":"Hillcrest @ Par Place","stop_id":"4208676"},"type":"Feature"},{"geometry":{"coordinates":[-108.06484,38.72855],"type":"Point"},"properties":{"kind":"stop","name":"Bluff @ Villa St.","stop_id":"4212337"},"type":"Feature"},{"geometry":{"coordinates":[-108.06926,38.74108],"type":"Point"},"properties":{"kind":"stop","name":"Downtown 5th & Meeker","stop_id":"4212338"},"type":"Feature"},{"geometry":{"coordinates":[-108.05506,38.75049],"type":"Point"},"properties":{"kind":"stop","name":"Circle Dr. River Valley/Walmart","stop_id":"4212339"},"type":"Feature"},{"geometry":{"coordinates":[-108.04774,38.74449],"type":"Point"},"properties":{"kind":"stop","name":"Delta Health","stop_id":"4212340"},"type":"Feature"},{"geometry":{"coordinates":[-108.03087,38.70211],"type":"Point"},"properties":{"kind":"stop","name":"Technical College of the Rockies","stop_id":"4212341"},"type":"Feature"},{"geometry":{"coordinates":[-107.86018,38.44902],"type":"Point"},"properties":{"kind":"stop","name":"Montrose Community Recreation Center","stop_id":"4230542"},"type":"Feature"},{"geometry":{"coordinates":[-107.8987,38.49984],"type":"Point"},"properties":{"kind":"stop","name":"Montrose Regional Airport","stop_id":"4230543"},"type":"Feature"},{"geometry":{"coordinates":[-107.75006,38.1513],"type":"Point"},"properties":{"kind":"stop","name":"Ridgway Fairgrounds","stop_id":"4244509"},"type":"Feature"},{"geometry":{"coordinates":[-107.67268,38.02954],"type":"Point"},"properties":{"kind":"stop","name":"Hot Springs","stop_id":"4244510"},"type":"Feature"},{"geometry":{"coordinates":[-107.67029,38.02288],"type":"Point"},"properties":{"kind":"stop","name":"Downtown Ouray","stop_id":"4244511"},"type":"Feature"},{"geometry":{"coordinates":[-107.74675,38.15104],"type":"Point"},"properties":{"kind":"stop","name":"Bustang Connection @ Palomino Trail","stop_id":"4244512"},"type":"Feature"},{"geometry":{"coordinates":[-107.86414,38.44996],"type":"Point"},"properties":{"kind":"stop","name":"Walmart","stop_id":"4244513"},"type":"Feature"},{"geometry":{"coordinates":[-107.86172,38.45335],"type":"Point"},"properties":{"kind":"stop","name":"Woodgate Apartments","stop_id":"4244514"},"type":"Feature"},{"geometry":{"coordinates":[-107.86519,38.46606],"type":"Point"},"properties":{"kind":"stop","name":"Montrose Dr. @ Dept. of Human Services","stop_id":"4244515"},"type":"Feature"},{"geometry":{"coordinates":[-107.85116,38.46632],"type":"Point"},"properties":{"kind":"stop","name":"Social Security Administration","stop_id":"4244517"},"type":"Feature"},{"geometry":{"coordinates":[-107.85753,38.48921],"type":"Point"},"properties":{"kind":"stop","name":"Boys and Girls Club","stop_id":"4244518"},"type":"Feature"},{"geometry":{"coordinates":[-107.87463,38.4895],"type":"Point"},"properties":{"kind":"stop","name":"Sunshine Peak Apartments","stop_id":"4244519"},"type":"Feature"},{"geometry":{"coordinates":[-107.88432,38.48652],"type":"Point"},"properties":{"kind":"stop","name":"Cascade & N 9th","stop_id":"4244520"},"type":"Feature"},{"geometry":{"coordinates":[-107.90308,38.48542],"type":"Point"},"properties":{"kind":"stop","name":"Marine Bend","stop_id":"4244521"},"type":"Feature"},{"geometry":{"coordinates":[-107.90125,38.48434],"type":"Point"},"properties":{"kind":"stop","name":"Northbrook Villas at 6360 Rd.","stop_id":"4244522"},"type":"Feature"},{"geometry":{"coordinates":[-107.8994,38.48282],"type":"Point"},"properties":{"kind":"stop","name":"Northbrook Villas @ Northbrook Ave.","stop_id":"4244523"},"type":"Feature"},{"geometry":{"coordinates":[-107.89399,38.47795],"type":"Point"},"properties":{"kind":"stop","name":"Northbrook Villas @ Indian Bend","stop_id":"4244524"},"type":"Feature"},{"geometry":{"coordinates":[-107.88473,38.47564],"type":"Point"},"properties":{"kind":"stop","name":"West Main","stop_id":"4244525"},"type":"Feature"},{"geometry":{"coordinates":[-107.87408,38.47051],"type":"Point"},"properties":{"kind":"stop","name":"Field House","stop_id":"4244526"},"type":"Feature"},{"geometry":{"coordinates":[-107.91546,38.50386],"type":"Point"},"properties":{"kind":"stop","name":"La Salle Rd","stop_id":"4244531"},"type":"Feature"},{"geometry":{"coordinates":[-108.06961,38.74108],"type":"Point"},"properties":{"kind":"stop","name":"Downtown 5th & Meeker","stop_id":"4244540"},"type":"Feature"},{"geometry":{"coordinates":[-108.05535,38.73788],"type":"Point"},"properties":{"kind":"stop","name":"Riley & 7th","stop_id":"4247147"},"type":"Feature"},{"geometry":{"coordinates":[-108.05071,38.73025],"type":"Point"},"properties":{"kind":"stop","name":"Delta High School","stop_id":"4247148"},"type":"Feature"},{"geometry":{"coordinates":[-108.06352,38.72733],"type":"Point"},"properties":{"kind":"stop","name":"Housing Authority","stop_id":"4247149"},"type":"Feature"},{"geometry":{"coordinates":[-108.0665,38.73685],"type":"Point"},"properties":{"kind":"stop","name":"Delta Family Center/Cleland Park","stop_id":"4247150"},"type":"Feature"},{"geometry":{"coordinates":[-108.07003,38.73917],"type":"Point"},"properties":{"kind":"stop","name":"Library","stop_id":"4247151"},"type":"Feature"},{"geometry":{"coordinates":[-108.07363,38.7397],"type":"Point"},"properties":{"kind":"stop","name":"Community Services/Court House","stop_id":"4247152"},"type":"Feature"},{"geometry":{"coordinates":[-108.07734,38.75018],"type":"Point"},"properties":{"kind":"stop","name":"Bill Heddles","stop_id":"4247153"},"type":"Feature"},{"geometry":{"coordinates":[-108.07192,38.74784],"type":"Point"},"properties":{"kind":"stop","name":"Dollar Tree","stop_id":"4247154"},"type":"Feature"},{"geometry":{"coordinates":[-108.07096,38.74949],"type":"Point"},"properties":{"kind":"stop","name":"City Market","stop_id":"4247155"},"type":"Feature"},{"geometry":{"coordinates":[-108.06826,38.75717],"type":"Point"},"properties":{"kind":"stop","name":"Alta Vista De La Montana Annas","stop_id":"4247156"},"type":"Feature"},{"geometry":{"coordinates":[-108.06962,38.74534],"type":"Point"},"properties":{"kind":"stop","name":"Salvation Army/Food Bank","stop_id":"4247157"},"type":"Feature"},{"geometry":{"coordinates":[-108.06007,38.74851],"type":"Point"},"properties":{"kind":"stop","name":"Crawford and Heinze","stop_id":"4247158"},"type":"Feature"},{"geometry":{"coordinates":[-108.04944,38.75401],"type":"Point"},"properties":{"kind":"stop","name":"Valley Sunset RV Park","stop_id":"4247159"},"type":"Feature"},{"geometry":{"coordinates":[-108.05236,38.75119],"type":"Point"},"properties":{"kind":"stop","name":"Safeway","stop_id":"4247160"},"type":"Feature"},{"geometry":{"coordinates":[-108.06963,38.74352],"type":"Point"},"properties":{"kind":"stop","name":"Senior Center","stop_id":"4247163"},"type":"Feature"}],"type":"FeatureCollection"}
