{"features":[{"geometry":{"coordinates":[[-118.22406,33.89795],[-118.22403,33.89597],[-118.2204,33.89597],[-118.22152,33.90351],[-118.23815,33.90336],[-118.23766,33.89594],[-118.25176,33.89582],[-118.2533,33.90226],[-118.25449,33.90544],[-118.2544,33.91637],[-118.23915,33.91622],[-118.23915,33.90729],[-118.23834,33.9053],[-118.23816,33.90326],[-118.22503,33.90326],[-118.22468,33.90062],[-118.22235,33.90068],[-118.22224,33.89814],[-118.22394,33.8979]],"type":"LineString"},"properties":{"color":"#F49022","color_name":"orange","kind":"route","label":"1","long":"1","route_id":"1","text_color":"#000000","type_label":"Bus"},"type":"Feature"},{"geometry":{"coordinates":[[-118.224,33.89798],[-118.22403,33.89597],[-118.22872,33.89593],[-118.22845,33.89205],[-118.22412,33.89219],[-118.22386,33.88858],[-118.24989,33.88847],[-118.25015,33.88835],[-118.24892,33.88327],[-118.24762,33.88363],[-118.2441,33.8836],[-118.23676,33.88395],[-118.23737,33.8928],[-118.23491,33.89286],[-118.23433,33.89246],[-118.23399,33.89137],[-118.23284,33.89065],[-118.2328,33.88853],[-118.22152,33.88861],[-118.22102,33.88119],[-118.21809,33.88124],[-118.21747,33.87664],[-118.21796,33.87581],[-118.21741,33.87414],[-118.21456,33.87418],[-118.21542,33.88011],[-118.21595,33.8886],[-118.22603,33.88858],[-118.22626,33.89216],[-118.22381,33.89227],[-118.22403,33.89597],[-118.22041,33.89597],[-118.22075,33.89844],[-118.22219,33.89831],[-118.22248,33.89807],[-118.22401,33.89798]],"type":"LineString"},"properties":{"color":"#F1CD10","color_name":"yellow","kind":"route","label":"2","long":"2","route_id":"2","text_color":"#000000","type_label":"Bus"},"type":"Feature"},{"geometry":{"coordinates":[[-118.22406,33.89795],[-118.22403,33.89597],[-118.2204,33.89598],[-118.22153,33.90347],[-118.22469,33.90337],[-118.22527,33.90488],[-118.23117,33.91621],[-118.22316,33.9162],[-118.21753,33.91682],[-118.21644,33.91003],[-118.21639,33.90963],[-118.21654,33.90962],[-118.21639,33.90963],[-118.21616,33.90823],[-118.21646,33.90699],[-118.21658,33.90713],[-118.21594,33.89833],[-118.20671,33.89832],[-118.20734,33.9073],[-118.20628,33.91108],[-118.20838,33.91164],[-118.20905,33.91157],[-118.20846,33.90351],[-118.2159,33.90345],[-118.21591,33.90375],[-118.2161,33.90375],[-118.21614,33.90357],[-118.2159,33.90345],[-118.21631,33.90345],[-118.21646,33.90699],[-118.21616,33.90823],[-118.21753,33.91682],[-118.22316,33.9162],[-118.22702,33.9162],[-118.225,33.90941],[-118.22516,33.90796],[-118.22478,33.90377],[-118.2243,33.90201],[-118.22421,33.90066],[-118.22235,33.90068],[-118.22222,33.89821],[-118.22404,33.89798]],"type":"LineString"},"properties":{"color":"#12A45D","color_name":"green","kind":"route","label":"3","long":"3","route_id":"3","text_color":"#000000","type_label":"Bus"},"type":"Feature"},{"geometry":{"coordinates":[[-118.224,33.89801],[-118.22401,33.89506],[-118.22356,33.8886],[-118.216,33.88853],[-118.2155,33.88122],[-118.20481,33.88135],[-118.20705,33.88868],[-118.19466,33.88876],[-118.19231,33.8886],[-118.19246,33.88872],[-118.18819,33.88904],[-118.18248,33.88905],[-118.18001,33.89255],[-118.18162,33.89254],[-118.18182,33.89633],[-118.20657,33.89601],[-118.20753,33.89601],[-118.20756,33.89621],[-118.20753,33.89601],[-118.22037,33.89596],[-118.22074,33.89844],[-118.22401,33.89798]],"type":"LineString"},"properties":{"color":"#1293C3","color_name":"teal","kind":"route","label":"4","long":"4","route_id":"4","text_color":"#000000","type_label":"Bus"},"type":"Feature"},{"geometry":{"coordinates":[[-118.22406,33.89795],[-118.22403,33.89597],[-118.20802,33.89601],[-118.20747,33.88986],[-118.20287,33.87434],[-118.21897,33.87425],[-118.2229,33.87466],[-118.22478,33.87457],[-118.22484,33.87651],[-118.22508,33.87652],[-118.24258,33.876],[-118.24458,33.8757],[-118.24867,33.87558],[-118.24888,33.87508],[-118.24869,33.87399],[-118.24875,33.86753],[-118.25753,33.86724],[-118.2575,33.86685],[-118.25221,33.86705],[-118.25221,33.86734],[-118.2486,33.8675],[-118.24871,33.88257],[-118.24989,33.88781],[-118.24978,33.88791],[-118.25317,33.90174],[-118.25449,33.90544],[-118.2544,33.91637],[-118.23902,33.91618],[-118.23901,33.92329],[-118.24113,33.92318],[-118.24101,33.92278],[-118.24075,33.92322],[-118.23916,33.92324],[-118.23915,33.91622],[-118.23167,33.91616],[-118.2257,33.90488],[-118.22504,33.9033],[-118.22255,33.90317],[-118.22227,33.89813],[-118.22406,33.89795]],"type":"LineString"},"properties":{"color":"#913D91","color_name":"purple","kind":"route","label":"5","long":"5","route_id":"5","text_color":"#000000","type_label":"Bus"},"type":"Feature"},{"geometry":{"coordinates":[-118.25233,33.89851],"type":"Point"},"properties":{"kind":"stop","name":"Adult School","stop_id":"2619876"},"type":"Feature"},{"geometry":{"coordinates":[-118.2543,33.9161],"type":"Point"},"properties":{"kind":"stop","name":"Central Ave & El Segundo Blvd","stop_id":"2619877"},"type":"Feature"},{"geometry":{"coordinates":[-118.23925,33.91375],"type":"Point"},"properties":{"kind":"stop","name":"Wilmington Ave & 130th St","stop_id":"2619878"},"type":"Feature"},{"geometry":{"coordinates":[-118.23924,33.90878],"type":"Point"},"properties":{"kind":"stop","name":"Wilmington Ave & Stockwell St","stop_id":"2619879"},"type":"Feature"},{"geometry":{"coordinates":[-118.23876,33.90606],"type":"Point"},"properties":{"kind":"stop","name":"Wilmington Ave & 139th St","stop_id":"2619880"},"type":"Feature"},{"geometry":{"coordinates":[-118.23767,33.90321],"type":"Point"},"properties":{"kind":"stop","name":"Rosecrans Ave & Wilmington Ave","stop_id":"2619882"},"type":"Feature"},{"geometry":{"coordinates":[-118.23447,33.9032],"type":"Point"},"properties":{"kind":"stop","name":"Rosecrans Ave & Matthisen Ave EB","stop_id":"2619883"},"type":"Feature"},{"geometry":{"coordinates":[-118.23197,33.9032],"type":"Point"},"properties":{"kind":"stop","name":"Rosecrans Ave & Aranbe Ave","stop_id":"2619884"},"type":"Feature"},{"geometry":{"coordinates":[-118.23017,33.9032],"type":"Point"},"properties":{"kind":"stop","name":"W Rosecrans Ave & N Oleander Ave EB","stop_id":"2619885"},"type":"Feature"},{"geometry":{"coordinates":[-118.22745,33.9032],"type":"Point"},"properties":{"kind":"stop","name":"E Rosecrans Ave & N Acacia Ave EB","stop_id":"2619886"},"type":"Feature"},{"geometry":{"coordinates":[-118.2252,33.9032],"type":"Point"},"properties":{"kind":"stop","name":"E Rosecrans Ave & N Willowbrook Ave EB","stop_id":"2619888"},"type":"Feature"},{"geometry":{"coordinates":[-118.2241,33.89805],"type":"Point"},"properties":{"kind":"stop","name":"MLK Transit Center","stop_id":"2619890"},"type":"Feature"},{"geometry":{"coordinates":[-118.22308,33.89583],"type":"Point"},"properties":{"kind":"stop","name":"E Compton Blvd & South Willowbrook Ave","stop_id":"2619891"},"type":"Feature"},{"geometry":{"coordinates":[-118.22551,33.90342],"type":"Point"},"properties":{"kind":"stop","name":"E Rosecrans Ave & N Willowbrook Ave WB","stop_id":"2619895"},"type":"Feature"},{"geometry":{"coordinates":[-118.22743,33.90342],"type":"Point"},"properties":{"kind":"stop","name":"E Rosecrans Ave & N Acacia Ave WB","stop_id":"2619897"},"type":"Feature"},{"geometry":{"coordinates":[-118.22981,33.90342],"type":"Point"},"properties":{"kind":"stop","name":"E Rosecrans Ave & N Oleander Ave WB","stop_id":"2619900"},"type":"Feature"},{"geometry":{"coordinates":[-118.23422,33.90342],"type":"Point"},"properties":{"kind":"stop","name":"W Rosecrans Ave & N Matthisen Ave WB","stop_id":"2619901"},"type":"Feature"},{"geometry":{"coordinates":[-118.23821,33.90301],"type":"Point"},"properties":{"kind":"stop","name":"N Wilmington Ave & W Rosecrans Ave","stop_id":"2619902"},"type":"Feature"},{"geometry":{"coordinates":[-118.23802,33.90014],"type":"Point"},"properties":{"kind":"stop","name":"N Wilmington Ave & W Poplar St","stop_id":"2619903"},"type":"Feature"},{"geometry":{"coordinates":[-118.23775,33.8961],"type":"Point"},"properties":{"kind":"stop","name":"S Wilmington Ave & W Compton Blvd","stop_id":"2619904"},"type":"Feature"},{"geometry":{"coordinates":[-118.24621,33.89594],"type":"Point"},"properties":{"kind":"stop","name":"W Compton Blvd & N Tajauta Ave","stop_id":"2619905"},"type":"Feature"},{"geometry":{"coordinates":[-118.24864,33.89593],"type":"Point"},"properties":{"kind":"stop","name":"W Compton Blvd & N Nestor Ave","stop_id":"2619906"},"type":"Feature"},{"geometry":{"coordinates":[-118.2518,33.89621],"type":"Point"},"properties":{"kind":"stop","name":"Central Ave & W Compton Blvd","stop_id":"2619907"},"type":"Feature"},{"geometry":{"coordinates":[-118.25334,33.90257],"type":"Point"},"properties":{"kind":"stop","name":"Central Ave & W Rosecrans Ave","stop_id":"2619909"},"type":"Feature"},{"geometry":{"coordinates":[-118.25438,33.90853],"type":"Point"},"properties":{"kind":"stop","name":"S Central Ave & W Piru St","stop_id":"2621551"},"type":"Feature"},{"geometry":{"coordinates":[-118.24822,33.91614],"type":"Point"},"properties":{"kind":"stop","name":"Ronald McNair Elementary School","stop_id":"2621552"},"type":"Feature"},{"geometry":{"coordinates":[-118.24574,33.91611],"type":"Point"},"properties":{"kind":"stop","name":"W El Segundo Blvd & N Compton Ave","stop_id":"2621554"},"type":"Feature"},{"geometry":{"coordinates":[-118.2434,33.91612],"type":"Point"},"properties":{"kind":"stop","name":"W El Segundo Blvd & N Grandee Ave","stop_id":"2621555"},"type":"Feature"},{"geometry":{"coordinates":[-118.23204,33.91609],"type":"Point"},"properties":{"kind":"stop","name":"W El Segundo Blvd & S Willowbrook Ave","stop_id":"2621556"},"type":"Feature"},{"geometry":{"coordinates":[-118.22814,33.892],"type":"Point"},"properties":{"kind":"stop","name":"Compton High School","stop_id":"2622449"},"type":"Feature"},{"geometry":{"coordinates":[-118.228,33.88868],"type":"Point"},"properties":{"kind":"stop","name":"W Alondra Blvd & S Oleander Ave WB","stop_id":"2622450"},"type":"Feature"},{"geometry":{"coordinates":[-118.23255,33.88865],"type":"Point"},"properties":{"kind":"stop","name":"W Alondra Blvd & S Center Ave WB","stop_id":"2622451"},"type":"Feature"},{"geometry":{"coordinates":[-118.23682,33.88864],"type":"Point"},"properties":{"kind":"stop","name":"W Alondra Blvd & W Wilmington Ave WB","stop_id":"2622452"},"type":"Feature"},{"geometry":{"coordinates":[-118.25002,33.88756],"type":"Point"},"properties":{"kind":"stop","name":"Central Ave & W Alondra Blvd SB","stop_id":"2622453"},"type":"Feature"},{"geometry":{"coordinates":[-118.24089,33.88369],"type":"Point"},"properties":{"kind":"stop","name":"W Caldwell St & S Dwight Ave","stop_id":"2622454"},"type":"Feature"},{"geometry":{"coordinates":[-118.23672,33.88433],"type":"Point"},"properties":{"kind":"stop","name":"S Wilmington Ave & W Caldwell St","stop_id":"2622455"},"type":"Feature"},{"geometry":{"coordinates":[-118.23246,33.88842],"type":"Point"},"properties":{"kind":"stop","name":"W Alondra Blvd & S Center Ave EB","stop_id":"2622456"},"type":"Feature"},{"geometry":{"coordinates":[-118.22791,33.88847],"type":"Point"},"properties":{"kind":"stop","name":"W Alondra Blvd & S Oleander Ave EB","stop_id":"2622457"},"type":"Feature"},{"geometry":{"coordinates":[-118.22621,33.88848],"type":"Point"},"properties":{"kind":"stop","name":"W Alondra Blvd & S Acacia Ave EB","stop_id":"2622458"},"type":"Feature"},{"geometry":{"coordinates":[-118.22174,33.8885],"type":"Point"},"properties":{"kind":"stop","name":"E Alondra Blvd & S Tamarind Ave EB","stop_id":"2622459"},"type":"Feature"},{"geometry":{"coordinates":[-118.23699,33.88895],"type":"Point"},"properties":{"kind":"stop","name":"S Wilmington Ave & W Alondra Blvd NB","stop_id":"2622460"},"type":"Feature"},{"geometry":{"coordinates":[-118.23724,33.89263],"type":"Point"},"properties":{"kind":"stop","name":"S Wilmington Ave & W Laurel St","stop_id":"2622461"},"type":"Feature"},{"geometry":{"coordinates":[-118.23291,33.88996],"type":"Point"},"properties":{"kind":"stop","name":"S Center Ave & W Cypress St","stop_id":"2622462"},"type":"Feature"},{"geometry":{"coordinates":[-118.22135,33.88477],"type":"Point"},"properties":{"kind":"stop","name":"S Tamarind Ave & E Caldwell St","stop_id":"2622463"},"type":"Feature"},{"geometry":{"coordinates":[-118.22073,33.88114],"type":"Point"},"properties":{"kind":"stop","name":"E Greenleaf Blvd & S Tamarind Ave","stop_id":"2622464"},"type":"Feature"},{"geometry":{"coordinates":[-118.21858,33.88115],"type":"Point"},"properties":{"kind":"stop","name":"E Greenleaf Blvd & S Alameda St","stop_id":"2622465"},"type":"Feature"},{"geometry":{"coordinates":[-118.21784,33.87871],"type":"Point"},"properties":{"kind":"stop","name":"Gateway Shopping Center","stop_id":"2622466"},"type":"Feature"},{"geometry":{"coordinates":[-118.21449,33.87467],"type":"Point"},"properties":{"kind":"stop","name":"Compton College & DMV","stop_id":"2622467"},"type":"Feature"},{"geometry":{"coordinates":[-118.22378,33.89273],"type":"Point"},"properties":{"kind":"stop","name":"W Willowbrook Ave & W Myrrh St","stop_id":"2622468"},"type":"Feature"},{"geometry":{"coordinates":[-118.22144,33.89583],"type":"Point"},"properties":{"kind":"stop","name":"E Compton Blvd & Douglas Dollarhide","stop_id":"2622469"},"type":"Feature"},{"geometry":{"coordinates":[-118.22586,33.89205],"type":"Point"},"properties":{"kind":"stop","name":"W Myrrh St & S Acacia Ave","stop_id":"2622470"},"type":"Feature"},{"geometry":{"coordinates":[-118.22139,33.88871],"type":"Point"},"properties":{"kind":"stop","name":"E Alondra Blvd & S Tamarind Ave WB","stop_id":"2622471"},"type":"Feature"},{"geometry":{"coordinates":[-118.21642,33.8885],"type":"Point"},"properties":{"kind":"stop","name":"E Alondra Blvd & Santa Fe Ave","stop_id":"2622473"},"type":"Feature"},{"geometry":{"coordinates":[-118.21502,33.88119],"type":"Point"},"properties":{"kind":"stop","name":"E Greenleaf Blvd & S Tartar Ln","stop_id":"2622474"},"type":"Feature"},{"geometry":{"coordinates":[-118.20492,33.88191],"type":"Point"},"properties":{"kind":"stop","name":"Long Beach Blvd & E Greenleaf Blvd","stop_id":"2622475"},"type":"Feature"},{"geometry":{"coordinates":[-118.20618,33.88614],"type":"Point"},"properties":{"kind":"stop","name":"Long Beach Blvd & E Marcelle St","stop_id":"2622476"},"type":"Feature"},{"geometry":{"coordinates":[-118.20663,33.88858],"type":"Point"},"properties":{"kind":"stop","name":"E Alondra Blvd & S Long Beach Blvd","stop_id":"2623627"},"type":"Feature"},{"geometry":{"coordinates":[-118.20326,33.8886],"type":"Point"},"properties":{"kind":"stop","name":"E Alondra Blvd & S Bradfield Ave","stop_id":"2623628"},"type":"Feature"},{"geometry":{"coordinates":[-118.20124,33.88861],"type":"Point"},"properties":{"kind":"stop","name":"E Alondra Blvd & S Muriel Ave","stop_id":"2623629"},"type":"Feature"},{"geometry":{"coordinates":[-118.19851,33.88863],"type":"Point"},"properties":{"kind":"stop","name":"E Alondra Blvd & S Harris Ave","stop_id":"2623630"},"type":"Feature"},{"geometry":{"coordinates":[-118.19434,33.88865],"type":"Point"},"properties":{"kind":"stop","name":"E Alondra Blvd & S White Ave","stop_id":"2623631"},"type":"Feature"},{"geometry":{"coordinates":[-118.1923,33.88866],"type":"Point"},"properties":{"kind":"stop","name":"E Alondra Blvd & Atlantic Ave","stop_id":"2623632"},"type":"Feature"},{"geometry":{"coordinates":[-118.18149,33.89261],"type":"Point"},"properties":{"kind":"stop","name":"Myrrh St & S San Jose Ave","stop_id":"2623633"},"type":"Feature"},{"geometry":{"coordinates":[-118.18175,33.89593],"type":"Point"},"properties":{"kind":"stop","name":"San Jose Ave & Somerset Blvd","stop_id":"2623634"},"type":"Feature"},{"geometry":{"coordinates":[-118.18884,33.89632],"type":"Point"},"properties":{"kind":"stop","name":"E Compton Blvd & S Gibson Ave","stop_id":"2623635"},"type":"Feature"},{"geometry":{"coordinates":[-118.19393,33.89626],"type":"Point"},"properties":{"kind":"stop","name":"E Compton Blvd & Atlantic Ave","stop_id":"2623636"},"type":"Feature"},{"geometry":{"coordinates":[-118.19652,33.89624],"type":"Point"},"properties":{"kind":"stop","name":"E Compton Blvd & S Castlegate Ave","stop_id":"2623637"},"type":"Feature"},{"geometry":{"coordinates":[-118.19875,33.89621],"type":"Point"},"properties":{"kind":"stop","name":"E Compton Blvd & Harris Ave","stop_id":"2623639"},"type":"Feature"},{"geometry":{"coordinates":[-118.20767,33.89614],"type":"Point"},"properties":{"kind":"stop","name":"E Compton Blvd & N Long Beach Road","stop_id":"2623640"},"type":"Feature"},{"geometry":{"coordinates":[-118.21292,33.89614],"type":"Point"},"properties":{"kind":"stop","name":"E Compton Blvd & N Mayo Ave WB","stop_id":"2623641"},"type":"Feature"},{"geometry":{"coordinates":[-118.21616,33.89613],"type":"Point"},"properties":{"kind":"stop","name":"E Compton Blvd & Santa Fe Ave WB","stop_id":"2623643"},"type":"Feature"},{"geometry":{"coordinates":[-118.21829,33.89612],"type":"Point"},"properties":{"kind":"stop","name":"E Compton Blvd & N Spring St","stop_id":"2623644"},"type":"Feature"},{"geometry":{"coordinates":[-118.21945,33.89588],"type":"Point"},"properties":{"kind":"stop","name":"E Compton Blvd & S Alameda St","stop_id":"2623647"},"type":"Feature"},{"geometry":{"coordinates":[-118.21606,33.89589],"type":"Point"},"properties":{"kind":"stop","name":"E Compton Blvd & Santa Fe Ave EB","stop_id":"2623648"},"type":"Feature"},{"geometry":{"coordinates":[-118.21235,33.8959],"type":"Point"},"properties":{"kind":"stop","name":"E Compton Blvd & S Mayo Dr EB","stop_id":"2623649"},"type":"Feature"},{"geometry":{"coordinates":[-118.20807,33.89562],"type":"Point"},"properties":{"kind":"stop","name":"S Long Beach Blvd & E Compton Blvd","stop_id":"2623650"},"type":"Feature"},{"geometry":{"coordinates":[-118.2073,33.88899],"type":"Point"},"properties":{"kind":"stop","name":"S Long Beach Blvd & E Alondra Blvd","stop_id":"2623651"},"type":"Feature"},{"geometry":{"coordinates":[-118.20651,33.88638],"type":"Point"},"properties":{"kind":"stop","name":"S Long Beach Blvd & S Temple Ave","stop_id":"2623652"},"type":"Feature"},{"geometry":{"coordinates":[-118.20543,33.8828],"type":"Point"},"properties":{"kind":"stop","name":"S Long Beach Blvd & E Bennett St","stop_id":"2623653"},"type":"Feature"},{"geometry":{"coordinates":[-118.21428,33.87438],"type":"Point"},"properties":{"kind":"stop","name":"E Artesia Blvd & Santa Fe Ave","stop_id":"2623654"},"type":"Feature"},{"geometry":{"coordinates":[-118.22475,33.87614],"type":"Point"},"properties":{"kind":"stop","name":"Artesia Station","stop_id":"2623655"},"type":"Feature"},{"geometry":{"coordinates":[-118.22734,33.8765],"type":"Point"},"properties":{"kind":"stop","name":"W Walnut St @ Geodis","stop_id":"2623656"},"type":"Feature"},{"geometry":{"coordinates":[-118.23553,33.87625],"type":"Point"},"properties":{"kind":"stop","name":"W Walnut St & S Wilmington Ave","stop_id":"2623657"},"type":"Feature"},{"geometry":{"coordinates":[-118.24023,33.87612],"type":"Point"},"properties":{"kind":"stop","name":"W Walnut St @ Fire Station 4","stop_id":"2623658"},"type":"Feature"},{"geometry":{"coordinates":[-118.24888,33.875],"type":"Point"},"properties":{"kind":"stop","name":"S Central Ave & E Walnut St SB","stop_id":"2623659"},"type":"Feature"},{"geometry":{"coordinates":[-118.24885,33.87308],"type":"Point"},"properties":{"kind":"stop","name":"Central Ave & E Albertoni St","stop_id":"2623660"},"type":"Feature"},{"geometry":{"coordinates":[-118.24884,33.87076],"type":"Point"},"properties":{"kind":"stop","name":"Central Ave & E Radbard St","stop_id":"2623661"},"type":"Feature"},{"geometry":{"coordinates":[-118.24886,33.8679],"type":"Point"},"properties":{"kind":"stop","name":"Central Ave & E Victoria St","stop_id":"2623662"},"type":"Feature"},{"geometry":{"coordinates":[-118.25509,33.86684],"type":"Point"},"properties":{"kind":"stop","name":"CSUDH","stop_id":"2623663"},"type":"Feature"},{"geometry":{"coordinates":[-118.24862,33.88025],"type":"Point"},"properties":{"kind":"stop","name":"Central Ave & W Greenleaf Blvd","stop_id":"2623664"},"type":"Feature"},{"geometry":{"coordinates":[-118.24879,33.88351],"type":"Point"},"properties":{"kind":"stop","name":"Central Ave & W Caldwell St","stop_id":"2623665"},"type":"Feature"},{"geometry":{"coordinates":[-118.24986,33.88805],"type":"Point"},"properties":{"kind":"stop","name":"Central Ave & W Alondra Blvd NB","stop_id":"2623666"},"type":"Feature"},{"geometry":{"coordinates":[-118.23936,33.91611],"type":"Point"},"properties":{"kind":"stop","name":"W El Segundo Blvd & S Wilmington Ave","stop_id":"2623667"},"type":"Feature"},{"geometry":{"coordinates":[-118.23895,33.91664],"type":"Point"},"properties":{"kind":"stop","name":"N Wilmington Ave & W El Segundo Blvd NB","stop_id":"2623668"},"type":"Feature"},{"geometry":{"coordinates":[-118.23895,33.92148],"type":"Point"},"properties":{"kind":"stop","name":"Wilmington Ave & E 122nd St","stop_id":"2623669"},"type":"Feature"},{"geometry":{"coordinates":[-118.24117,33.92327],"type":"Point"},"properties":{"kind":"stop","name":"MLK Jr. Community Hospital","stop_id":"2623670"},"type":"Feature"},{"geometry":{"coordinates":[-118.23929,33.92288],"type":"Point"},"properties":{"kind":"stop","name":"Wilmington Ave & E 120th St","stop_id":"2623671"},"type":"Feature"},{"geometry":{"coordinates":[-118.23924,33.91959],"type":"Point"},"properties":{"kind":"stop","name":"S Wilmington Ave & E 124th St","stop_id":"2623672"},"type":"Feature"},{"geometry":{"coordinates":[-118.23059,33.91396],"type":"Point"},"properties":{"kind":"stop","name":"S Willowbrook Ae & E Wayside St","stop_id":"2623673"},"type":"Feature"},{"geometry":{"coordinates":[-118.22865,33.91032],"type":"Point"},"properties":{"kind":"stop","name":"S Willowbrook Ave & E Piru St","stop_id":"2623674"},"type":"Feature"},{"geometry":{"coordinates":[-118.22711,33.90737],"type":"Point"},"properties":{"kind":"stop","name":"N Willowbrook Ave & W Winona Ave","stop_id":"2623675"},"type":"Feature"},{"geometry":{"coordinates":[-118.24858,33.87583],"type":"Point"},"properties":{"kind":"stop","name":"S Central Ave & E Walnut St NB","stop_id":"2623676"},"type":"Feature"},{"geometry":{"coordinates":[-118.22262,33.91619],"type":"Point"},"properties":{"kind":"stop","name":"E El Segundo Blvd & N Alameda St EB","stop_id":"2623706"},"type":"Feature"},{"geometry":{"coordinates":[-118.21972,33.91652],"type":"Point"},"properties":{"kind":"stop","name":"E El Segundo Blvd @ 503 East","stop_id":"2623707"},"type":"Feature"},{"geometry":{"coordinates":[-118.218,33.91671],"type":"Point"},"properties":{"kind":"stop","name":"E El Segundo Blvd & Santa Fe Ave EB","stop_id":"2623708"},"type":"Feature"},{"geometry":{"coordinates":[-118.21731,33.9147],"type":"Point"},"properties":{"kind":"stop","name":"Santa Fe Ave & E Carlin Ave SB","stop_id":"2623709"},"type":"Feature"},{"geometry":{"coordinates":[-118.21685,33.91159],"type":"Point"},"properties":{"kind":"stop","name":"Santa Fe Ave & E Pine St SB","stop_id":"2623710"},"type":"Feature"},{"geometry":{"coordinates":[-118.21655,33.90973],"type":"Point"},"properties":{"kind":"stop","name":"Santa Fe Ave & E Oaks St SB","stop_id":"2623711"},"type":"Feature"},{"geometry":{"coordinates":[-118.21661,33.90712],"type":"Point"},"properties":{"kind":"stop","name":"Santa Fe Ave & E Tucker St SB","stop_id":"2623712"},"type":"Feature"},{"geometry":{"coordinates":[-118.21565,33.89824],"type":"Point"},"properties":{"kind":"stop","name":"E Palmer St & Santa Fe Ave","stop_id":"2623713"},"type":"Feature"},{"geometry":{"coordinates":[-118.2126,33.89825],"type":"Point"},"properties":{"kind":"stop","name":"E Palmer St & N Mayo Ave","stop_id":"2623714"},"type":"Feature"},{"geometry":{"coordinates":[-118.21046,33.89826],"type":"Point"},"properties":{"kind":"stop","name":"E Palmer St & N Sloan Ave","stop_id":"2623715"},"type":"Feature"},{"geometry":{"coordinates":[-118.20855,33.89827],"type":"Point"},"properties":{"kind":"stop","name":"E Palmer St & N Long Beach Blvd","stop_id":"2623716"},"type":"Feature"},{"geometry":{"coordinates":[-118.20677,33.90025],"type":"Point"},"properties":{"kind":"stop","name":"Compton Career Link","stop_id":"2623717"},"type":"Feature"},{"geometry":{"coordinates":[-118.20703,33.90421],"type":"Point"},"properties":{"kind":"stop","name":"N Bullis Rd & E Kay St","stop_id":"2623718"},"type":"Feature"},{"geometry":{"coordinates":[-118.20891,33.90356],"type":"Point"},"properties":{"kind":"stop","name":"E Rosecrans Ave & N Long Beach Blvd","stop_id":"2623719"},"type":"Feature"},{"geometry":{"coordinates":[-118.21347,33.90352],"type":"Point"},"properties":{"kind":"stop","name":"E Rosecrans Ave & N Van Ness Ave","stop_id":"2623721"},"type":"Feature"},{"geometry":{"coordinates":[-118.21603,33.9035],"type":"Point"},"properties":{"kind":"stop","name":"E Rosecrans Ave & Santa Fe Ave","stop_id":"2623724"},"type":"Feature"},{"geometry":{"coordinates":[-118.21629,33.90721],"type":"Point"},"properties":{"kind":"stop","name":"Santa Fe Ave & E Tucker St NB","stop_id":"2623733"},"type":"Feature"},{"geometry":{"coordinates":[-118.21624,33.9095],"type":"Point"},"properties":{"kind":"stop","name":"Santa Fe Ave & E Oaks St NB","stop_id":"2623734"},"type":"Feature"},{"geometry":{"coordinates":[-118.21652,33.91128],"type":"Point"},"properties":{"kind":"stop","name":"Santa Fe Ave & E Pine St NB","stop_id":"2623735"},"type":"Feature"},{"geometry":{"coordinates":[-118.21718,33.91524],"type":"Point"},"properties":{"kind":"stop","name":"Santa Fe Ave & Carlin Ave NB","stop_id":"2623736"},"type":"Feature"},{"geometry":{"coordinates":[-118.21831,33.9168],"type":"Point"},"properties":{"kind":"stop","name":"El Segundo Blvd & Santa Fe Ave WB","stop_id":"2623737"},"type":"Feature"},{"geometry":{"coordinates":[-118.22564,33.91136],"type":"Point"},"properties":{"kind":"stop","name":"S Mona Blvd & E Stockwell St","stop_id":"2623738"},"type":"Feature"},{"geometry":{"coordinates":[-118.22699,33.91594],"type":"Point"},"properties":{"kind":"stop","name":"S Mona Blvd & E El Segundo Blvd","stop_id":"2623739"},"type":"Feature"},{"geometry":{"coordinates":[-118.20818,33.91164],"type":"Point"},"properties":{"kind":"stop","name":"Fashion Center","stop_id":"2623740"},"type":"Feature"},{"geometry":{"coordinates":[-118.20874,33.87459],"type":"Point"},"properties":{"kind":"stop","name":"College Drive","stop_id":"2623743"},"type":"Feature"}],"type":"FeatureCollection"}
