{"features":[{"geometry":{"coordinates":[[-74.1229,41.012],[-74.12292,41.01172],[-74.11988,41.01122],[-74.11919,41.00923],[-74.11453,41.00517],[-74.1128,41.00176],[-74.11175,40.99892],[-74.11308,40.99787],[-74.11305,40.99716],[-74.11224,40.99635],[-74.11052,40.99604],[-74.11162,40.99296],[-74.11241,40.9914],[-74.11251,40.99066],[-74.11428,40.99076],[-74.11478,40.98949],[-74.11535,40.98699],[-74.11609,40.98541],[-74.11762,40.98097],[-74.12086,40.98163],[-74.12159,40.98053],[-74.12157,40.98018],[-74.12124,40.98016],[-74.12075,40.98094],[-74.12096,40.98104],[-74.1207,40.98146],[-74.12131,40.98041],[-74.12112,40.98029],[-74.12157,40.98018],[-74.12091,40.98153],[-74.11982,40.98139],[-74.12045,40.97977],[-74.118,40.97954],[-74.11321,40.97861],[-74.10985,40.97755],[-74.10529,40.97659],[-74.10291,40.97575],[-74.09749,40.97457],[-74.09094,40.97211],[-74.08336,40.96969],[-74.0811,40.96917],[-74.07952,40.96902],[-74.07865,40.96769],[-74.0738,40.95574],[-74.07276,40.95221],[-74.07234,40.94969],[-74.07062,40.93118],[-74.07079,40.92777],[-74.0715,40.92403],[-74.07249,40.92018],[-74.07273,40.91746],[-74.07255,40.91543],[-74.07104,40.9121],[-74.07076,40.90983],[-74.07327,40.89877],[-74.07326,40.8975],[-74.0727,40.8959],[-74.06418,40.87685],[-74.06374,40.8749],[-74.06354,40.86987],[-74.06436,40.86698],[-74.06463,40.86384],[-74.06555,40.86205],[-74.0673,40.85967],[-74.06908,40.85774],[-74.07333,40.85243],[-74.07802,40.84565],[-74.0824,40.84135],[-74.08505,40.83655],[-74.09697,40.82488],[-74.10074,40.82104],[-74.1013,40.82026],[-74.10254,40.81713],[-74.1028,40.81538],[-74.10252,40.81323],[-74.10137,40.80977],[-74.10076,40.80928],[-74.09988,40.80914],[-74.09927,40.80928],[-74.09772,40.81015],[-74.09001,40.81095],[-74.08682,40.81089],[-74.0843,40.81041],[-74.08206,40.80965],[-74.07669,40.80705],[-74.07523,40.80599],[-74.07385,40.80459],[-74.07194,40.80125],[-74.0705,40.79976],[-74.06676,40.79756],[-74.06205,40.79612],[-74.05965,40.79501],[-74.0517,40.78948],[-74.05019,40.78818],[-74.04908,40.78686],[-74.04817,40.78525],[-74.047,40.78148],[-74.04717,40.7799],[-74.04594,40.77828],[-74.04553,40.77718],[-74.04548,40.77668],[-74.04564,40.77641],[-74.04599,40.77625],[-74.04647,40.77633],[-74.04665,40.77673],[-74.04625,40.77709],[-74.04418,40.77698],[-74.03742,40.77465],[-74.03428,40.77347],[-74.02949,40.77115],[-74.02609,40.76976],[-74.02192,40.76758],[-74.02179,40.76683],[-74.02234,40.76551],[-74.02364,40.76402],[-74.0251,40.76271],[-74.02526,40.76275],[-74.02539,40.76292],[-74.02363,40.76435],[-74.02353,40.76493],[-74.02243,40.7663],[-74.02133,40.76677],[-74.02028,40.76675],[-73.99756,40.75726],[-73.99547,40.75686],[-73.99394,40.75898],[-73.97447,40.75077],[-73.97306,40.7527],[-73.97697,40.75435],[-73.97785,40.75314],[-73.97878,40.75349],[-73.97741,40.75536],[-73.97651,40.75499],[-73.97607,40.7556],[-73.97696,40.75599],[-73.97468,40.75911],[-73.97298,40.75841],[-73.97067,40.76158],[-73.97236,40.7623],[-73.96776,40.7686],[-73.96936,40.76928],[-73.97028,40.76803],[-73.96697,40.76664],[-73.96425,40.77032],[-73.9659,40.7711]],"type":"LineString"},"properties":{"color":"#EAE75B","color_name":"yellow","kind":"route","label":"BB Midtown","long":"Bergen Bullet (Midtown)","route_id":"bergen_bullet_midtown","text_color":"#000000","type_label":"Bus"},"type":"Feature"},{"geometry":{"coordinates":[[-74.29827,40.85233],[-74.29782,40.85304],[-74.29533,40.85234],[-74.29249,40.85025],[-74.29179,40.84917],[-74.29192,40.84889],[-74.28927,40.84645],[-74.28749,40.84579],[-74.28757,40.84565],[-74.28727,40.84553],[-74.28711,40.84578],[-74.28449,40.84536],[-74.28356,40.84505],[-74.28027,40.84181],[-74.27654,40.84012],[-74.27098,40.83594],[-74.25085,40.83402],[-74.24386,40.83094],[-74.24074,40.82877],[-74.23483,40.82623],[-74.23141,40.82535],[-74.23142,40.82493],[-74.2307,40.82519],[-74.22875,40.82513],[-74.22798,40.82493],[-74.227,40.82405],[-74.22455,40.81942],[-74.2191,40.81509],[-74.21478,40.81964],[-74.21073,40.82441],[-74.20731,40.82912],[-74.20718,40.83017],[-74.20731,40.8309],[-74.20748,40.83099],[-74.20807,40.83038],[-74.21021,40.83147],[-74.20685,40.83472],[-74.2066,40.83522],[-74.20673,40.83714],[-74.20755,40.83882],[-74.20809,40.84114],[-74.19555,40.83855],[-74.19452,40.84234],[-74.1942,40.84839],[-74.19424,40.85105],[-74.194,40.85167],[-74.19562,40.85265],[-74.19324,40.85623],[-74.19268,40.85602],[-74.1949,40.85276],[-74.19544,40.85299],[-74.19562,40.85265],[-74.194,40.85167],[-74.19147,40.85509],[-74.19104,40.85492],[-74.1914,40.85365],[-74.19124,40.85358],[-74.19098,40.85523],[-74.19113,40.85541],[-74.19038,40.85614],[-74.18881,40.8583],[-74.18849,40.85823],[-74.18782,40.85926],[-74.18799,40.85945],[-74.18647,40.8617],[-74.18287,40.86481],[-74.1824,40.8649],[-74.18177,40.86418],[-74.18118,40.86304],[-74.18082,40.86202],[-74.18037,40.85901],[-74.17977,40.85747],[-74.17895,40.85618],[-74.16908,40.84542],[-74.16592,40.84285],[-74.16383,40.84166],[-74.14995,40.83501],[-74.12585,40.82389],[-74.12251,40.8221],[-74.11608,40.81808],[-74.11135,40.81542],[-74.10199,40.81117],[-74.09982,40.81055],[-74.09752,40.81031],[-74.08955,40.81098],[-74.08597,40.81077],[-74.08206,40.80965],[-74.07691,40.80718],[-74.07543,40.80615],[-74.074,40.80477],[-74.07319,40.80366],[-74.07194,40.80125],[-74.0705,40.79976],[-74.06676,40.79756],[-74.06205,40.79612],[-74.05965,40.79501],[-74.0517,40.78948],[-74.05019,40.78818],[-74.04908,40.78686],[-74.04817,40.78525],[-74.047,40.78148],[-74.04717,40.7799],[-74.04594,40.77828],[-74.04553,40.77718],[-74.04548,40.77668],[-74.04564,40.77641],[-74.04599,40.77625],[-74.04647,40.77633],[-74.04665,40.77673],[-74.04625,40.77709],[-74.04418,40.77698],[-74.03742,40.77465],[-74.03428,40.77347],[-74.02949,40.77115],[-74.02609,40.76976],[-74.02192,40.76758],[-74.02179,40.76683],[-74.02234,40.76551],[-74.02364,40.76402],[-74.0251,40.76271],[-74.02529,40.76276],[-74.02539,40.76292],[-74.02366,40.76431],[-74.02353,40.76493],[-74.02243,40.7663],[-74.02133,40.76677],[-74.02008,40.7667],[-73.9974,40.7572],[-73.99547,40.75686],[-73.99394,40.75898],[-73.97606,40.75144],[-73.97744,40.74955],[-73.98068,40.75091],[-73.97232,40.76228]],"type":"LineString"},"properties":{"color":"#1A61FD","color_name":"blue","kind":"route","label":"EE Midtown","long":"Essex Express (Midtown)","route_id":"essex_express_midtown","text_color":"#FFFFFF","type_label":"Bus"},"type":"Feature"},{"geometry":{"coordinates":[[-74.44343,40.77877],[-74.44386,40.77903],[-74.44446,40.77883],[-74.44351,40.77796],[-74.44489,40.77669],[-74.43691,40.77169],[-74.43108,40.76641],[-74.42907,40.76575],[-74.42568,40.76512],[-74.41864,40.76112],[-74.41626,40.75817],[-74.41603,40.75705],[-74.41534,40.75643],[-74.4144,40.75621],[-74.41296,40.7575],[-74.39434,40.74606],[-74.38634,40.74155],[-74.38545,40.74131],[-74.38564,40.74075],[-74.38553,40.74063],[-74.38384,40.74001],[-74.38345,40.7409],[-74.37908,40.73959],[-74.37129,40.7392],[-74.36622,40.73751],[-74.36085,40.73654],[-74.35772,40.73531],[-74.34977,40.73085],[-74.34209,40.72468],[-74.33485,40.72042],[-74.331,40.7174],[-74.32704,40.71529],[-74.3261,40.71436],[-74.3247,40.71246],[-74.32307,40.71173],[-74.29518,40.71392],[-74.28617,40.71417],[-74.27871,40.71382],[-74.2739,40.71319],[-74.27006,40.7123],[-74.2578,40.70782],[-74.25305,40.70645],[-74.24548,40.70514],[-74.24096,40.7049],[-74.23859,40.70515],[-74.23639,40.70569],[-74.23407,40.70658],[-74.23124,40.70799],[-74.22838,40.70958],[-74.22341,40.71385],[-74.22082,40.71522],[-74.21868,40.71588],[-74.21643,40.71628],[-74.21413,40.7164],[-74.21126,40.71623],[-74.20816,40.71571],[-74.20544,40.71492],[-74.20274,40.71367],[-74.19819,40.71097],[-74.19324,40.70913],[-74.19119,40.70862],[-74.18933,40.70849],[-74.18733,40.70864],[-74.18138,40.71027],[-74.17836,40.7105],[-74.168,40.71048],[-74.16423,40.7101],[-74.16048,40.70938],[-74.14847,40.70541],[-74.14311,40.70297],[-74.13891,40.70152],[-74.10473,40.69108],[-74.10258,40.68996],[-74.09819,40.68657],[-74.09677,40.68607],[-74.09484,40.68586],[-74.09188,40.68638],[-74.09004,40.68709],[-74.08827,40.68805],[-74.0865,40.68936],[-74.08061,40.69514],[-74.07885,40.69651],[-74.07637,40.69782],[-74.0717,40.69933],[-74.06967,40.70026],[-74.06776,40.7016],[-74.06529,40.70407],[-74.06415,40.70496],[-74.0563,40.70916],[-74.05515,40.71003],[-74.0544,40.71128],[-74.05417,40.71278],[-74.05437,40.71359],[-74.05585,40.71657],[-74.05595,40.71766],[-74.05579,40.71875],[-74.05219,40.72911],[-74.05152,40.73018],[-74.05069,40.73071],[-74.048,40.73082],[-74.03647,40.72977],[-74.03208,40.7288],[-74.02634,40.72829],[-74.01558,40.72651],[-74.01231,40.72618],[-74.01104,40.72582],[-74.00657,40.72249],[-74.00666,40.72181],[-74.00776,40.72155],[-74.008,40.72123],[-74.00781,40.72091],[-74.00733,40.72079],[-74.00658,40.72112],[-74.00668,40.72051],[-74.00709,40.71828],[-74.01095,40.71337],[-74.01311,40.71428]],"type":"LineString"},"properties":{"color":"#59E912","color_name":"green","kind":"route","label":"MM Downtown","long":"Morris Meteor (Downtown)","route_id":"morris_meteor_downtown","text_color":"#000000","type_label":"Bus"},"type":"Feature"},{"geometry":{"coordinates":[[-74.44343,40.77877],[-74.44386,40.77903],[-74.44446,40.77883],[-74.44351,40.77796],[-74.44489,40.77669],[-74.43691,40.77169],[-74.43108,40.76641],[-74.42907,40.76575],[-74.42568,40.76512],[-74.41864,40.76112],[-74.41626,40.75817],[-74.41603,40.75705],[-74.41534,40.75643],[-74.4144,40.75621],[-74.41296,40.7575],[-74.39434,40.74606],[-74.38634,40.74155],[-74.38545,40.74131],[-74.38564,40.74075],[-74.38553,40.74063],[-74.38384,40.74001],[-74.38345,40.7409],[-74.37908,40.73959],[-74.37129,40.7392],[-74.36622,40.73751],[-74.36085,40.73654],[-74.35772,40.73531],[-74.34977,40.73085],[-74.34209,40.72468],[-74.33485,40.72042],[-74.331,40.7174],[-74.32726,40.71544],[-74.3261,40.71436],[-74.3249,40.71265],[-74.32377,40.71192],[-74.32208,40.7117],[-74.31555,40.71242],[-74.29474,40.71394],[-74.28617,40.71417],[-74.27871,40.71382],[-74.2739,40.71319],[-74.27006,40.7123],[-74.25856,40.70809],[-74.25411,40.70671],[-74.2494,40.70573],[-74.24403,40.70499],[-74.23946,40.70502],[-74.23747,40.70538],[-74.23534,40.70606],[-74.22859,40.70943],[-74.22403,40.71339],[-74.22181,40.71478],[-74.21814,40.71601],[-74.21442,40.7164],[-74.21012,40.71608],[-74.20598,40.71511],[-74.20274,40.71367],[-74.19819,40.71097],[-74.19349,40.70921],[-74.19148,40.70867],[-74.18933,40.70849],[-74.18733,40.70864],[-74.18138,40.71027],[-74.17983,40.71043],[-74.17221,40.71058],[-74.16681,40.71039],[-74.16168,40.70967],[-74.15794,40.7086],[-74.1543,40.7072],[-74.15248,40.70555],[-74.1516,40.70548],[-74.15109,40.70599],[-74.14985,40.70824],[-74.14791,40.71],[-74.14593,40.71112],[-74.13894,40.71402],[-74.13641,40.71558],[-74.13516,40.71683],[-74.13445,40.71807],[-74.13365,40.72145],[-74.13298,40.72344],[-74.13218,40.72495],[-74.13051,40.72685],[-74.12581,40.73061],[-74.12433,40.73254],[-74.12355,40.73479],[-74.12316,40.73984],[-74.12168,40.74425],[-74.11993,40.74721],[-74.11726,40.74981],[-74.11529,40.7511],[-74.11192,40.75283],[-74.10463,40.75595],[-74.10223,40.75657],[-74.09993,40.7569],[-74.08943,40.75715],[-74.08609,40.75768],[-74.08344,40.7586],[-74.06945,40.76502],[-74.06631,40.76688],[-74.06379,40.76904],[-74.06248,40.77053],[-74.0597,40.77456],[-74.05808,40.77654],[-74.05645,40.77934],[-74.05562,40.77993],[-74.0546,40.78025],[-74.05253,40.78012],[-74.04857,40.77856],[-74.04618,40.77728],[-74.04349,40.77681],[-74.03544,40.77394],[-74.02609,40.76976],[-74.02245,40.76794],[-74.02175,40.76731],[-74.02223,40.7657],[-74.02364,40.76402],[-74.0251,40.76271],[-74.02526,40.76275],[-74.02539,40.76292],[-74.02363,40.76435],[-74.02353,40.76493],[-74.02243,40.7663],[-74.02133,40.76677],[-74.02028,40.76675],[-73.99595,40.75668],[-73.99602,40.75605],[-73.99761,40.75395],[-74.00504,40.75707],[-74.00686,40.75456],[-74.00382,40.75328],[-74.00658,40.74953],[-74.0083,40.75026],[-74.00807,40.75109],[-74.00607,40.75018],[-74.00784,40.748],[-74.00891,40.74235],[-73.98719,40.7333],[-73.98768,40.73262],[-73.98985,40.73352],[-73.98997,40.73507],[-73.98447,40.74269],[-73.98604,40.74335]],"type":"LineString"},"properties":{"color":"#2D4C21","color_name":"green","kind":"route","label":"MM Lower Mid","long":"Morris Meteor (Lower Midtown)","route_id":"morris_meteor_lower_midtown","text_color":"#FFFFFF","type_label":"Bus"},"type":"Feature"},{"geometry":{"coordinates":[[-74.44343,40.77877],[-74.44386,40.77903],[-74.44446,40.77883],[-74.44351,40.77796],[-74.44489,40.77669],[-74.43691,40.77169],[-74.43108,40.76641],[-74.42907,40.76575],[-74.42568,40.76512],[-74.41864,40.76112],[-74.41626,40.75817],[-74.41603,40.75705],[-74.41534,40.75643],[-74.4144,40.75621],[-74.41296,40.7575],[-74.39434,40.74606],[-74.38634,40.74155],[-74.38545,40.74131],[-74.38564,40.74075],[-74.38553,40.74063],[-74.38384,40.74001],[-74.38345,40.7409],[-74.37908,40.73959],[-74.37129,40.7392],[-74.36622,40.73751],[-74.36085,40.73654],[-74.35772,40.73531],[-74.34977,40.73085],[-74.34209,40.72468],[-74.33485,40.72042],[-74.331,40.7174],[-74.32726,40.71544],[-74.3261,40.71436],[-74.3249,40.71265],[-74.32365,40.71188],[-74.32208,40.7117],[-74.31555,40.71242],[-74.29474,40.71394],[-74.28617,40.71417],[-74.27871,40.71382],[-74.2739,40.71319],[-74.27006,40.7123],[-74.25856,40.70809],[-74.25357,40.70658],[-74.24676,40.70532],[-74.24219,40.70489],[-74.2384,40.70519],[-74.23482,40.70626],[-74.22859,40.70943],[-74.22403,40.71339],[-74.22181,40.71478],[-74.21814,40.71601],[-74.21442,40.7164],[-74.21012,40.71608],[-74.20598,40.71511],[-74.20274,40.71367],[-74.19819,40.71097],[-74.19349,40.70921],[-74.19148,40.70867],[-74.18933,40.70849],[-74.18733,40.70864],[-74.18138,40.71027],[-74.17983,40.71043],[-74.17221,40.71058],[-74.16681,40.71039],[-74.16168,40.70967],[-74.15794,40.7086],[-74.1543,40.7072],[-74.15248,40.70555],[-74.1516,40.70548],[-74.15109,40.70599],[-74.14985,40.70824],[-74.14791,40.71],[-74.14593,40.71112],[-74.13894,40.71402],[-74.13641,40.71558],[-74.13516,40.71683],[-74.13445,40.71807],[-74.13365,40.72145],[-74.13298,40.72344],[-74.13218,40.72495],[-74.13051,40.72685],[-74.12581,40.73061],[-74.12433,40.73254],[-74.12355,40.73479],[-74.12316,40.73984],[-74.12168,40.74425],[-74.11993,40.74721],[-74.11726,40.74981],[-74.11529,40.7511],[-74.11192,40.75283],[-74.10463,40.75595],[-74.10223,40.75657],[-74.09993,40.7569],[-74.08943,40.75715],[-74.08609,40.75768],[-74.08344,40.7586],[-74.06945,40.76502],[-74.06631,40.76688],[-74.06368,40.76915],[-74.05808,40.77654],[-74.05645,40.77934],[-74.05494,40.78019],[-74.05368,40.78031],[-74.05253,40.78012],[-74.04857,40.77856],[-74.04618,40.77728],[-74.04349,40.77681],[-74.03544,40.77394],[-74.02609,40.76976],[-74.02245,40.76794],[-74.02175,40.76731],[-74.02223,40.7657],[-74.02364,40.76402],[-74.0251,40.76271],[-74.02526,40.76275],[-74.02539,40.76292],[-74.02363,40.76435],[-74.02353,40.76493],[-74.02243,40.7663],[-74.02133,40.76677],[-74.02028,40.76675],[-73.99756,40.75726],[-73.99547,40.75686],[-73.99394,40.75898],[-73.97447,40.75077],[-73.97306,40.7527],[-73.97697,40.75435],[-73.97785,40.75314],[-73.97878,40.75349],[-73.97741,40.75536],[-73.97651,40.75499],[-73.97607,40.7556],[-73.97696,40.75599],[-73.97468,40.75911],[-73.97298,40.75841],[-73.97067,40.76158],[-73.97236,40.7623],[-73.96776,40.7686],[-73.96936,40.76928],[-73.97028,40.76803],[-73.96697,40.76664],[-73.96425,40.77032],[-73.9659,40.7711]],"type":"LineString"},"properties":{"color":"#08EC1E","color_name":"green","kind":"route","label":"MM Midtown","long":"Morris Meteor (Midtown)","route_id":"morris_meteor_midtown","text_color":"#000000","type_label":"Bus"},"type":"Feature"},{"geometry":{"coordinates":[[-74.38518,40.64074],[-74.38559,40.64048],[-74.38505,40.64022],[-74.38271,40.64135],[-74.37356,40.64512],[-74.35018,40.64831],[-74.35002,40.64852],[-74.35039,40.64933],[-74.35016,40.6499],[-74.34811,40.65018],[-74.34798,40.64973],[-74.34769,40.64974],[-74.34755,40.64976],[-74.34768,40.65023],[-74.34539,40.65055],[-74.34303,40.64919],[-74.34273,40.6492],[-74.32766,40.65108],[-74.32491,40.65149],[-74.3251,40.65231],[-74.32598,40.65319],[-74.31806,40.65428],[-74.31598,40.65417],[-74.31365,40.65486],[-74.30682,40.6558],[-74.30562,40.65589],[-74.30524,40.65568],[-74.30402,40.65569],[-74.30275,40.65586],[-74.30257,40.65594],[-74.30281,40.65622],[-74.30206,40.65644],[-74.28526,40.65871],[-74.28564,40.66069],[-74.28659,40.66134],[-74.28678,40.66169],[-74.28662,40.66349],[-74.28602,40.66515],[-74.28465,40.66761],[-74.27984,40.67438],[-74.27892,40.67648],[-74.27767,40.6808],[-74.27716,40.68196],[-74.27429,40.6862],[-74.27239,40.68818],[-74.27027,40.68971],[-74.26451,40.69263],[-74.26032,40.69534],[-74.24923,40.70099],[-74.24634,40.70306],[-74.24514,40.70473],[-74.23889,40.7051],[-74.23665,40.7056],[-74.23457,40.70637],[-74.22859,40.70943],[-74.22423,40.71323],[-74.22275,40.71427],[-74.22107,40.71511],[-74.21922,40.71574],[-74.21672,40.71625],[-74.21385,40.71639],[-74.21069,40.71616],[-74.2076,40.71558],[-74.2057,40.71502],[-74.20361,40.71411],[-74.19819,40.71097],[-74.19324,40.70913],[-74.19119,40.70862],[-74.18933,40.70849],[-74.18733,40.70864],[-74.18138,40.71027],[-74.17983,40.71043],[-74.17221,40.71058],[-74.16681,40.71039],[-74.16168,40.70967],[-74.15794,40.7086],[-74.1543,40.7072],[-74.15248,40.70555],[-74.1516,40.70548],[-74.15109,40.70599],[-74.14985,40.70824],[-74.14791,40.71],[-74.14593,40.71112],[-74.13894,40.71402],[-74.13641,40.71558],[-74.13516,40.71683],[-74.13445,40.71807],[-74.13365,40.72145],[-74.13298,40.72344],[-74.13218,40.72495],[-74.13051,40.72685],[-74.12581,40.73061],[-74.12433,40.73254],[-74.12355,40.73479],[-74.12316,40.73984],[-74.12168,40.74425],[-74.11993,40.74721],[-74.11726,40.74981],[-74.11529,40.7511],[-74.11192,40.75283],[-74.10463,40.75595],[-74.10223,40.75657],[-74.09993,40.7569],[-74.08943,40.75715],[-74.08609,40.75768],[-74.08344,40.7586],[-74.06945,40.76502],[-74.06631,40.76688],[-74.06368,40.76915],[-74.05808,40.77654],[-74.05645,40.77934],[-74.05503,40.78016],[-74.05379,40.78031],[-74.05253,40.78012],[-74.04857,40.77856],[-74.04618,40.77728],[-74.04349,40.77681],[-74.03544,40.77394],[-74.02609,40.76976],[-74.02245,40.76794],[-74.02175,40.76731],[-74.02223,40.7657],[-74.02364,40.76402],[-74.0251,40.76271],[-74.02526,40.76275],[-74.02539,40.76292],[-74.02363,40.76435],[-74.02353,40.76493],[-74.02243,40.7663],[-74.02133,40.76677],[-74.02028,40.76675],[-73.99756,40.75726],[-73.99547,40.75686],[-73.99394,40.75898],[-73.97447,40.75077],[-73.97306,40.7527],[-73.97697,40.75435],[-73.97785,40.75314],[-73.97878,40.75349],[-73.97741,40.75536],[-73.97651,40.75499],[-73.97607,40.7556],[-73.97696,40.75599],[-73.97468,40.75911],[-73.97298,40.75841],[-73.97067,40.76158],[-73.97236,40.7623],[-73.96776,40.7686],[-73.96936,40.76928],[-73.97028,40.76803],[-73.96697,40.76664],[-73.96425,40.77032],[-73.9659,40.7711]],"type":"LineString"},"properties":{"color":"#FF8300","color_name":"orange","kind":"route","label":"RR Midtown","long":"Raritan Rocket (Midtown)","route_id":"raritan_rocket_midtown","text_color":"#000000","type_label":"Bus"},"type":"Feature"},{"geometry":{"coordinates":[[-74.44275,40.68252],[-74.44196,40.68278],[-74.44272,40.68341],[-74.43957,40.68472],[-74.43798,40.68607],[-74.43628,40.68798],[-74.42899,40.69189],[-74.42347,40.6958],[-74.42204,40.69722],[-74.41854,40.69994],[-74.41529,40.70132],[-74.41247,40.70309],[-74.40936,40.70474],[-74.40292,40.7072],[-74.39914,40.70761],[-74.39776,40.70828],[-74.39637,40.70868],[-74.39305,40.70888],[-74.38951,40.71003],[-74.3876,40.71079],[-74.38773,40.71093],[-74.38711,40.71238],[-74.38617,40.71292],[-74.38386,40.71266],[-74.38164,40.71187],[-74.3771,40.7122],[-74.37274,40.7138],[-74.37081,40.71485],[-74.36912,40.71529],[-74.36719,40.71543],[-74.36398,40.71681],[-74.36274,40.71614],[-74.36016,40.71642],[-74.35299,40.71478],[-74.34924,40.71265],[-74.3477,40.71226],[-74.34684,40.71241],[-74.34383,40.71377],[-74.34096,40.71641],[-74.33983,40.71594],[-74.33584,40.71606],[-74.3351,40.71624],[-74.33387,40.71729],[-74.33315,40.7175],[-74.33272,40.71741],[-74.33185,40.71658],[-74.33024,40.71678],[-74.32771,40.7157],[-74.32649,40.7148],[-74.32461,40.71239],[-74.32365,40.71188],[-74.32269,40.71169],[-74.31555,40.71242],[-74.29518,40.71392],[-74.28617,40.71417],[-74.27826,40.71378],[-74.2739,40.71319],[-74.27006,40.7123],[-74.25856,40.70809],[-74.25357,40.70658],[-74.24676,40.70532],[-74.24175,40.70489],[-74.23946,40.70502],[-74.23747,40.70538],[-74.23358,40.70681],[-74.22859,40.70943],[-74.22383,40.71355],[-74.22082,40.71522],[-74.217,40.71621],[-74.21269,40.71635],[-74.20899,40.71589],[-74.2057,40.71502],[-74.20274,40.71367],[-74.19819,40.71097],[-74.19349,40.70921],[-74.19148,40.70867],[-74.18933,40.70849],[-74.18733,40.70864],[-74.18138,40.71027],[-74.17983,40.71043],[-74.17221,40.71058],[-74.16681,40.71039],[-74.16144,40.70961],[-74.15614,40.70801],[-74.15402,40.70704],[-74.15255,40.7056],[-74.15182,40.70542],[-74.15117,40.70586],[-74.14985,40.70824],[-74.14791,40.71],[-74.14593,40.71112],[-74.13894,40.71402],[-74.13641,40.71558],[-74.13516,40.71683],[-74.13445,40.71807],[-74.13365,40.72145],[-74.13298,40.72344],[-74.13218,40.72495],[-74.13051,40.72685],[-74.12581,40.73061],[-74.12433,40.73254],[-74.12355,40.73479],[-74.12316,40.73984],[-74.12168,40.74425],[-74.11993,40.74721],[-74.11726,40.74981],[-74.11529,40.7511],[-74.11192,40.75283],[-74.10463,40.75595],[-74.10223,40.75657],[-74.09993,40.7569],[-74.08943,40.75715],[-74.08609,40.75768],[-74.08344,40.7586],[-74.06945,40.76502],[-74.06631,40.76688],[-74.06357,40.76926],[-74.05808,40.77654],[-74.05645,40.77934],[-74.05525,40.78009],[-74.05393,40.78032],[-74.05253,40.78012],[-74.04857,40.77856],[-74.04618,40.77728],[-74.04349,40.77681],[-74.03544,40.77394],[-74.02609,40.76976],[-74.02245,40.76794],[-74.02175,40.76731],[-74.02223,40.7657],[-74.02364,40.76402],[-74.0251,40.76271],[-74.02526,40.76275],[-74.02539,40.76292],[-74.02363,40.76435],[-74.02353,40.76493],[-74.02243,40.7663],[-74.02133,40.76677],[-74.02028,40.76675],[-73.99756,40.75726],[-73.99547,40.75686],[-73.99394,40.75898],[-73.97447,40.75077],[-73.97306,40.7527],[-73.97697,40.75435],[-73.97785,40.75314],[-73.97878,40.75349],[-73.97741,40.75536],[-73.97651,40.75499],[-73.97607,40.7556],[-73.97696,40.75599],[-73.97468,40.75911],[-73.97298,40.75841],[-73.97067,40.76158],[-73.97236,40.7623],[-73.96776,40.7686],[-73.96936,40.76928],[-73.97028,40.76803],[-73.96697,40.76664],[-73.96425,40.77032],[-73.9659,40.7711]],"type":"LineString"},"properties":{"color":"#FF0000","color_name":"red","kind":"route","label":"R Midtown","long":"Ridgeliner (Midtown)","route_id":"ridgeliner_midtown","text_color":"#FFFFFF","type_label":"Bus"},"type":"Feature"},{"geometry":{"coordinates":[[-73.96887,40.76129],[-73.97606,40.75144],[-73.99265,40.75843],[-73.99307,40.75784],[-73.99695,40.75939],[-73.9979,40.75868],[-73.99987,40.75903],[-74.01989,40.7674],[-74.02146,40.76738],[-74.02238,40.76699],[-74.02291,40.76653],[-74.02477,40.76381],[-74.02465,40.76319],[-74.02407,40.76274],[-74.02334,40.76267],[-74.02267,40.76298],[-74.02174,40.76487],[-74.02125,40.76692],[-74.02152,40.76762],[-74.02209,40.76809],[-74.02939,40.77123],[-74.03509,40.77392],[-74.05385,40.78072],[-74.05487,40.78092],[-74.05599,40.78081],[-74.05687,40.78044],[-74.05744,40.77987],[-74.05889,40.77731],[-74.06033,40.77414],[-74.06336,40.76978],[-74.06613,40.76723],[-74.06939,40.76523],[-74.08519,40.75807],[-74.0891,40.75729],[-74.09917,40.75708],[-74.10342,40.75643],[-74.10595,40.75562],[-74.11026,40.75376],[-74.11508,40.75137],[-74.11718,40.75003],[-74.11988,40.74749],[-74.121,40.74593],[-74.1218,40.74436],[-74.12334,40.73974],[-74.12373,40.73466],[-74.1245,40.73254],[-74.12605,40.73061],[-74.1306,40.72703],[-74.13233,40.72521],[-74.13354,40.72332],[-74.13567,40.71914],[-74.13746,40.71662],[-74.13903,40.71521],[-74.14052,40.71426],[-74.14723,40.71146],[-74.14895,40.7104],[-74.15146,40.70845],[-74.15328,40.70805],[-74.1547,40.70812],[-74.15938,40.70964],[-74.16295,40.71131],[-74.16524,40.71167],[-74.17886,40.71098],[-74.18139,40.71053],[-74.18717,40.70891],[-74.18915,40.70873],[-74.19082,40.70885],[-74.19244,40.70925],[-74.19479,40.71015],[-74.19862,40.71246],[-74.20502,40.71519],[-74.20917,40.7163],[-74.21349,40.71675],[-74.21755,40.71656],[-74.21948,40.71612],[-74.2213,40.71547],[-74.22386,40.71404],[-74.22849,40.71001],[-74.23026,40.70897],[-74.23613,40.70615],[-74.2383,40.70557],[-74.2409,40.70526],[-74.24366,40.70531],[-74.24636,40.70562],[-74.25346,40.70706],[-74.25813,40.7084],[-74.27007,40.71275],[-74.2743,40.7137],[-74.27868,40.71424],[-74.29653,40.71524],[-74.30597,40.71375],[-74.32273,40.71257],[-74.32434,40.71311],[-74.32702,40.71563],[-74.33059,40.71744],[-74.33466,40.72061],[-74.34189,40.72485],[-74.34499,40.72753],[-74.34362,40.72815],[-74.34231,40.72841],[-74.34199,40.72879],[-74.34078,40.72887],[-74.33953,40.72843],[-74.33825,40.72834],[-74.33669,40.7277],[-74.33213,40.72698],[-74.3306,40.72706],[-74.32876,40.72689],[-74.32888,40.72632],[-74.32323,40.72479],[-74.32225,40.72468],[-74.32088,40.72329],[-74.31928,40.72233],[-74.3188,40.72035],[-74.31523,40.7218],[-74.3051,40.72441],[-74.30522,40.72617],[-74.3026,40.72571],[-74.30269,40.72559],[-74.30522,40.72617],[-74.3051,40.72441],[-74.30331,40.72449],[-74.30204,40.72433],[-74.29708,40.72279],[-74.29684,40.72334],[-74.29615,40.72373],[-74.29448,40.72299],[-74.29515,40.72227],[-74.29258,40.72177]],"type":"LineString"},"properties":{"color":"#7828FF","color_name":"blue","kind":"route","label":"SMS Midtown","long":"South Mountain Special (Midtown)","route_id":"south_mountain_special_midtown","text_color":"#FFFFFF","type_label":"Bus"},"type":"Feature"},{"geometry":{"coordinates":[-74.0064,40.7445],"type":"Point"},"properties":{"kind":"stop","name":"10th Ave & 18th St","stop_id":"10th_ave_18th_st"},"type":"Feature"},{"geometry":{"coordinates":[-74.0009,40.752],"type":"Point"},"properties":{"kind":"stop","name":"10th Ave & 30th St","stop_id":"10th_ave_30th_st"},"type":"Feature"},{"geometry":{"coordinates":[-73.9998,40.7549],"type":"Point"},"properties":{"kind":"stop","name":"10th Ave & 34th","stop_id":"10th_ave_34th"},"type":"Feature"},{"geometry":{"coordinates":[-73.9989,40.7544],"type":"Point"},"properties":{"kind":"stop","name":"10th Ave & 34th St","stop_id":"10th_ave_34th_st"},"type":"Feature"},{"geometry":{"coordinates":[-74.0062,40.7502],"type":"Point"},"properties":{"kind":"stop","name":"11th Ave & 25th","stop_id":"11th_ave_25th"},"type":"Feature"},{"geometry":{"coordinates":[-74.0039,40.7534],"type":"Point"},"properties":{"kind":"stop","name":"11th Ave & 30th","stop_id":"11th_ave_30th"},"type":"Feature"},{"geometry":{"coordinates":[-74.3777,40.7394],"type":"Point"},"properties":{"kind":"stop","name":"135 Main St","stop_id":"135_main_st"},"type":"Feature"},{"geometry":{"coordinates":[-74.3776,40.7395],"type":"Point"},"properties":{"kind":"stop","name":"135 Main St","stop_id":"135_main_st_2"},"type":"Feature"},{"geometry":{"coordinates":[-74.0076,40.742],"type":"Point"},"properties":{"kind":"stop","name":"14th & 10th Ave","stop_id":"14th_10th_ave"},"type":"Feature"},{"geometry":{"coordinates":[-73.9938,40.7362],"type":"Point"},"properties":{"kind":"stop","name":"14th St & 5th Ave","stop_id":"14th_st_5th_ave"},"type":"Feature"},{"geometry":{"coordinates":[-73.9966,40.7372],"type":"Point"},"properties":{"kind":"stop","name":"14th St & 6th Ave","stop_id":"14th_st_6th_ave"},"type":"Feature"},{"geometry":{"coordinates":[-74.0023,40.7396],"type":"Point"},"properties":{"kind":"stop","name":"14th St & 8th Ave","stop_id":"14th_st_8th_ave"},"type":"Feature"},{"geometry":{"coordinates":[-74.0027,40.74],"type":"Point"},"properties":{"kind":"stop","name":"14th St & 8th Ave","stop_id":"14th_st_8th_ave_2"},"type":"Feature"},{"geometry":{"coordinates":[-73.9786,40.7535],"type":"Point"},"properties":{"kind":"stop","name":"43rd & Madison","stop_id":"43rd_madison"},"type":"Feature"},{"geometry":{"coordinates":[-73.9789,40.7532],"type":"Point"},"properties":{"kind":"stop","name":"43rd & Madison","stop_id":"43rd_madison_2"},"type":"Feature"},{"geometry":{"coordinates":[-73.9769,40.756],"type":"Point"},"properties":{"kind":"stop","name":"47th & Madison","stop_id":"47th_madison"},"type":"Feature"},{"geometry":{"coordinates":[-73.977,40.7557],"type":"Point"},"properties":{"kind":"stop","name":"47th & Madison","stop_id":"47th_madison_2"},"type":"Feature"},{"geometry":{"coordinates":[-73.974,40.7544],"type":"Point"},"properties":{"kind":"stop","name":"480 Lexington","stop_id":"480_lexington"},"type":"Feature"},{"geometry":{"coordinates":[-73.9746,40.7591],"type":"Point"},"properties":{"kind":"stop","name":"52nd & Madison","stop_id":"52nd_madison"},"type":"Feature"},{"geometry":{"coordinates":[-73.9748,40.7589],"type":"Point"},"properties":{"kind":"stop","name":"52nd & Madison","stop_id":"52nd_madison_2"},"type":"Feature"},{"geometry":{"coordinates":[-73.9723,40.7623],"type":"Point"},"properties":{"kind":"stop","name":"57th & Madison","stop_id":"57th_madison"},"type":"Feature"},{"geometry":{"coordinates":[-73.9712,40.7581],"type":"Point"},"properties":{"kind":"stop","name":"610 Lexington \u2022 Lex & 52nd","stop_id":"610_lexington_lex_52nd"},"type":"Feature"},{"geometry":{"coordinates":[-73.9678,40.7686],"type":"Point"},"properties":{"kind":"stop","name":"67th & Madison","stop_id":"67th_madison"},"type":"Feature"},{"geometry":{"coordinates":[-73.9659,40.7711],"type":"Point"},"properties":{"kind":"stop","name":"71st & Madison","stop_id":"71st_madison"},"type":"Feature"},{"geometry":{"coordinates":[-73.9689,40.7613],"type":"Point"},"properties":{"kind":"stop","name":"American Eagle \u2022 Lex, btwn 57th and 58th","stop_id":"american_eagle_lex_btwn_57th_and_58th"},"type":"Feature"},{"geometry":{"coordinates":[-74.2926,40.7217],"type":"Point"},"properties":{"kind":"stop","name":"B'nai Israel","stop_id":"b_nai_israel"},"type":"Feature"},{"geometry":{"coordinates":[-73.974,40.7635],"type":"Point"},"properties":{"kind":"stop","name":"Bergdorf Goodman \u2022 5th btwn 57th & 58th","stop_id":"bergdorf_goodman_5th_btwn_57th_58th"},"type":"Feature"},{"geometry":{"coordinates":[-74.4427,40.6824],"type":"Point"},"properties":{"kind":"stop","name":"Berkeley Heights","stop_id":"berkeley_heights"},"type":"Feature"},{"geometry":{"coordinates":[-74.2566,40.8345],"type":"Point"},"properties":{"kind":"stop","name":"Bloomfield and Fells","stop_id":"bloomfield_and_fells"},"type":"Feature"},{"geometry":{"coordinates":[-74.2314,40.8253],"type":"Point"},"properties":{"kind":"stop","name":"Bloomfield and Mt Prospect","stop_id":"bloomfield_and_mt_prospect"},"type":"Feature"},{"geometry":{"coordinates":[-74.2753,40.839],"type":"Point"},"properties":{"kind":"stop","name":"Bloomfield and Roseland","stop_id":"bloomfield_and_roseland"},"type":"Feature"},{"geometry":{"coordinates":[-74.2982,40.8523],"type":"Point"},"properties":{"kind":"stop","name":"Bloomfield&Kirkpatrick","stop_id":"bloomfield_kirkpatrick"},"type":"Feature"},{"geometry":{"coordinates":[-74.2872,40.8457],"type":"Point"},"properties":{"kind":"stop","name":"Bloomfield & Lane Ave","stop_id":"bloomfield_lane_ave"},"type":"Feature"},{"geometry":{"coordinates":[-73.9841,40.7548],"type":"Point"},"properties":{"kind":"stop","name":"Bryant Park","stop_id":"bryant_park"},"type":"Feature"},{"geometry":{"coordinates":[-73.9845,40.7549],"type":"Point"},"properties":{"kind":"stop","name":"Bryant Park","stop_id":"bryant_park_2"},"type":"Feature"},{"geometry":{"coordinates":[-74.3849,40.7403],"type":"Point"},"properties":{"kind":"stop","name":"Chatham","stop_id":"chatham"},"type":"Feature"},{"geometry":{"coordinates":[-74.4434,40.7788],"type":"Point"},"properties":{"kind":"stop","name":"Convent Station","stop_id":"convent_station"},"type":"Feature"},{"geometry":{"coordinates":[-73.9921,40.7353],"type":"Point"},"properties":{"kind":"stop","name":"Corner of Union Square","stop_id":"corner_of_union_square"},"type":"Feature"},{"geometry":{"coordinates":[-74.3033,40.6558],"type":"Point"},"properties":{"kind":"stop","name":"Cranford","stop_id":"cranford"},"type":"Feature"},{"geometry":{"coordinates":[-74.3024,40.6561],"type":"Point"},"properties":{"kind":"stop","name":"Cranford Train Station","stop_id":"cranford_train_station"},"type":"Feature"},{"geometry":{"coordinates":[-73.9887,40.757],"type":"Point"},"properties":{"kind":"stop","name":"Dallas BBQ \u2022 42nd & 8th","stop_id":"dallas_bbq_42nd_8th"},"type":"Feature"},{"geometry":{"coordinates":[-74.3852,40.6408],"type":"Point"},"properties":{"kind":"stop","name":"Fanwood","stop_id":"fanwood"},"type":"Feature"},{"geometry":{"coordinates":[-74.3851,40.6409],"type":"Point"},"properties":{"kind":"stop","name":"Fanwood Train Station","stop_id":"fanwood_train_station"},"type":"Feature"},{"geometry":{"coordinates":[-74.3257,40.653],"type":"Point"},"properties":{"kind":"stop","name":"Garwood","stop_id":"garwood"},"type":"Feature"},{"geometry":{"coordinates":[-73.983,40.7545],"type":"Point"},"properties":{"kind":"stop","name":"Grace Building \u2022 42nd btwn 5th & 6th","stop_id":"grace_building_42nd_btwn_5th_6th"},"type":"Feature"},{"geometry":{"coordinates":[-73.9774,40.7521],"type":"Point"},"properties":{"kind":"stop","name":"Grand Central \u2022 42nd, under Park Ave Bridge","stop_id":"grand_central_42nd_under_park_ave_bridge"},"type":"Feature"},{"geometry":{"coordinates":[-74.1887,40.8583],"type":"Point"},"properties":{"kind":"stop","name":"Grove St and Charles","stop_id":"grove_st_and_charles"},"type":"Feature"},{"geometry":{"coordinates":[-74.113,40.997],"type":"Point"},"properties":{"kind":"stop","name":"Ho-Ho-Kus","stop_id":"ho_ho_kus"},"type":"Feature"},{"geometry":{"coordinates":[-74.4161,40.757],"type":"Point"},"properties":{"kind":"stop","name":"Madison","stop_id":"madison"},"type":"Feature"},{"geometry":{"coordinates":[-73.986,40.7434],"type":"Point"},"properties":{"kind":"stop","name":"Madison Square","stop_id":"madison_square"},"type":"Feature"},{"geometry":{"coordinates":[-74.4039,40.7517],"type":"Point"},"properties":{"kind":"stop","name":"Main&Bruns","stop_id":"main_bruns"},"type":"Feature"},{"geometry":{"coordinates":[-74.3034,40.7251],"type":"Point"},"properties":{"kind":"stop","name":"Millburn","stop_id":"millburn"},"type":"Feature"},{"geometry":{"coordinates":[-74.3037,40.7257],"type":"Point"},"properties":{"kind":"stop","name":"Millburn Train Station","stop_id":"millburn_train_station"},"type":"Feature"},{"geometry":{"coordinates":[-74.2967,40.7231],"type":"Point"},"properties":{"kind":"stop","name":"Millburn & Walnut","stop_id":"millburn_walnut"},"type":"Feature"},{"geometry":{"coordinates":[-74.2184,40.8157],"type":"Point"},"properties":{"kind":"stop","name":"Montclair YMCA","stop_id":"montclair_ymca"},"type":"Feature"},{"geometry":{"coordinates":[-74.3879,40.7107],"type":"Point"},"properties":{"kind":"stop","name":"New Providence","stop_id":"new_providence"},"type":"Feature"},{"geometry":{"coordinates":[-73.9847,40.7427],"type":"Point"},"properties":{"kind":"stop","name":"NY Life Insurance (Corner of Park Ave and 27th St)","stop_id":"ny_life_insurance_corner_of_park_ave_and_27th_st"},"type":"Feature"},{"geometry":{"coordinates":[-73.9864,40.7404],"type":"Point"},"properties":{"kind":"stop","name":"One Madison Ave (Park Ave, north of 23rd)","stop_id":"one_madison_ave_park_ave_north_of_23rd"},"type":"Feature"},{"geometry":{"coordinates":[-74.085,40.9704],"type":"Point"},"properties":{"kind":"stop","name":"Paramus Women's Club","stop_id":"paramus_women_s_club"},"type":"Feature"},{"geometry":{"coordinates":[-74.0851,40.9702],"type":"Point"},"properties":{"kind":"stop","name":"Paramus Womens Club","stop_id":"paramus_womens_club"},"type":"Feature"},{"geometry":{"coordinates":[-73.9863,40.74],"type":"Point"},"properties":{"kind":"stop","name":"Park Ave and 23rd St","stop_id":"park_ave_and_23rd_st"},"type":"Feature"},{"geometry":{"coordinates":[-73.9734,40.7552],"type":"Point"},"properties":{"kind":"stop","name":"Park Ave Kitchen \u2022 Lex & 48th","stop_id":"park_ave_kitchen_lex_48th"},"type":"Feature"},{"geometry":{"coordinates":[-74.2015,40.8396],"type":"Point"},"properties":{"kind":"stop","name":"Park & Bellevue","stop_id":"park_bellevue"},"type":"Feature"},{"geometry":{"coordinates":[-74.2015,40.8398],"type":"Point"},"properties":{"kind":"stop","name":"Park St & Bellevue","stop_id":"park_st_bellevue"},"type":"Feature"},{"geometry":{"coordinates":[-74.1956,40.8527],"type":"Point"},"properties":{"kind":"stop","name":"Park St & Mt Hebron","stop_id":"park_st_mt_hebron"},"type":"Feature"},{"geometry":{"coordinates":[-73.9915,40.7578],"type":"Point"},"properties":{"kind":"stop","name":"Port Authority","stop_id":"port_authority"},"type":"Feature"},{"geometry":{"coordinates":[-74.1206,40.9813],"type":"Point"},"properties":{"kind":"stop","name":"Ridgewood","stop_id":"ridgewood"},"type":"Feature"},{"geometry":{"coordinates":[-74.12,40.981],"type":"Point"},"properties":{"kind":"stop","name":"Ridgewood","stop_id":"ridgewood_2"},"type":"Feature"},{"geometry":{"coordinates":[-73.9784,40.757],"type":"Point"},"properties":{"kind":"stop","name":"Sephora \u2022 5th & 47th","stop_id":"sephora_5th_47th"},"type":"Feature"},{"geometry":{"coordinates":[-74.3237,40.725],"type":"Point"},"properties":{"kind":"stop","name":"Short Hills","stop_id":"short_hills"},"type":"Feature"},{"geometry":{"coordinates":[-74.3238,40.7252],"type":"Point"},"properties":{"kind":"stop","name":"Short Hills Train Station","stop_id":"short_hills_train_station"},"type":"Feature"},{"geometry":{"coordinates":[-74.3582,40.7159],"type":"Point"},"properties":{"kind":"stop","name":"Summit","stop_id":"summit"},"type":"Feature"},{"geometry":{"coordinates":[-73.9886,40.737],"type":"Point"},"properties":{"kind":"stop","name":"Union Square North (CVS)","stop_id":"union_square_north_cvs"},"type":"Feature"},{"geometry":{"coordinates":[-73.9885,40.7374],"type":"Point"},"properties":{"kind":"stop","name":"Union Square North (Rothmans)","stop_id":"union_square_north_rothmans"},"type":"Feature"},{"geometry":{"coordinates":[-74.2081,40.8411],"type":"Point"},"properties":{"kind":"stop","name":"Upper Montclair","stop_id":"upper_montclair"},"type":"Feature"},{"geometry":{"coordinates":[-74.2096,40.832],"type":"Point"},"properties":{"kind":"stop","name":"Valley & Watchung","stop_id":"valley_watchung"},"type":"Feature"},{"geometry":{"coordinates":[-74.007,40.7192],"type":"Point"},"properties":{"kind":"stop","name":"Varick & Franklin","stop_id":"varick_franklin"},"type":"Feature"},{"geometry":{"coordinates":[-74.2446,40.8312],"type":"Point"},"properties":{"kind":"stop","name":"Verona Park","stop_id":"verona_park"},"type":"Feature"},{"geometry":{"coordinates":[-74.1229,41.012],"type":"Point"},"properties":{"kind":"stop","name":"Waldwick","stop_id":"waldwick"},"type":"Feature"},{"geometry":{"coordinates":[-74.207,40.8297],"type":"Point"},"properties":{"kind":"stop","name":"Watchung Ave Station","stop_id":"watchung_ave_station"},"type":"Feature"},{"geometry":{"coordinates":[-74.1915,40.8544],"type":"Point"},"properties":{"kind":"stop","name":"Water Treatment Plant","stop_id":"water_treatment_plant"},"type":"Feature"},{"geometry":{"coordinates":[-74.3477,40.6498],"type":"Point"},"properties":{"kind":"stop","name":"Westfield","stop_id":"westfield"},"type":"Feature"},{"geometry":{"coordinates":[-74.0131,40.7143],"type":"Point"},"properties":{"kind":"stop","name":"WTC","stop_id":"wtc"},"type":"Feature"},{"geometry":{"coordinates":[-73.9762,40.7601],"type":"Point"},"properties":{"kind":"stop","name":"Zara \u2022 5th & 52nd","stop_id":"zara_5th_52nd"},"type":"Feature"}],"type":"FeatureCollection"}
