{"features":[{"geometry":{"coordinates":[[-94.48331,44.32441],[-94.48355,44.32421],[-94.47613,44.3164],[-94.47806,44.31545],[-94.47624,44.31354],[-94.47498,44.31316],[-94.47455,44.31277],[-94.46513,44.31749],[-94.46328,44.31553],[-94.46178,44.31626],[-94.45706,44.31129],[-94.45856,44.31056],[-94.44319,44.29435],[-94.44202,44.29336],[-94.43896,44.29168],[-94.43805,44.29098],[-94.4368,44.2916],[-94.43213,44.2867],[-94.43207,44.28529],[-94.4342,44.28419],[-94.43596,44.28418],[-94.4369,44.28938],[-94.43781,44.29092],[-94.43962,44.29217],[-94.43896,44.29252],[-94.44015,44.29376],[-94.44141,44.29315],[-94.44283,44.2942],[-94.46035,44.31268],[-94.46322,44.31129],[-94.46414,44.31226],[-94.46551,44.31159],[-94.46457,44.31062],[-94.47551,44.30518],[-94.47894,44.30881],[-94.48096,44.30782],[-94.48148,44.30808],[-94.4818,44.30789],[-94.48162,44.30749],[-94.47894,44.30881],[-94.48593,44.31632],[-94.48793,44.31823],[-94.49437,44.32004],[-94.49639,44.32223],[-94.49713,44.3237],[-94.49725,44.32623],[-94.49264,44.32622],[-94.49099,44.32648],[-94.48728,44.32811],[-94.48811,44.32891],[-94.48874,44.32855],[-94.48893,44.32789],[-94.48927,44.32766],[-94.49129,44.32673],[-94.49254,44.32651],[-94.49587,44.32652],[-94.49733,44.32688],[-94.49876,44.32653],[-94.50172,44.32655],[-94.50327,44.32715],[-94.50335,44.32805],[-94.50656,44.32806],[-94.50655,44.3292],[-94.50619,44.32933],[-94.49846,44.32929],[-94.49769,44.32942],[-94.4973,44.32862],[-94.49674,44.32823],[-94.49451,44.33007],[-94.49417,44.33091],[-94.4923,44.33102],[-94.49081,44.33173],[-94.49198,44.33295],[-94.49182,44.33328],[-94.49178,44.34253],[-94.4916,44.34272],[-94.48969,44.34184],[-94.48828,44.34043],[-94.49174,44.3387],[-94.49182,44.33328],[-94.49198,44.33295],[-94.48728,44.32811],[-94.48311,44.33015],[-94.48263,44.32964],[-94.48215,44.32985]],"type":"LineString"},"properties":{"color":"#009D4F","color_name":"green","kind":"route","label":"Hermann Express","long":"Hermann Express","route_id":"74513","text_color":"#000000","type_label":"Bus"},"type":"Feature"},{"geometry":{"coordinates":[-94.46152,44.31118],"type":"Point"},"properties":{"kind":"stop","name":"Brown County Offices","stop_id":"4147510"},"type":"Feature"},{"geometry":{"coordinates":[-94.48326,44.32444],"type":"Point"},"properties":{"kind":"stop","name":"Linderhof/Hillside Apartments","stop_id":"4149546"},"type":"Feature"},{"geometry":{"coordinates":[-94.47748,44.31581],"type":"Point"},"properties":{"kind":"stop","name":"Oak Hills Living Center","stop_id":"4149547"},"type":"Feature"},{"geometry":{"coordinates":[-94.4762,44.31348],"type":"Point"},"properties":{"kind":"stop","name":"New Ulm Medical Center","stop_id":"4149548"},"type":"Feature"},{"geometry":{"coordinates":[-94.46625,44.31689],"type":"Point"},"properties":{"kind":"stop","name":"St. Michael's","stop_id":"4149549"},"type":"Feature"},{"geometry":{"coordinates":[-94.46293,44.3156],"type":"Point"},"properties":{"kind":"stop","name":"Broadway Haus","stop_id":"4149550"},"type":"Feature"},{"geometry":{"coordinates":[-94.46006,44.31441],"type":"Point"},"properties":{"kind":"stop","name":"Downtown I","stop_id":"4149551"},"type":"Feature"},{"geometry":{"coordinates":[-94.45782,44.31202],"type":"Point"},"properties":{"kind":"stop","name":"Downtown II","stop_id":"4149552"},"type":"Feature"},{"geometry":{"coordinates":[-94.43291,44.28741],"type":"Point"},"properties":{"kind":"stop","name":"Oakwood Estates","stop_id":"4149553"},"type":"Feature"},{"geometry":{"coordinates":[-94.43941,44.29293],"type":"Point"},"properties":{"kind":"stop","name":"HyVee","stop_id":"4149554"},"type":"Feature"},{"geometry":{"coordinates":[-94.46393,44.31215],"type":"Point"},"properties":{"kind":"stop","name":"Emerson Union / Courthouse","stop_id":"4149555"},"type":"Feature"},{"geometry":{"coordinates":[-94.47322,44.3064],"type":"Point"},"properties":{"kind":"stop","name":"Hermann Heights / Martin Luther College","stop_id":"4149556"},"type":"Feature"},{"geometry":{"coordinates":[-94.47976,44.30849],"type":"Point"},"properties":{"kind":"stop","name":"Highland Regency","stop_id":"4149557"},"type":"Feature"},{"geometry":{"coordinates":[-94.48142,44.30807],"type":"Point"},"properties":{"kind":"stop","name":"Sunset Apartments","stop_id":"4149558"},"type":"Feature"},{"geometry":{"coordinates":[-94.48979,44.32748],"type":"Point"},"properties":{"kind":"stop","name":"Cash Wise Foods","stop_id":"4149560"},"type":"Feature"},{"geometry":{"coordinates":[-94.49876,44.32665],"type":"Point"},"properties":{"kind":"stop","name":"Aldi","stop_id":"4149561"},"type":"Feature"},{"geometry":{"coordinates":[-94.50657,44.32832],"type":"Point"},"properties":{"kind":"stop","name":"Walmart","stop_id":"4149562"},"type":"Feature"},{"geometry":{"coordinates":[-94.49424,44.33032],"type":"Point"},"properties":{"kind":"stop","name":"Skyline Terrace / Orchard Hill","stop_id":"4149563"},"type":"Feature"},{"geometry":{"coordinates":[-94.48216,44.32985],"type":"Point"},"properties":{"kind":"stop","name":"Heartland Express / DMV","stop_id":"4149564"},"type":"Feature"},{"geometry":{"coordinates":[-94.49057,44.3394],"type":"Point"},"properties":{"kind":"stop","name":"Ridgeway on 23rd / Traulich Estates","stop_id":"4210601"},"type":"Feature"}],"type":"FeatureCollection"}
