{"features":[{"geometry":{"coordinates":[[-72.28745,43.70748],[-72.28846,43.70791],[-72.28952,43.70656],[-72.28934,43.70232],[-72.2899,43.69803],[-72.28978,43.69563],[-72.29115,43.69069],[-72.29259,43.68793],[-72.29457,43.68235],[-72.2943,43.67859],[-72.2951,43.67458],[-72.29683,43.67247],[-72.29958,43.67046],[-72.3019,43.66724],[-72.3034,43.66464],[-72.30528,43.66261],[-72.30612,43.66023],[-72.30644,43.65849],[-72.30724,43.65666],[-72.3079,43.65558],[-72.30983,43.65324],[-72.31018,43.65162],[-72.31027,43.64815],[-72.31028,43.64949],[-72.31267,43.65045],[-72.31765,43.65162],[-72.31938,43.64888],[-72.31867,43.64859],[-72.31882,43.64758],[-72.31822,43.64278],[-72.32011,43.64119],[-72.32073,43.64197],[-72.32098,43.64335],[-72.32156,43.64395],[-72.32428,43.64363],[-72.32724,43.64381],[-72.3302,43.64444],[-72.33184,43.64514],[-72.33475,43.64219],[-72.33372,43.64133],[-72.33315,43.64162],[-72.33333,43.64171],[-72.33321,43.64184],[-72.33442,43.64252],[-72.33184,43.64514],[-72.33553,43.64711],[-72.33656,43.64614],[-72.33812,43.64553],[-72.34079,43.64547],[-72.34422,43.64612],[-72.34514,43.64582],[-72.34554,43.64528],[-72.34603,43.64369],[-72.34505,43.64339],[-72.34459,43.64264],[-72.34396,43.64263],[-72.3434,43.64231],[-72.34387,43.64137],[-72.34367,43.64089],[-72.34334,43.64227],[-72.34465,43.64283],[-72.34518,43.64348],[-72.346,43.64368],[-72.34554,43.64528],[-72.34514,43.64582],[-72.34406,43.64612],[-72.34139,43.64555],[-72.33947,43.64541],[-72.33801,43.64549],[-72.33692,43.64579],[-72.33539,43.64688],[-72.33532,43.64731],[-72.33263,43.65083],[-72.33106,43.65173],[-72.32938,43.65206],[-72.32681,43.65197],[-72.32515,43.65165],[-72.32193,43.64991],[-72.31938,43.64888],[-72.31776,43.65135],[-72.31759,43.65151],[-72.31723,43.65145],[-72.31213,43.65027],[-72.31036,43.64925],[-72.3103,43.64816]],"type":"LineString"},"properties":{"color":"#FEDC0A","color_name":"yellow","kind":"route","label":"Yellow Route","long":"Yellow Route","route_id":"14112","text_color":"#616161","type_label":"Bus"},"type":"Feature"},{"geometry":{"coordinates":[[-72.2801,43.70011],[-72.28138,43.7],[-72.28306,43.69927],[-72.28591,43.70102],[-72.28945,43.70086],[-72.28934,43.70242],[-72.28776,43.70256],[-72.28784,43.70415],[-72.28945,43.70411],[-72.28953,43.70514],[-72.29389,43.70504],[-72.2942,43.70534],[-72.29447,43.70512],[-72.28953,43.70514],[-72.28951,43.70661],[-72.28846,43.70791],[-72.28721,43.70736],[-72.28623,43.70667],[-72.28516,43.70755],[-72.28406,43.70791],[-72.28438,43.7081],[-72.2844,43.70785],[-72.28332,43.70797],[-72.28323,43.70868],[-72.28338,43.70915],[-72.28437,43.70973],[-72.28356,43.7106],[-72.28245,43.71018],[-72.28194,43.70948]],"type":"LineString"},"properties":{"color":"#D034D0","color_name":"pink","kind":"route","label":"Downtown Shuttle","long":"Dartmouth-Hanover Downtown Shuttle","route_id":"17098","text_color":"#FFFFFF","type_label":"Bus"},"type":"Feature"},{"geometry":{"coordinates":[[-72.28444,43.70797],[-72.28439,43.70785],[-72.28516,43.70755],[-72.28623,43.70667],[-72.28721,43.70736],[-72.28846,43.70791],[-72.28953,43.70647],[-72.28934,43.70242],[-72.29145,43.70236],[-72.29707,43.70292],[-72.30457,43.70468],[-72.30548,43.70516],[-72.30635,43.70596],[-72.30709,43.70817],[-72.30751,43.70804],[-72.30855,43.70724],[-72.30944,43.70565],[-72.31006,43.705],[-72.31384,43.70253],[-72.31526,43.70135],[-72.31883,43.6964],[-72.31911,43.69564],[-72.31984,43.69145],[-72.32104,43.68691],[-72.32112,43.68537],[-72.32028,43.68451],[-72.31595,43.68266],[-72.31093,43.67967],[-72.31037,43.67827],[-72.30925,43.67748],[-72.30913,43.67198],[-72.31039,43.66964],[-72.31159,43.66811],[-72.31247,43.66648],[-72.31371,43.66168],[-72.31528,43.6579],[-72.3161,43.65665],[-72.31833,43.65404],[-72.31945,43.65209],[-72.32601,43.65423],[-72.32926,43.6555],[-72.33756,43.6601],[-72.3394,43.66081],[-72.34198,43.66126],[-72.34181,43.66208],[-72.34067,43.66201],[-72.34095,43.66113],[-72.33917,43.66075],[-72.33756,43.6601],[-72.3342,43.65833],[-72.33064,43.65616],[-72.32742,43.65475],[-72.31814,43.65167],[-72.31213,43.65027],[-72.31036,43.64925],[-72.3103,43.64816]],"type":"LineString"},"properties":{"color":"#07D262","color_name":"green","kind":"route","label":"Green Route","long":"Green Route","route_id":"7127","text_color":"#FFFFFF","type_label":"Bus"},"type":"Feature"},{"geometry":{"coordinates":[[-72.3151,43.72485],[-72.31449,43.72469],[-72.31434,43.7249],[-72.31509,43.7252],[-72.31584,43.72591],[-72.31794,43.72525],[-72.31673,43.72366],[-72.31609,43.72248],[-72.31554,43.71987],[-72.31485,43.71907],[-72.31273,43.71756],[-72.31111,43.71575],[-72.31044,43.71548],[-72.30861,43.71533],[-72.30788,43.71186],[-72.30771,43.70996],[-72.30689,43.70668],[-72.30593,43.7053],[-72.304,43.70439],[-72.29707,43.70292],[-72.29178,43.70236],[-72.28857,43.70247],[-72.28776,43.70256],[-72.28783,43.70496],[-72.28767,43.70539],[-72.28531,43.70744],[-72.28406,43.70791],[-72.28427,43.70813],[-72.2844,43.70785],[-72.28298,43.70802],[-72.2812,43.70858],[-72.28003,43.70928],[-72.27901,43.71029],[-72.27517,43.71693],[-72.2745,43.71778],[-72.27383,43.71804],[-72.27383,43.71852],[-72.27247,43.72018],[-72.26836,43.72818],[-72.26751,43.72905],[-72.26785,43.72926]],"type":"LineString"},"properties":{"color":"#996600","color_name":"brown","kind":"route","label":"Brown Route","long":"Brown Route","route_id":"7128","text_color":"#FFFFFF","type_label":"Bus"},"type":"Feature"},{"geometry":{"coordinates":[[-72.28745,43.70748],[-72.28846,43.70791],[-72.28952,43.70656],[-72.28934,43.70232],[-72.2899,43.69803],[-72.28978,43.69563],[-72.29115,43.69069],[-72.29259,43.68793],[-72.29457,43.68235],[-72.2943,43.67859],[-72.2951,43.67458],[-72.29683,43.67247],[-72.29958,43.67046],[-72.3019,43.66724],[-72.3034,43.66464],[-72.30528,43.66261],[-72.30612,43.66023],[-72.30644,43.65849],[-72.30724,43.65666],[-72.3079,43.65558],[-72.30983,43.65324],[-72.31018,43.65162],[-72.31027,43.64815],[-72.31028,43.64949],[-72.31267,43.65045],[-72.31765,43.65162],[-72.31938,43.64888],[-72.31867,43.64859],[-72.31882,43.64758],[-72.31822,43.64278],[-72.32011,43.64119],[-72.32073,43.64197],[-72.32098,43.64335],[-72.32156,43.64395],[-72.32457,43.64362],[-72.32724,43.64381],[-72.32982,43.64433],[-72.33126,43.64482],[-72.33553,43.64711],[-72.33656,43.64614],[-72.33788,43.64558],[-72.34139,43.64555],[-72.34188,43.64565],[-72.34188,43.64598],[-72.34222,43.64647],[-72.3422,43.64681],[-72.34185,43.64732],[-72.34193,43.64761],[-72.34267,43.64795],[-72.34359,43.64796],[-72.34354,43.64744],[-72.34376,43.64721],[-72.34365,43.64701],[-72.34278,43.64693],[-72.34241,43.64712],[-72.34208,43.64699],[-72.34225,43.64657],[-72.34188,43.64565],[-72.33947,43.64541],[-72.33755,43.64558],[-72.33648,43.64603],[-72.33539,43.64688],[-72.33532,43.64731],[-72.33321,43.65024],[-72.33226,43.65112],[-72.33051,43.65189],[-72.32865,43.65208],[-72.32515,43.65165],[-72.32193,43.64991],[-72.31938,43.64888],[-72.31776,43.65135],[-72.31759,43.65151],[-72.31723,43.65145],[-72.31213,43.65027],[-72.31036,43.64925],[-72.3103,43.64816]],"type":"LineString"},"properties":{"color":"#F87217","color_name":"orange","kind":"route","label":"Orange Route","long":"Orange Route","route_id":"7129","text_color":"#FFFFFF","type_label":"Bus"},"type":"Feature"},{"geometry":{"coordinates":[[-72.28444,43.70797],[-72.28439,43.70785],[-72.28516,43.70755],[-72.28623,43.70667],[-72.28721,43.70736],[-72.28846,43.70791],[-72.28946,43.70671],[-72.28945,43.70086],[-72.28591,43.70102],[-72.28283,43.69912],[-72.28122,43.69793],[-72.27924,43.69477],[-72.27814,43.69353],[-72.27375,43.69342],[-72.2724,43.69319],[-72.27116,43.69272],[-72.26981,43.69194],[-72.2692,43.69129],[-72.26947,43.68615],[-72.26932,43.6849],[-72.27001,43.68459],[-72.27129,43.68461],[-72.27201,43.6841],[-72.27258,43.68304],[-72.27291,43.68116],[-72.27408,43.67974],[-72.27388,43.67907],[-72.27262,43.67942],[-72.27154,43.67933],[-72.27052,43.6788],[-72.27006,43.67819],[-72.26991,43.67709],[-72.27032,43.67597],[-72.27178,43.6758],[-72.27208,43.67597],[-72.2721,43.67561],[-72.27063,43.67604],[-72.26929,43.67561],[-72.26883,43.67605],[-72.26815,43.67621],[-72.26734,43.67604],[-72.2668,43.67549],[-72.26645,43.67556],[-72.26581,43.67423],[-72.2638,43.67172],[-72.25971,43.66779],[-72.25426,43.662],[-72.24848,43.65474],[-72.24719,43.65368],[-72.24456,43.65236],[-72.24956,43.64778],[-72.25093,43.64733],[-72.25355,43.64729],[-72.25355,43.64571],[-72.25454,43.64369],[-72.25459,43.64306],[-72.25402,43.6424],[-72.25275,43.64187],[-72.2506,43.64204],[-72.25077,43.64283],[-72.25158,43.64288]],"type":"LineString"},"properties":{"color":"#000FFF","color_name":"blue","kind":"route","label":"Blue Route","long":"Blue Route","route_id":"7130","text_color":"#FFFFFF","type_label":"Bus"},"type":"Feature"},{"geometry":{"coordinates":[[-72.32298,43.62473],[-72.32266,43.62538],[-72.32188,43.62512],[-72.32176,43.62489],[-72.32208,43.62374],[-72.32168,43.62346],[-72.32116,43.62356],[-72.31958,43.62744],[-72.32002,43.62811],[-72.32154,43.62864],[-72.32098,43.62942],[-72.32177,43.62972],[-72.32148,43.63007],[-72.31853,43.63283],[-72.31762,43.63267],[-72.31727,43.63236],[-72.31607,43.63198],[-72.31592,43.63269],[-72.31691,43.63303],[-72.31762,43.63267],[-72.31857,43.63287],[-72.31674,43.63475],[-72.31429,43.63917],[-72.31223,43.64128],[-72.31119,43.64323],[-72.30933,43.64466],[-72.30967,43.64535],[-72.31036,43.64813],[-72.30955,43.64509],[-72.30748,43.64263],[-72.30167,43.63788],[-72.29844,43.63603],[-72.29691,43.63564],[-72.28795,43.63633],[-72.28257,43.63785],[-72.27708,43.6376],[-72.26634,43.63869],[-72.25985,43.6384],[-72.25849,43.6388],[-72.25684,43.63964],[-72.25577,43.64049],[-72.25544,43.64142],[-72.25509,43.64171],[-72.25355,43.642],[-72.25249,43.64187],[-72.2506,43.64204],[-72.25077,43.64283],[-72.25147,43.64289]],"type":"LineString"},"properties":{"color":"#ED1A1A","color_name":"red","kind":"route","label":"Red Route","long":"Red Route","route_id":"7131","text_color":"#FFFFFF","type_label":"Bus"},"type":"Feature"},{"geometry":{"coordinates":[[-72.2721,43.67562],[-72.27063,43.67604],[-72.26929,43.67561],[-72.2687,43.67611],[-72.26766,43.67616],[-72.2668,43.67549],[-72.26637,43.6745],[-72.26635,43.67402],[-72.26662,43.67361],[-72.26715,43.67331],[-72.26824,43.67328],[-72.26906,43.67385],[-72.26935,43.67501],[-72.26929,43.67561],[-72.27068,43.67604],[-72.27178,43.6758],[-72.27208,43.67597],[-72.2721,43.67562]],"type":"LineString"},"properties":{"color":"#7F00FF","color_name":"purple","kind":"route","label":"Lot 20","long":"Lot 20 Shuttle","route_id":"7135","text_color":"#FFFFFF","type_label":"Bus"},"type":"Feature"},{"geometry":{"coordinates":[[-72.25244,43.64289],[-72.25232,43.64218],[-72.25212,43.64194],[-72.2506,43.64204],[-72.25059,43.64241],[-72.25034,43.6426],[-72.24501,43.64361],[-72.24273,43.6445],[-72.24017,43.6446],[-72.2392,43.64432],[-72.23837,43.64379],[-72.23503,43.6396],[-72.23414,43.63889],[-72.23297,43.63832],[-72.23123,43.63796],[-72.21658,43.63695],[-72.2092,43.63437],[-72.20785,43.6342],[-72.2061,43.63458],[-72.202,43.63729],[-72.20072,43.6378],[-72.19475,43.63936],[-72.19127,43.63974],[-72.19023,43.64024],[-72.1895,43.64128],[-72.18841,43.64481],[-72.1884,43.64975],[-72.18743,43.65101],[-72.18686,43.65136],[-72.18601,43.65151],[-72.1775,43.65106],[-72.17542,43.65013],[-72.1724,43.64923],[-72.17081,43.64887],[-72.16821,43.64863],[-72.1652,43.64731],[-72.16367,43.64689],[-72.15777,43.64622],[-72.1514,43.64297],[-72.14737,43.64254],[-72.14677,43.64266],[-72.14401,43.64441],[-72.14258,43.64468],[-72.13784,43.64349],[-72.13225,43.64335],[-72.12764,43.64269],[-72.12208,43.64297],[-72.11894,43.64272],[-72.11579,43.64285],[-72.09677,43.64914],[-72.09555,43.6503],[-72.09355,43.65145],[-72.09164,43.65315],[-72.09075,43.65362],[-72.08997,43.6538],[-72.08623,43.65396],[-72.08466,43.65383],[-72.07985,43.65253],[-72.07235,43.6497],[-72.06919,43.64992],[-72.06698,43.65047],[-72.06456,43.65042],[-72.06148,43.65075],[-72.06057,43.65068],[-72.04971,43.64628],[-72.04786,43.64574],[-72.04066,43.64578],[-72.03425,43.64628],[-72.03184,43.6463],[-72.02805,43.64673],[-72.02307,43.64617],[-72.02077,43.64693],[-72.01711,43.64707],[-72.01594,43.64704],[-72.01417,43.64656]],"type":"LineString"},"properties":{"color":"#757575","color_name":"gray","kind":"route","label":"Enfield-Canaan","long":"Enfield-Canaan Commuter","route_id":"76652","text_color":"#FFFFFF","type_label":"Bus"},"type":"Feature"},{"geometry":{"coordinates":[[-72.31029,43.64813],[-72.3095,43.64499],[-72.30704,43.64224],[-72.30299,43.63883],[-72.3012,43.63759],[-72.29802,43.63585],[-72.29605,43.63565],[-72.28795,43.63633],[-72.28257,43.63785],[-72.27708,43.6376],[-72.26634,43.63869],[-72.26002,43.63838],[-72.25875,43.6387],[-72.25706,43.6395],[-72.25593,43.64033],[-72.25544,43.64142],[-72.25509,43.64171],[-72.25355,43.642],[-72.25249,43.64187],[-72.2506,43.64204],[-72.25066,43.64268],[-72.25093,43.64288],[-72.25242,43.64278],[-72.25232,43.64218],[-72.2528,43.64197],[-72.25402,43.6424],[-72.2545,43.64286],[-72.25458,43.64357],[-72.25355,43.64571],[-72.25354,43.64689],[-72.25308,43.64721],[-72.25063,43.64727],[-72.24928,43.64772],[-72.24441,43.6523],[-72.24684,43.65345],[-72.24836,43.65456],[-72.25201,43.65938],[-72.25424,43.66201],[-72.25971,43.66779],[-72.2638,43.67172],[-72.26581,43.67423],[-72.26645,43.67555],[-72.26677,43.67546],[-72.26728,43.67601],[-72.26786,43.6762],[-72.26896,43.67597],[-72.26931,43.67561],[-72.27068,43.67604],[-72.27178,43.6758],[-72.27208,43.67597],[-72.2721,43.67562],[-72.27185,43.67556],[-72.27178,43.6758],[-72.27074,43.67603],[-72.27032,43.67597],[-72.26987,43.6773],[-72.27006,43.67819],[-72.27086,43.67905],[-72.27171,43.67938],[-72.27267,43.67942],[-72.27388,43.67907],[-72.27408,43.67974],[-72.27291,43.68116],[-72.27249,43.68331],[-72.27191,43.68419],[-72.27119,43.68463],[-72.269,43.68465],[-72.26941,43.68632],[-72.26914,43.69113],[-72.26981,43.69194],[-72.27116,43.69272],[-72.2724,43.69319],[-72.27514,43.69348],[-72.27767,43.6934],[-72.27861,43.69388],[-72.28087,43.6975],[-72.28332,43.70797],[-72.2845,43.70783],[-72.28444,43.70797],[-72.28439,43.70785],[-72.28516,43.70755],[-72.28623,43.70667],[-72.28721,43.70736],[-72.28833,43.70788],[-72.28854,43.70782],[-72.28953,43.70647],[-72.2896,43.70445],[-72.28934,43.70242],[-72.28776,43.70256],[-72.28779,43.70312]],"type":"LineString"},"properties":{"color":"#77158D","color_name":"purple","kind":"route","label":"Blue-Red Route","long":"Blue-Red Route","route_id":"76655","text_color":"#FFFFFF","type_label":"Bus"},"type":"Feature"},{"geometry":{"coordinates":[[-72.26598,43.68569],[-72.26552,43.68613],[-72.26583,43.68625],[-72.2672,43.68489],[-72.26903,43.68474],[-72.26941,43.68632],[-72.26914,43.69113],[-72.26981,43.69194],[-72.27116,43.69272],[-72.27265,43.69325],[-72.27514,43.69348],[-72.27767,43.6934],[-72.27853,43.69379],[-72.28081,43.69732],[-72.28231,43.70394],[-72.28803,43.70251],[-72.29223,43.70238],[-72.297,43.70289],[-72.29846,43.70333],[-72.29834,43.70394],[-72.29713,43.70528],[-72.29466,43.70605],[-72.29245,43.70551],[-72.29204,43.70508],[-72.28953,43.70514],[-72.28934,43.70242],[-72.28651,43.70282],[-72.28231,43.70394],[-72.28173,43.7015],[-72.28198,43.7013],[-72.28195,43.70103],[-72.28156,43.70069],[-72.28081,43.69732],[-72.27853,43.69379],[-72.27767,43.6934],[-72.27514,43.69348],[-72.2724,43.69319],[-72.27116,43.69272],[-72.26936,43.69155],[-72.26913,43.69085],[-72.26947,43.68615],[-72.26913,43.68464],[-72.26673,43.6849],[-72.26598,43.68569],[-72.26673,43.6849],[-72.27129,43.68461],[-72.27192,43.6842],[-72.2724,43.68351],[-72.27285,43.68129],[-72.27397,43.68001],[-72.27403,43.67935],[-72.27388,43.67907],[-72.27242,43.67943],[-72.27123,43.67922],[-72.27026,43.67851],[-72.26989,43.67744],[-72.27032,43.67597],[-72.27178,43.6758],[-72.27208,43.67597],[-72.27219,43.67581],[-72.27203,43.67546],[-72.27184,43.67549],[-72.27179,43.67581],[-72.27068,43.67604],[-72.26929,43.67561],[-72.26842,43.67619],[-72.26741,43.67607],[-72.2668,43.67549],[-72.26645,43.67556],[-72.26602,43.67455],[-72.26444,43.67247],[-72.26225,43.6735],[-72.2609,43.67448],[-72.26046,43.67502],[-72.26147,43.67591],[-72.26316,43.67632],[-72.26405,43.67683],[-72.26433,43.67722],[-72.26445,43.67813],[-72.26398,43.67859],[-72.26083,43.67864],[-72.26001,43.67779],[-72.2585,43.67697],[-72.25825,43.67653],[-72.25837,43.67586],[-72.25921,43.67512],[-72.26063,43.67502],[-72.26225,43.6735],[-72.26444,43.67247],[-72.26602,43.67455],[-72.26645,43.67556],[-72.2668,43.67549],[-72.26741,43.67607],[-72.26842,43.67619],[-72.26929,43.67561],[-72.27059,43.67603],[-72.27179,43.67581],[-72.27215,43.67605],[-72.27226,43.67595],[-72.2721,43.67562],[-72.27185,43.67557],[-72.27178,43.6758],[-72.27074,43.67603],[-72.27032,43.67597],[-72.26989,43.67744],[-72.27026,43.67851],[-72.27123,43.67922],[-72.27242,43.67943],[-72.27388,43.67907],[-72.27403,43.67935],[-72.27397,43.68001],[-72.27285,43.68129],[-72.2724,43.68351],[-72.27192,43.6842],[-72.27129,43.68461],[-72.26958,43.68458],[-72.26673,43.6849],[-72.26598,43.68569]],"type":"LineString"},"properties":{"color":"#E02089","color_name":"pink","kind":"route","label":"Pink Route","long":"Pink Route","route_id":"77089","text_color":"#000000","type_label":"Bus"},"type":"Feature"},{"geometry":{"coordinates":[[-72.26593,43.68497],[-72.27001,43.68459],[-72.2711,43.68465],[-72.27214,43.68394],[-72.27258,43.68304],[-72.27291,43.68116],[-72.27397,43.68001],[-72.27408,43.67947],[-72.27388,43.67907],[-72.27219,43.67943],[-72.27086,43.67905],[-72.27006,43.67819],[-72.26989,43.67744],[-72.27032,43.67597],[-72.27178,43.6758],[-72.27208,43.67597],[-72.27213,43.67566],[-72.27191,43.67555],[-72.27178,43.6758],[-72.27032,43.67597],[-72.26989,43.67744],[-72.27006,43.67819],[-72.27086,43.67905],[-72.27219,43.67943],[-72.27388,43.67907],[-72.27408,43.67947],[-72.27397,43.68001],[-72.27291,43.68116],[-72.27258,43.68304],[-72.27214,43.68394],[-72.2711,43.68465],[-72.26958,43.68458],[-72.26593,43.68497]],"type":"LineString"},"properties":{"color":"#B2FFFF","color_name":"white","kind":"route","label":"Lot 9","long":"Lot 9 Shuttle","route_id":"77383","text_color":"#FFFFFF","type_label":"Bus"},"type":"Feature"},{"geometry":{"coordinates":[-72.31898,43.69568],"type":"Point"},"properties":{"kind":"stop","name":"Olcott Industrial Park","stop_id":"2388305"},"type":"Feature"},{"geometry":{"coordinates":[-72.3109,43.66854],"type":"Point"},"properties":{"kind":"stop","name":"A Street","stop_id":"2388306"},"type":"Feature"},{"geometry":{"coordinates":[-72.30913,43.67321],"type":"Point"},"properties":{"kind":"stop","name":"Depot St","stop_id":"2388307"},"type":"Feature"},{"geometry":{"coordinates":[-72.30917,43.67617],"type":"Point"},"properties":{"kind":"stop","name":"Datamann, Opp.","stop_id":"2388308"},"type":"Feature"},{"geometry":{"coordinates":[-72.31408,43.68165],"type":"Point"},"properties":{"kind":"stop","name":"Wilder Motel","stop_id":"2388309"},"type":"Feature"},{"geometry":{"coordinates":[-72.31751,43.68351],"type":"Point"},"properties":{"kind":"stop","name":"Stoney Creek, Opp.","stop_id":"2388310"},"type":"Feature"},{"geometry":{"coordinates":[-72.32082,43.68702],"type":"Point"},"properties":{"kind":"stop","name":"Billings Farm Road","stop_id":"2388311"},"type":"Feature"},{"geometry":{"coordinates":[-72.32016,43.68977],"type":"Point"},"properties":{"kind":"stop","name":"Brick House Lane NB (Drop Only)","stop_id":"2388312"},"type":"Feature"},{"geometry":{"coordinates":[-72.31957,43.69211],"type":"Point"},"properties":{"kind":"stop","name":"Hemlock Ridge, Opp.","stop_id":"2388313"},"type":"Feature"},{"geometry":{"coordinates":[-72.27337,43.71917],"type":"Point"},"properties":{"kind":"stop","name":"Hanover Fire Station","stop_id":"2388314"},"type":"Feature"},{"geometry":{"coordinates":[-72.27112,43.72301],"type":"Point"},"properties":{"kind":"stop","name":"CRREL","stop_id":"2388315"},"type":"Feature"},{"geometry":{"coordinates":[-72.30858,43.71442],"type":"Point"},"properties":{"kind":"stop","name":"Dan & Whit\u2019s","stop_id":"2388316"},"type":"Feature"},{"geometry":{"coordinates":[-72.31325,43.71785],"type":"Point"},"properties":{"kind":"stop","name":"Heritage Lane","stop_id":"2388317"},"type":"Feature"},{"geometry":{"coordinates":[-72.27302,43.7193],"type":"Point"},"properties":{"kind":"stop","name":"45 Lyme Road","stop_id":"2388318"},"type":"Feature"},{"geometry":{"coordinates":[-72.27021,43.72423],"type":"Point"},"properties":{"kind":"stop","name":"Dartmouth Printing EB (Drop Only)","stop_id":"2388320"},"type":"Feature"},{"geometry":{"coordinates":[-72.27149,43.72179],"type":"Point"},"properties":{"kind":"stop","name":"Dresden Rd EB (Drop Only)","stop_id":"2388321"},"type":"Feature"},{"geometry":{"coordinates":[-72.26975,43.72574],"type":"Point"},"properties":{"kind":"stop","name":"Rivercrest","stop_id":"2388322"},"type":"Feature"},{"geometry":{"coordinates":[-72.26794,43.72917],"type":"Point"},"properties":{"kind":"stop","name":"Kendal","stop_id":"2388323"},"type":"Feature"},{"geometry":{"coordinates":[-72.28036,43.69642],"type":"Point"},"properties":{"kind":"stop","name":"Brockway","stop_id":"2388324"},"type":"Feature"},{"geometry":{"coordinates":[-72.28454,43.70795],"type":"Point"},"properties":{"kind":"stop","name":"Vail DMS","stop_id":"2388325"},"type":"Feature"},{"geometry":{"coordinates":[-72.14287,43.64478],"type":"Point"},"properties":{"kind":"stop","name":"Enfield @ Anne's","stop_id":"2388326"},"type":"Feature"},{"geometry":{"coordinates":[-72.14289,43.64458],"type":"Point"},"properties":{"kind":"stop","name":"Huse Park","stop_id":"2388327"},"type":"Feature"},{"geometry":{"coordinates":[-72.01419,43.6465],"type":"Point"},"properties":{"kind":"stop","name":"Canaan SB","stop_id":"2388328"},"type":"Feature"},{"geometry":{"coordinates":[-72.01419,43.6465],"type":"Point"},"properties":{"kind":"stop","name":"Canaan Church","stop_id":"2388329"},"type":"Feature"},{"geometry":{"coordinates":[-72.33985,43.66083],"type":"Point"},"properties":{"kind":"stop","name":"Hartford Village","stop_id":"2388330"},"type":"Feature"},{"geometry":{"coordinates":[-72.24637,43.65315],"type":"Point"},"properties":{"kind":"stop","name":"Heater Rd, DHMC, Opp.","stop_id":"2388331"},"type":"Feature"},{"geometry":{"coordinates":[-72.24932,43.65565],"type":"Point"},"properties":{"kind":"stop","name":"Heater Landing, Opp.","stop_id":"2388332"},"type":"Feature"},{"geometry":{"coordinates":[-72.27592,43.69368],"type":"Point"},"properties":{"kind":"stop","name":"89 Lebanon St NB (Drop Only)","stop_id":"2388333"},"type":"Feature"},{"geometry":{"coordinates":[-72.29628,43.67294],"type":"Point"},"properties":{"kind":"stop","name":"Sunset Motel, Opp.","stop_id":"2388334"},"type":"Feature"},{"geometry":{"coordinates":[-72.29441,43.68079],"type":"Point"},"properties":{"kind":"stop","name":"Indian Ridge","stop_id":"2388335"},"type":"Feature"},{"geometry":{"coordinates":[-72.30851,43.65474],"type":"Point"},"properties":{"kind":"stop","name":"Maple, Rt 10","stop_id":"2388336"},"type":"Feature"},{"geometry":{"coordinates":[-72.30937,43.71915],"type":"Point"},"properties":{"kind":"stop","name":"Hazen Street 3","stop_id":"2388337"},"type":"Feature"},{"geometry":{"coordinates":[-72.31006,43.65116],"type":"Point"},"properties":{"kind":"stop","name":"Highland Ave","stop_id":"2388338"},"type":"Feature"},{"geometry":{"coordinates":[-72.30805,43.71702],"type":"Point"},"properties":{"kind":"stop","name":"Hazen Street","stop_id":"2388339"},"type":"Feature"},{"geometry":{"coordinates":[-72.30804,43.71829],"type":"Point"},"properties":{"kind":"stop","name":"Hazen Street 2","stop_id":"2388340"},"type":"Feature"},{"geometry":{"coordinates":[-72.30829,43.71401],"type":"Point"},"properties":{"kind":"stop","name":"Tracy Hall","stop_id":"2388342"},"type":"Feature"},{"geometry":{"coordinates":[-72.32199,43.63261],"type":"Point"},"properties":{"kind":"stop","name":"Target Plaza","stop_id":"2388343"},"type":"Feature"},{"geometry":{"coordinates":[-72.32402,43.63107],"type":"Point"},"properties":{"kind":"stop","name":"Upper Valley Plaza","stop_id":"2388344"},"type":"Feature"},{"geometry":{"coordinates":[-72.25418,43.64461],"type":"Point"},"properties":{"kind":"stop","name":"70 Hanover St","stop_id":"2388345"},"type":"Feature"},{"geometry":{"coordinates":[-72.25149,43.64298],"type":"Point"},"properties":{"kind":"stop","name":"Lebanon","stop_id":"2388346"},"type":"Feature"},{"geometry":{"coordinates":[-72.25365,43.64664],"type":"Point"},"properties":{"kind":"stop","name":"Summer St, Leb","stop_id":"2388347"},"type":"Feature"},{"geometry":{"coordinates":[-72.27034,43.68466],"type":"Point"},"properties":{"kind":"stop","name":"Go Go Mart","stop_id":"2388348"},"type":"Feature"},{"geometry":{"coordinates":[-72.28403,43.6998],"type":"Point"},"properties":{"kind":"stop","name":"Hanover High School","stop_id":"2388349"},"type":"Feature"},{"geometry":{"coordinates":[-72.27231,43.67562],"type":"Point"},"properties":{"kind":"stop","name":"DHMC East","stop_id":"2388350"},"type":"Feature"},{"geometry":{"coordinates":[-72.26943,43.68883],"type":"Point"},"properties":{"kind":"stop","name":"Buck Road","stop_id":"2388351"},"type":"Feature"},{"geometry":{"coordinates":[-72.26623,43.67483],"type":"Point"},"properties":{"kind":"stop","name":"Colburn to Lebanon","stop_id":"2388352"},"type":"Feature"},{"geometry":{"coordinates":[-72.3134,43.68102],"type":"Point"},"properties":{"kind":"stop","name":"Wilder Motel, Opp.","stop_id":"2388353"},"type":"Feature"},{"geometry":{"coordinates":[-72.30937,43.67589],"type":"Point"},"properties":{"kind":"stop","name":"Datamann","stop_id":"2388354"},"type":"Feature"},{"geometry":{"coordinates":[-72.32104,43.68687],"type":"Point"},"properties":{"kind":"stop","name":"Billings Farm Rd, Opp.","stop_id":"2388355"},"type":"Feature"},{"geometry":{"coordinates":[-72.31745,43.6833],"type":"Point"},"properties":{"kind":"stop","name":"Stoney Creek","stop_id":"2388356"},"type":"Feature"},{"geometry":{"coordinates":[-72.31982,43.69198],"type":"Point"},"properties":{"kind":"stop","name":"Hemlock Ridge","stop_id":"2388357"},"type":"Feature"},{"geometry":{"coordinates":[-72.32018,43.69047],"type":"Point"},"properties":{"kind":"stop","name":"Jericho St. SB (Drop Only)","stop_id":"2388358"},"type":"Feature"},{"geometry":{"coordinates":[-72.29365,43.68537],"type":"Point"},"properties":{"kind":"stop","name":"Gould Rd, Opp.","stop_id":"2388359"},"type":"Feature"},{"geometry":{"coordinates":[-72.31929,43.69518],"type":"Point"},"properties":{"kind":"stop","name":"Valley Terrace","stop_id":"2388360"},"type":"Feature"},{"geometry":{"coordinates":[-72.31024,43.65124],"type":"Point"},"properties":{"kind":"stop","name":"Hayden Court","stop_id":"2388361"},"type":"Feature"},{"geometry":{"coordinates":[-72.30848,43.65501],"type":"Point"},"properties":{"kind":"stop","name":"Maple Rt 10, Opp.","stop_id":"2388362"},"type":"Feature"},{"geometry":{"coordinates":[-72.30937,43.67295],"type":"Point"},"properties":{"kind":"stop","name":"Ravenswood","stop_id":"2388363"},"type":"Feature"},{"geometry":{"coordinates":[-72.31157,43.66826],"type":"Point"},"properties":{"kind":"stop","name":"Chandler Road","stop_id":"2388364"},"type":"Feature"},{"geometry":{"coordinates":[-72.25259,43.65987],"type":"Point"},"properties":{"kind":"stop","name":"Dartmouth Ave to Lebanon","stop_id":"2388365"},"type":"Feature"},{"geometry":{"coordinates":[-72.34342,43.64808],"type":"Point"},"properties":{"kind":"stop","name":"VA Hospital","stop_id":"2388366"},"type":"Feature"},{"geometry":{"coordinates":[-72.31876,43.64979],"type":"Point"},"properties":{"kind":"stop","name":"Veterans Park","stop_id":"2388367"},"type":"Feature"},{"geometry":{"coordinates":[-72.32264,43.65024],"type":"Point"},"properties":{"kind":"stop","name":"Bugbee Senior Center","stop_id":"2388368"},"type":"Feature"},{"geometry":{"coordinates":[-72.2966,43.67281],"type":"Point"},"properties":{"kind":"stop","name":"Sunset Motel","stop_id":"2388369"},"type":"Feature"},{"geometry":{"coordinates":[-72.34132,43.64546],"type":"Point"},"properties":{"kind":"stop","name":"Dunkin Donuts","stop_id":"2388370"},"type":"Feature"},{"geometry":{"coordinates":[-72.32068,43.64935],"type":"Point"},"properties":{"kind":"stop","name":"Twin River Clinic","stop_id":"2388371"},"type":"Feature"},{"geometry":{"coordinates":[-72.33456,43.64819],"type":"Point"},"properties":{"kind":"stop","name":"Cloverleaf NB","stop_id":"2388372"},"type":"Feature"},{"geometry":{"coordinates":[-72.31886,43.64706],"type":"Point"},"properties":{"kind":"stop","name":"Downtown WRJ","stop_id":"2388373"},"type":"Feature"},{"geometry":{"coordinates":[-72.31985,43.64142],"type":"Point"},"properties":{"kind":"stop","name":"S. Main & Mountain Ave","stop_id":"2388374"},"type":"Feature"},{"geometry":{"coordinates":[-72.32158,43.64403],"type":"Point"},"properties":{"kind":"stop","name":"Trailer Park @ Sykes","stop_id":"2388375"},"type":"Feature"},{"geometry":{"coordinates":[-72.32878,43.64414],"type":"Point"},"properties":{"kind":"stop","name":"Hickory Ridge","stop_id":"2388376"},"type":"Feature"},{"geometry":{"coordinates":[-72.31276,43.66471],"type":"Point"},"properties":{"kind":"stop","name":"Cumberland Farms","stop_id":"2388378"},"type":"Feature"},{"geometry":{"coordinates":[-72.31392,43.66093],"type":"Point"},"properties":{"kind":"stop","name":"Knights Funeral Home","stop_id":"2388379"},"type":"Feature"},{"geometry":{"coordinates":[-72.31499,43.6582],"type":"Point"},"properties":{"kind":"stop","name":"Haven","stop_id":"2388380"},"type":"Feature"},{"geometry":{"coordinates":[-72.31882,43.6528],"type":"Point"},"properties":{"kind":"stop","name":"US 5 @ Co-op","stop_id":"2388381"},"type":"Feature"},{"geometry":{"coordinates":[-72.32437,43.65368],"type":"Point"},"properties":{"kind":"stop","name":"Cascadnac, Opp.","stop_id":"2388382"},"type":"Feature"},{"geometry":{"coordinates":[-72.32723,43.6546],"type":"Point"},"properties":{"kind":"stop","name":"Shady Lawn, Opp.","stop_id":"2388383"},"type":"Feature"},{"geometry":{"coordinates":[-72.33621,43.65935],"type":"Point"},"properties":{"kind":"stop","name":"Hartford PO","stop_id":"2388384"},"type":"Feature"},{"geometry":{"coordinates":[-72.33669,43.65972],"type":"Point"},"properties":{"kind":"stop","name":"Hartford PO, Opp.","stop_id":"2388385"},"type":"Feature"},{"geometry":{"coordinates":[-72.2534,43.6462],"type":"Point"},"properties":{"kind":"stop","name":"Lebanon Towers","stop_id":"2388387"},"type":"Feature"},{"geometry":{"coordinates":[-72.28164,43.70118],"type":"Point"},"properties":{"kind":"stop","name":"Leverone Field House, Opp.","stop_id":"2388388"},"type":"Feature"},{"geometry":{"coordinates":[-72.27077,43.6846],"type":"Point"},"properties":{"kind":"stop","name":"Go Go Mart NB","stop_id":"2388389"},"type":"Feature"},{"geometry":{"coordinates":[-72.26937,43.69173],"type":"Point"},"properties":{"kind":"stop","name":"Greensboro Road","stop_id":"2388390"},"type":"Feature"},{"geometry":{"coordinates":[-72.24632,43.6533],"type":"Point"},"properties":{"kind":"stop","name":"Heater Rd, DHMC","stop_id":"2388391"},"type":"Feature"},{"geometry":{"coordinates":[-72.24932,43.65589],"type":"Point"},"properties":{"kind":"stop","name":"Heater Landing","stop_id":"2388392"},"type":"Feature"},{"geometry":{"coordinates":[-72.25567,43.6408],"type":"Point"},"properties":{"kind":"stop","name":"20 Mechanic St","stop_id":"2388393"},"type":"Feature"},{"geometry":{"coordinates":[-72.3169,43.65129],"type":"Point"},"properties":{"kind":"stop","name":"Hartford Town Hall","stop_id":"2388394"},"type":"Feature"},{"geometry":{"coordinates":[-72.26601,43.63875],"type":"Point"},"properties":{"kind":"stop","name":"Slayton Hill Rd, Opp.","stop_id":"2388395"},"type":"Feature"},{"geometry":{"coordinates":[-72.25844,43.6389],"type":"Point"},"properties":{"kind":"stop","name":"Rivermill, Opp.","stop_id":"2388396"},"type":"Feature"},{"geometry":{"coordinates":[-72.31392,43.66153],"type":"Point"},"properties":{"kind":"stop","name":"Park & Ride, Tafts Flats","stop_id":"2388397"},"type":"Feature"},{"geometry":{"coordinates":[-72.31307,43.66443],"type":"Point"},"properties":{"kind":"stop","name":"Cumberland Farms, Opp.","stop_id":"2388398"},"type":"Feature"},{"geometry":{"coordinates":[-72.31554,43.6577],"type":"Point"},"properties":{"kind":"stop","name":"Saunders Ave","stop_id":"2388400"},"type":"Feature"},{"geometry":{"coordinates":[-72.2896,43.63623],"type":"Point"},"properties":{"kind":"stop","name":"Miracle Mile Plaza","stop_id":"2388401"},"type":"Feature"},{"geometry":{"coordinates":[-72.27464,43.63795],"type":"Point"},"properties":{"kind":"stop","name":"Hair Shed","stop_id":"2388402"},"type":"Feature"},{"geometry":{"coordinates":[-72.33328,43.64165],"type":"Point"},"properties":{"kind":"stop","name":"Gilman Ctr","stop_id":"2388403"},"type":"Feature"},{"geometry":{"coordinates":[-72.28729,43.70566],"type":"Point"},"properties":{"kind":"stop","name":"Wheeler Hall","stop_id":"2388404"},"type":"Feature"},{"geometry":{"coordinates":[-72.28833,43.70236],"type":"Point"},"properties":{"kind":"stop","name":"Hanover Inn","stop_id":"2388405"},"type":"Feature"},{"geometry":{"coordinates":[-72.3052,43.70508],"type":"Point"},"properties":{"kind":"stop","name":"McKenna Road","stop_id":"2388406"},"type":"Feature"},{"geometry":{"coordinates":[-72.29571,43.70287],"type":"Point"},"properties":{"kind":"stop","name":"West St., Opp.","stop_id":"2388407"},"type":"Feature"},{"geometry":{"coordinates":[-72.30943,43.70547],"type":"Point"},"properties":{"kind":"stop","name":"Service Center","stop_id":"2388408"},"type":"Feature"},{"geometry":{"coordinates":[-72.31246,43.70331],"type":"Point"},"properties":{"kind":"stop","name":"King Arthur Caf\u00e9 and Store","stop_id":"2388409"},"type":"Feature"},{"geometry":{"coordinates":[-72.29453,43.70258],"type":"Point"},"properties":{"kind":"stop","name":"West Street","stop_id":"2388410"},"type":"Feature"},{"geometry":{"coordinates":[-72.30518,43.70469],"type":"Point"},"properties":{"kind":"stop","name":"Montshire Road","stop_id":"2388411"},"type":"Feature"},{"geometry":{"coordinates":[-72.30984,43.64565],"type":"Point"},"properties":{"kind":"stop","name":"Main at Church, Opp.","stop_id":"2388412"},"type":"Feature"},{"geometry":{"coordinates":[-72.3047,43.64036],"type":"Point"},"properties":{"kind":"stop","name":"Whitcomb Ave","stop_id":"2388413"},"type":"Feature"},{"geometry":{"coordinates":[-72.30963,43.64579],"type":"Point"},"properties":{"kind":"stop","name":"Main at Church St.","stop_id":"2388414"},"type":"Feature"},{"geometry":{"coordinates":[-72.31392,43.7025],"type":"Point"},"properties":{"kind":"stop","name":"Kildeer, Opp.","stop_id":"2388415"},"type":"Feature"},{"geometry":{"coordinates":[-72.30972,43.70545],"type":"Point"},"properties":{"kind":"stop","name":"Service Center, Opp.","stop_id":"2388416"},"type":"Feature"},{"geometry":{"coordinates":[-72.3148,43.6385],"type":"Point"},"properties":{"kind":"stop","name":"Romano Circle","stop_id":"2388417"},"type":"Feature"},{"geometry":{"coordinates":[-72.31645,43.63543],"type":"Point"},"properties":{"kind":"stop","name":"Glen Rd Plaza, Opp.","stop_id":"2388418"},"type":"Feature"},{"geometry":{"coordinates":[-72.33204,43.64479],"type":"Point"},"properties":{"kind":"stop","name":"Mascoma, Holiday Dr","stop_id":"2388422"},"type":"Feature"},{"geometry":{"coordinates":[-72.25723,43.66523],"type":"Point"},"properties":{"kind":"stop","name":"Timberwood to Hanover","stop_id":"2388423"},"type":"Feature"},{"geometry":{"coordinates":[-72.31623,43.72256],"type":"Point"},"properties":{"kind":"stop","name":"Glen Ridge Rd","stop_id":"2388424"},"type":"Feature"},{"geometry":{"coordinates":[-72.25287,43.66045],"type":"Point"},"properties":{"kind":"stop","name":"Memorial Drive to Hanover","stop_id":"2388425"},"type":"Feature"},{"geometry":{"coordinates":[-72.33443,43.64657],"type":"Point"},"properties":{"kind":"stop","name":"Sykes Ave @ Greyhound","stop_id":"2388426"},"type":"Feature"},{"geometry":{"coordinates":[-72.29146,43.69018],"type":"Point"},"properties":{"kind":"stop","name":"Wyeth Road","stop_id":"2388427"},"type":"Feature"},{"geometry":{"coordinates":[-72.28867,43.70077],"type":"Point"},"properties":{"kind":"stop","name":"Hanover Park","stop_id":"2388428"},"type":"Feature"},{"geometry":{"coordinates":[-72.27588,43.69337],"type":"Point"},"properties":{"kind":"stop","name":"89 Lebanon St SB (Drop Only)","stop_id":"2388430"},"type":"Feature"},{"geometry":{"coordinates":[-72.31664,43.65137],"type":"Point"},"properties":{"kind":"stop","name":"Hartford Town Hall, Opp.","stop_id":"2388431"},"type":"Feature"},{"geometry":{"coordinates":[-72.32043,43.65254],"type":"Point"},"properties":{"kind":"stop","name":"Mascoma Svgs Bk","stop_id":"2388432"},"type":"Feature"},{"geometry":{"coordinates":[-72.28198,43.70296],"type":"Point"},"properties":{"kind":"stop","name":"Valley Rd","stop_id":"2388433"},"type":"Feature"},{"geometry":{"coordinates":[-72.31021,43.64813],"type":"Point"},"properties":{"kind":"stop","name":"West Lebanon","stop_id":"2388434"},"type":"Feature"},{"geometry":{"coordinates":[-72.32426,43.65376],"type":"Point"},"properties":{"kind":"stop","name":"Cascadnac Ave","stop_id":"2388435"},"type":"Feature"},{"geometry":{"coordinates":[-72.32739,43.65479],"type":"Point"},"properties":{"kind":"stop","name":"Shady Lawn","stop_id":"2388436"},"type":"Feature"},{"geometry":{"coordinates":[-72.31471,43.63826],"type":"Point"},"properties":{"kind":"stop","name":"Romano Circle, Opp.","stop_id":"2388437"},"type":"Feature"},{"geometry":{"coordinates":[-72.3165,43.63493],"type":"Point"},"properties":{"kind":"stop","name":"Glen Road Plaza","stop_id":"2388438"},"type":"Feature"},{"geometry":{"coordinates":[-72.31608,43.63207],"type":"Point"},"properties":{"kind":"stop","name":"Shaws","stop_id":"2388439"},"type":"Feature"},{"geometry":{"coordinates":[-72.32101,43.62858],"type":"Point"},"properties":{"kind":"stop","name":"Beverage King EB","stop_id":"2388440"},"type":"Feature"},{"geometry":{"coordinates":[-72.31941,43.62743],"type":"Point"},"properties":{"kind":"stop","name":"Interchange Drive","stop_id":"2388441"},"type":"Feature"},{"geometry":{"coordinates":[-72.32289,43.62471],"type":"Point"},"properties":{"kind":"stop","name":"Walmart","stop_id":"2388442"},"type":"Feature"},{"geometry":{"coordinates":[-72.3254,43.62726],"type":"Point"},"properties":{"kind":"stop","name":"BJ's","stop_id":"2388444"},"type":"Feature"},{"geometry":{"coordinates":[-72.28973,43.69994],"type":"Point"},"properties":{"kind":"stop","name":"Irving","stop_id":"2388445"},"type":"Feature"},{"geometry":{"coordinates":[-72.28948,43.70156],"type":"Point"},"properties":{"kind":"stop","name":"Main at Allen","stop_id":"2388446"},"type":"Feature"},{"geometry":{"coordinates":[-72.28943,43.70029],"type":"Point"},"properties":{"kind":"stop","name":"Hanover PO (Drop Only) NB","stop_id":"2388447"},"type":"Feature"},{"geometry":{"coordinates":[-72.2913,43.69018],"type":"Point"},"properties":{"kind":"stop","name":"Dunster Drive","stop_id":"2388448"},"type":"Feature"},{"geometry":{"coordinates":[-72.27216,43.67561],"type":"Point"},"properties":{"kind":"stop","name":"DHMC","stop_id":"2388449"},"type":"Feature"},{"geometry":{"coordinates":[-72.28089,43.69832],"type":"Point"},"properties":{"kind":"stop","name":"Hanover Co-op","stop_id":"2388450"},"type":"Feature"},{"geometry":{"coordinates":[-72.29334,43.68552],"type":"Point"},"properties":{"kind":"stop","name":"Gould Road (Sachem)","stop_id":"2388451"},"type":"Feature"},{"geometry":{"coordinates":[-72.2896,43.70451],"type":"Point"},"properties":{"kind":"stop","name":"Parkhurst","stop_id":"2388453"},"type":"Feature"},{"geometry":{"coordinates":[-72.2874,43.70754],"type":"Point"},"properties":{"kind":"stop","name":"Maynard Street","stop_id":"2388454"},"type":"Feature"},{"geometry":{"coordinates":[-72.26607,43.67494],"type":"Point"},"properties":{"kind":"stop","name":"Colburn to Hanover","stop_id":"2388455"},"type":"Feature"},{"geometry":{"coordinates":[-72.28019,43.69645],"type":"Point"},"properties":{"kind":"stop","name":"Carter Street","stop_id":"2388456"},"type":"Feature"},{"geometry":{"coordinates":[-72.28965,43.70571],"type":"Point"},"properties":{"kind":"stop","name":"Webster Avenue","stop_id":"2388457"},"type":"Feature"},{"geometry":{"coordinates":[-72.25743,43.66516],"type":"Point"},"properties":{"kind":"stop","name":"Timberwood to Lebanon","stop_id":"2388458"},"type":"Feature"},{"geometry":{"coordinates":[-72.29444,43.67978],"type":"Point"},"properties":{"kind":"stop","name":"Quail Hollow","stop_id":"2388459"},"type":"Feature"},{"geometry":{"coordinates":[-72.31507,43.72491],"type":"Point"},"properties":{"kind":"stop","name":"Park & Ride, Turnpike Rd","stop_id":"2388460"},"type":"Feature"},{"geometry":{"coordinates":[-72.31786,43.72537],"type":"Point"},"properties":{"kind":"stop","name":"Moore Lane","stop_id":"2388461"},"type":"Feature"},{"geometry":{"coordinates":[-72.26797,43.63846],"type":"Point"},"properties":{"kind":"stop","name":"Dulacs","stop_id":"2388462"},"type":"Feature"},{"geometry":{"coordinates":[-72.25819,43.63883],"type":"Point"},"properties":{"kind":"stop","name":"Rivermill","stop_id":"2388463"},"type":"Feature"},{"geometry":{"coordinates":[-72.25553,43.64069],"type":"Point"},"properties":{"kind":"stop","name":"25 Mechanic St","stop_id":"2388464"},"type":"Feature"},{"geometry":{"coordinates":[-72.30304,43.63874],"type":"Point"},"properties":{"kind":"stop","name":"Westboro Woods","stop_id":"2388465"},"type":"Feature"},{"geometry":{"coordinates":[-72.28917,43.63617],"type":"Point"},"properties":{"kind":"stop","name":"Miracle Mile Plaza, Opp.","stop_id":"2388466"},"type":"Feature"},{"geometry":{"coordinates":[-72.27447,43.63776],"type":"Point"},"properties":{"kind":"stop","name":"Golf Course","stop_id":"2388467"},"type":"Feature"},{"geometry":{"coordinates":[-72.28001,43.70003],"type":"Point"},"properties":{"kind":"stop","name":"Thompson Lot","stop_id":"2388501"},"type":"Feature"},{"geometry":{"coordinates":[-72.28681,43.70102],"type":"Point"},"properties":{"kind":"stop","name":"Visual Arts Ctr","stop_id":"2388503"},"type":"Feature"},{"geometry":{"coordinates":[-72.28868,43.7009],"type":"Point"},"properties":{"kind":"stop","name":"Hanover Park, Opp.","stop_id":"2388504"},"type":"Feature"},{"geometry":{"coordinates":[-72.28777,43.70312],"type":"Point"},"properties":{"kind":"stop","name":"Reed/Dartmouth Hall","stop_id":"2388505"},"type":"Feature"},{"geometry":{"coordinates":[-72.2863,43.70656],"type":"Point"},"properties":{"kind":"stop","name":"Burke","stop_id":"2388506"},"type":"Feature"},{"geometry":{"coordinates":[-72.2842,43.70979],"type":"Point"},"properties":{"kind":"stop","name":"G Lot","stop_id":"2388507"},"type":"Feature"},{"geometry":{"coordinates":[-72.28202,43.70946],"type":"Point"},"properties":{"kind":"stop","name":"Dewey Lot","stop_id":"2388508"},"type":"Feature"},{"geometry":{"coordinates":[-72.29448,43.70498],"type":"Point"},"properties":{"kind":"stop","name":"Tuck Circle","stop_id":"2388509"},"type":"Feature"},{"geometry":{"coordinates":[-72.28249,43.69956],"type":"Point"},"properties":{"kind":"stop","name":"Summer St NB","stop_id":"2388511"},"type":"Feature"},{"geometry":{"coordinates":[-72.2853,43.70308],"type":"Point"},"properties":{"kind":"stop","name":"Alumni Gym","stop_id":"2388512"},"type":"Feature"},{"geometry":{"coordinates":[-72.28947,43.70591],"type":"Point"},"properties":{"kind":"stop","name":"Carson","stop_id":"2388513"},"type":"Feature"},{"geometry":{"coordinates":[-72.28796,43.70505],"type":"Point"},"properties":{"kind":"stop","name":"Wheeler Hall, Opp.","stop_id":"2388514"},"type":"Feature"},{"geometry":{"coordinates":[-72.28761,43.70751],"type":"Point"},"properties":{"kind":"stop","name":"Maynard","stop_id":"2388515"},"type":"Feature"},{"geometry":{"coordinates":[-72.28855,43.70419],"type":"Point"},"properties":{"kind":"stop","name":"Wentworth St","stop_id":"2388516"},"type":"Feature"},{"geometry":{"coordinates":[-72.26657,43.6854],"type":"Point"},"properties":{"kind":"stop","name":"Lot 9 - Stop 4","stop_id":"2388552"},"type":"Feature"},{"geometry":{"coordinates":[-72.274,43.67737],"type":"Point"},"properties":{"kind":"stop","name":"North Entrance","stop_id":"2388553"},"type":"Feature"},{"geometry":{"coordinates":[-72.26589,43.68496],"type":"Point"},"properties":{"kind":"stop","name":"Lot 9 - Stop 3","stop_id":"2429129"},"type":"Feature"},{"geometry":{"coordinates":[-72.26603,43.68572],"type":"Point"},"properties":{"kind":"stop","name":"Lot 9 - Stop 2","stop_id":"2429130"},"type":"Feature"},{"geometry":{"coordinates":[-72.26643,43.68558],"type":"Point"},"properties":{"kind":"stop","name":"Lot 9 - Stop 1","stop_id":"2429131"},"type":"Feature"},{"geometry":{"coordinates":[-72.26894,43.67383],"type":"Point"},"properties":{"kind":"stop","name":"Lot 20 - Stop 4","stop_id":"2429132"},"type":"Feature"},{"geometry":{"coordinates":[-72.26928,43.67527],"type":"Point"},"properties":{"kind":"stop","name":"Lot 20 - Stop 5","stop_id":"2429133"},"type":"Feature"},{"geometry":{"coordinates":[-72.26642,43.67415],"type":"Point"},"properties":{"kind":"stop","name":"Lot 20 - Stop 3","stop_id":"2429134"},"type":"Feature"},{"geometry":{"coordinates":[-72.26674,43.67514],"type":"Point"},"properties":{"kind":"stop","name":"Lot 20 - Stop 2","stop_id":"2429135"},"type":"Feature"},{"geometry":{"coordinates":[-72.26736,43.67597],"type":"Point"},"properties":{"kind":"stop","name":"Lot 20 - Stop 1","stop_id":"2429136"},"type":"Feature"},{"geometry":{"coordinates":[-72.28522,43.68302],"type":"Point"},"properties":{"kind":"stop","name":"Sachem Village","stop_id":"2535969"},"type":"Feature"},{"geometry":{"coordinates":[-72.33178,43.64518],"type":"Point"},"properties":{"kind":"stop","name":"Sykes @ Holiday Drive","stop_id":"2555689"},"type":"Feature"},{"geometry":{"coordinates":[-72.34356,43.64147],"type":"Point"},"properties":{"kind":"stop","name":"Aquatic Center","stop_id":"2555690"},"type":"Feature"},{"geometry":{"coordinates":[-72.32417,43.66875],"type":"Point"},"properties":{"kind":"stop","name":"Bugbee @ Brookview","stop_id":"2555696"},"type":"Feature"},{"geometry":{"coordinates":[-72.32157,43.66728],"type":"Point"},"properties":{"kind":"stop","name":"Sterling Springs","stop_id":"2555697"},"type":"Feature"},{"geometry":{"coordinates":[-72.26197,43.6699],"type":"Point"},"properties":{"kind":"stop","name":"401 Mt Support","stop_id":"3463443"},"type":"Feature"},{"geometry":{"coordinates":[-72.26217,43.67026],"type":"Point"},"properties":{"kind":"stop","name":"402 Mt Support","stop_id":"3463444"},"type":"Feature"},{"geometry":{"coordinates":[-72.3254,43.64374],"type":"Point"},"properties":{"kind":"stop","name":"Wentworth Way","stop_id":"4149977"},"type":"Feature"},{"geometry":{"coordinates":[-72.09846,43.64867],"type":"Point"},"properties":{"kind":"stop","name":"Mascoma HS","stop_id":"4149978"},"type":"Feature"},{"geometry":{"coordinates":[-72.24798,43.64313],"type":"Point"},"properties":{"kind":"stop","name":"Elm to Lebanon","stop_id":"4149979"},"type":"Feature"},{"geometry":{"coordinates":[-72.24795,43.64302],"type":"Point"},"properties":{"kind":"stop","name":"Elm to Canaan","stop_id":"4149980"},"type":"Feature"},{"geometry":{"coordinates":[-72.0968,43.6491],"type":"Point"},"properties":{"kind":"stop","name":"South Rd","stop_id":"4149981"},"type":"Feature"},{"geometry":{"coordinates":[-72.23,43.63795],"type":"Point"},"properties":{"kind":"stop","name":"Lebanon Middle School, Opp","stop_id":"4149982"},"type":"Feature"},{"geometry":{"coordinates":[-72.23021,43.63779],"type":"Point"},"properties":{"kind":"stop","name":"Lebanon Middle School","stop_id":"4149983"},"type":"Feature"},{"geometry":{"coordinates":[-72.29712,43.68174],"type":"Point"},"properties":{"kind":"stop","name":"River House at Quail Hollow","stop_id":"4223978"},"type":"Feature"},{"geometry":{"coordinates":[-72.3153,43.64767],"type":"Point"},"properties":{"kind":"stop","name":"White River Junction, VT","stop_id":"4223992"},"type":"Feature"},{"geometry":{"coordinates":[-72.31734,43.69834],"type":"Point"},"properties":{"kind":"stop","name":"Norwich Farmers Market \u2013 Saturdays, May-Oct only","stop_id":"4226622"},"type":"Feature"},{"geometry":{"coordinates":[-72.31767,43.69817],"type":"Point"},"properties":{"kind":"stop","name":"Norwich Farmers Market, Opp. \u2013 Saturdays, May-Oct only","stop_id":"4226623"},"type":"Feature"},{"geometry":{"coordinates":[-72.16784,43.64858],"type":"Point"},"properties":{"kind":"stop","name":"Daniels Drive","stop_id":"4244230"},"type":"Feature"},{"geometry":{"coordinates":[-72.16858,43.64866],"type":"Point"},"properties":{"kind":"stop","name":"Johnson Drive","stop_id":"4244231"},"type":"Feature"},{"geometry":{"coordinates":[-72.26243,43.67623],"type":"Point"},"properties":{"kind":"stop","name":"Centerra Co-Op","stop_id":"4247219"},"type":"Feature"},{"geometry":{"coordinates":[-72.26003,43.67777],"type":"Point"},"properties":{"kind":"stop","name":"River Valley Club","stop_id":"4247220"},"type":"Feature"},{"geometry":{"coordinates":[-72.28581,43.70311],"type":"Point"},"properties":{"kind":"stop","name":"Observatory Road","stop_id":"4247323"},"type":"Feature"},{"geometry":{"coordinates":[-72.28163,43.70065],"type":"Point"},"properties":{"kind":"stop","name":"Leverone Field House","stop_id":"4249551"},"type":"Feature"},{"geometry":{"coordinates":[-72.26795,43.6733],"type":"Point"},"properties":{"kind":"stop","name":"Outpatient Surgery Center","stop_id":"4254386"},"type":"Feature"},{"geometry":{"coordinates":[-72.25245,43.64288],"type":"Point"},"properties":{"kind":"stop","name":"Court Street","stop_id":"4258293"},"type":"Feature"},{"geometry":{"coordinates":[-72.29817,43.70415],"type":"Point"},"properties":{"kind":"stop","name":"Ledyard Lot","stop_id":"4259140"},"type":"Feature"}],"type":"FeatureCollection"}
