{"features":[{"geometry":{"coordinates":[[-75.50593,38.37601],[-75.50393,38.37664],[-75.50384,38.37588],[-75.50448,38.37546],[-75.53225,38.37136],[-75.53513,38.37053],[-75.5453,38.36679],[-75.54912,38.36597],[-75.55176,38.36576],[-75.55434,38.36584],[-75.56594,38.36788],[-75.56672,38.36584],[-75.5713,38.35821],[-75.57142,38.3574],[-75.57123,38.35504],[-75.57159,38.35407],[-75.5744,38.3508],[-75.5755,38.34991],[-75.57631,38.34953],[-75.58212,38.34786],[-75.59691,38.34794],[-75.60224,38.34864],[-75.60336,38.34563],[-75.60373,38.34564],[-75.60418,38.34527],[-75.60443,38.34457],[-75.60398,38.34441],[-75.6064,38.33964],[-75.60623,38.33944],[-75.59935,38.33817],[-75.59849,38.34573],[-75.59775,38.34849],[-75.59813,38.3509],[-75.5953,38.36111],[-75.59508,38.36203],[-75.59534,38.36207],[-75.59572,38.36109],[-75.59531,38.36103],[-75.59485,38.3629],[-75.59489,38.36314],[-75.59608,38.36323],[-75.59522,38.36582],[-75.59839,38.36562],[-75.59828,38.36482],[-75.59969,38.36442],[-75.60026,38.36404],[-75.6007,38.36444],[-75.60059,38.36546],[-75.60303,38.36525],[-75.60457,38.36537],[-75.60632,38.36486],[-75.60641,38.36464],[-75.60667,38.36468],[-75.60666,38.36483],[-75.60455,38.36536],[-75.60368,38.36528],[-75.60402,38.36398],[-75.60242,38.36273],[-75.60155,38.36245],[-75.59965,38.36303],[-75.59624,38.3631],[-75.59745,38.35971],[-75.5991,38.35902],[-75.59967,38.35846],[-75.60263,38.34739],[-75.60337,38.34564],[-75.60378,38.34561],[-75.60438,38.34475],[-75.60443,38.34456],[-75.60398,38.34441],[-75.60638,38.33954],[-75.59936,38.33816],[-75.5985,38.34572],[-75.59783,38.34806],[-75.59691,38.34792],[-75.58212,38.34783],[-75.57631,38.34951],[-75.57494,38.35025],[-75.57159,38.35404],[-75.57121,38.35504],[-75.5714,38.35739],[-75.57128,38.3582],[-75.56684,38.36557],[-75.56613,38.36726],[-75.56578,38.36741],[-75.56541,38.36746],[-75.55494,38.36543],[-75.55281,38.36528],[-75.54892,38.3655],[-75.54564,38.36617],[-75.53512,38.36999],[-75.53236,38.37078],[-75.50373,38.37506],[-75.50391,38.37665],[-75.50593,38.37601]],"type":"LineString"},"properties":{"color":"#472107","color_name":"black","kind":"route","label":"101","long":"Downtown Salisbury Trolley","route_id":"101","text_color":"#FFFFFF","type_label":"Bus"},"type":"Feature"},{"geometry":{"coordinates":[[-75.5059,38.37604],[-75.50394,38.37662],[-75.50385,38.37589],[-75.50448,38.37545],[-75.53221,38.37137],[-75.53544,38.37042],[-75.54459,38.36701],[-75.54752,38.36622],[-75.54937,38.36595],[-75.55163,38.36576],[-75.55435,38.36585],[-75.56594,38.36786],[-75.56655,38.3662],[-75.57126,38.35833],[-75.57143,38.35738],[-75.57119,38.35569],[-75.57134,38.35466],[-75.57215,38.35332],[-75.57497,38.35027],[-75.57633,38.34954],[-75.58216,38.34786],[-75.59694,38.34795],[-75.60222,38.34864],[-75.60335,38.34562],[-75.60377,38.34567],[-75.60419,38.34516],[-75.60442,38.34456],[-75.60396,38.34443],[-75.60715,38.33826],[-75.60797,38.3371],[-75.60791,38.33694],[-75.60733,38.33679],[-75.60694,38.33714],[-75.60438,38.33718],[-75.60459,38.33872],[-75.60445,38.33911],[-75.59936,38.33817],[-75.59877,38.3435],[-75.58925,38.34347],[-75.58733,38.34319],[-75.58766,38.34181],[-75.59011,38.34206],[-75.58978,38.34349],[-75.59877,38.34353],[-75.59853,38.3457],[-75.60089,38.34598],[-75.60157,38.3449],[-75.60164,38.34414],[-75.60415,38.34454],[-75.60397,38.34529],[-75.60412,38.34531],[-75.60441,38.34456],[-75.6037,38.34437],[-75.60203,38.34848],[-75.59695,38.34791],[-75.58211,38.34781],[-75.57631,38.3495],[-75.57493,38.35026],[-75.57157,38.35404],[-75.57119,38.35504],[-75.57129,38.35817],[-75.56684,38.36557],[-75.56611,38.36727],[-75.56576,38.36742],[-75.55579,38.36552],[-75.55153,38.36529],[-75.54892,38.3655],[-75.54476,38.36642],[-75.53507,38.37002],[-75.53239,38.37077],[-75.50373,38.37507],[-75.50393,38.37664],[-75.50437,38.37664],[-75.5059,38.37604]],"type":"LineString"},"properties":{"color":"#472107","color_name":"black","kind":"route","label":"105a","long":"Salisbury University","route_id":"105a","text_color":"#FFFFFF","type_label":"Bus"},"type":"Feature"},{"geometry":{"coordinates":[[-75.5059,38.37604],[-75.50394,38.37662],[-75.50385,38.37589],[-75.50448,38.37545],[-75.53221,38.37137],[-75.53544,38.37042],[-75.54459,38.36701],[-75.54752,38.36622],[-75.54937,38.36595],[-75.55163,38.36576],[-75.55435,38.36585],[-75.56594,38.36786],[-75.56655,38.3662],[-75.57126,38.35833],[-75.57143,38.35738],[-75.57119,38.35569],[-75.57134,38.35466],[-75.57215,38.35332],[-75.57497,38.35027],[-75.57633,38.34954],[-75.58216,38.34786],[-75.59694,38.34795],[-75.60222,38.34864],[-75.60335,38.34562],[-75.60377,38.34567],[-75.60419,38.34516],[-75.60442,38.34456],[-75.60396,38.34443],[-75.60715,38.33826],[-75.60797,38.3371],[-75.60791,38.33694],[-75.60733,38.33679],[-75.60694,38.33714],[-75.60438,38.33718],[-75.60459,38.33872],[-75.60445,38.33911],[-75.59936,38.33817],[-75.59877,38.3435],[-75.58925,38.34347],[-75.58733,38.34319],[-75.58766,38.34181],[-75.59011,38.34206],[-75.58978,38.34349],[-75.59877,38.34353],[-75.59853,38.3457],[-75.60089,38.34598],[-75.60157,38.3449],[-75.60164,38.34414],[-75.60415,38.34454],[-75.60397,38.34529],[-75.60412,38.34531],[-75.60441,38.34456],[-75.6037,38.34437],[-75.60203,38.34848],[-75.59695,38.34791],[-75.58211,38.34781],[-75.57631,38.3495],[-75.57493,38.35026],[-75.57157,38.35404],[-75.57119,38.35504],[-75.57129,38.35817],[-75.56684,38.36557],[-75.56611,38.36727],[-75.56576,38.36742],[-75.55579,38.36552],[-75.55153,38.36529],[-75.54892,38.3655],[-75.54476,38.36642],[-75.53507,38.37002],[-75.53239,38.37077],[-75.50373,38.37507],[-75.50393,38.37664],[-75.50437,38.37664],[-75.5059,38.37604]],"type":"LineString"},"properties":{"color":"#472107","color_name":"black","kind":"route","label":"105b","long":"Salisbury University","route_id":"105b","text_color":"#FFFFFF","type_label":"Bus"},"type":"Feature"},{"geometry":{"coordinates":[[-75.50596,38.37601],[-75.50394,38.37663],[-75.50353,38.37355],[-75.50262,38.37367],[-75.50217,38.37327],[-75.50164,38.37324],[-75.50188,38.37437],[-75.5025,38.37411],[-75.50263,38.37369],[-75.50352,38.37358],[-75.50378,38.37555],[-75.5322,38.37137],[-75.53581,38.37031],[-75.5461,38.36654],[-75.55025,38.36584],[-75.553,38.36577],[-75.55516,38.36594],[-75.5734,38.36925],[-75.5766,38.36944],[-75.58319,38.36891],[-75.59081,38.36737],[-75.59572,38.36769],[-75.59829,38.36737],[-75.59884,38.36722],[-75.59874,38.367],[-75.59726,38.36734],[-75.59583,38.36734],[-75.59554,38.36715],[-75.59543,38.36637],[-75.5969,38.36623],[-75.59721,38.36735],[-75.59543,38.36731],[-75.59538,38.36786],[-75.59316,38.37313],[-75.59259,38.37297],[-75.59205,38.37417],[-75.59258,38.37437],[-75.58999,38.37895],[-75.58921,38.37981],[-75.58265,38.38458],[-75.57453,38.39277],[-75.57242,38.39584],[-75.56965,38.40175],[-75.56924,38.40195],[-75.56899,38.40183],[-75.56889,38.40134],[-75.56851,38.40091],[-75.56868,38.4006],[-75.56722,38.40038],[-75.56681,38.40202],[-75.56468,38.40171],[-75.56427,38.40084],[-75.5626,38.401],[-75.5625,38.40546],[-75.56274,38.40619],[-75.56473,38.40914],[-75.56562,38.4097],[-75.56745,38.41004],[-75.56743,38.41095],[-75.5661,38.41598],[-75.56292,38.41538],[-75.5632,38.41431],[-75.56244,38.41398],[-75.56201,38.41437],[-75.5617,38.41515],[-75.56611,38.41599],[-75.56486,38.42005],[-75.56448,38.42201],[-75.56444,38.42748],[-75.56426,38.42929],[-75.56024,38.42986],[-75.56019,38.42959],[-75.55983,38.42935],[-75.55901,38.42988],[-75.55923,38.43011],[-75.56397,38.42928],[-75.56538,38.42942],[-75.56584,38.42969],[-75.56864,38.44058],[-75.5689,38.44666],[-75.56969,38.44826],[-75.5739,38.45454],[-75.57417,38.45513],[-75.57425,38.45602],[-75.55998,38.45555],[-75.56008,38.45313],[-75.55875,38.4531],[-75.56433,38.43019],[-75.5647,38.42745],[-75.56473,38.42193],[-75.56635,38.41604],[-75.57043,38.41669],[-75.57088,38.41522],[-75.57021,38.41481],[-75.57098,38.41477],[-75.57083,38.4097],[-75.5767,38.40875],[-75.57646,38.40756],[-75.57821,38.40369],[-75.57289,38.40214],[-75.57244,38.40218],[-75.57184,38.40262],[-75.56976,38.40239],[-75.56903,38.40196],[-75.56888,38.40134],[-75.56837,38.40106],[-75.56794,38.40187],[-75.56758,38.40203],[-75.56485,38.40178],[-75.56453,38.4015],[-75.56383,38.39961],[-75.56366,38.39846],[-75.56491,38.39816],[-75.56509,38.39787],[-75.56454,38.39666],[-75.56368,38.39632],[-75.56417,38.39583],[-75.56386,38.3956],[-75.56294,38.39571],[-75.56264,38.39479],[-75.57302,38.39252],[-75.57357,38.39247],[-75.57458,38.39292],[-75.58273,38.38454],[-75.58982,38.37939],[-75.59179,38.37618],[-75.59356,38.37251],[-75.59556,38.36758],[-75.59544,38.36637],[-75.59846,38.3661],[-75.59879,38.36711],[-75.59693,38.36754],[-75.59556,38.3676],[-75.5908,38.36726],[-75.58323,38.36877],[-75.57625,38.36926],[-75.57234,38.36889],[-75.55613,38.36559],[-75.55232,38.3653],[-75.54885,38.36551],[-75.54465,38.36646],[-75.53512,38.36999],[-75.53236,38.37077],[-75.50372,38.37507],[-75.50392,38.37665],[-75.50596,38.37601]],"type":"LineString"},"properties":{"color":"#36C52E","color_name":"green","kind":"route","label":"114","long":"Salisbury & Delmar","route_id":"114","text_color":"#FFFFFF","type_label":"Bus"},"type":"Feature"},{"geometry":{"coordinates":[[-75.50593,38.37602],[-75.50393,38.37663],[-75.50385,38.37589],[-75.50447,38.37545],[-75.5322,38.37137],[-75.53497,38.37058],[-75.54535,38.36677],[-75.54993,38.36589],[-75.55307,38.36579],[-75.55612,38.36608],[-75.57306,38.3692],[-75.57624,38.36946],[-75.57836,38.36941],[-75.58376,38.36884],[-75.59032,38.36743],[-75.59604,38.36768],[-75.59828,38.36738],[-75.5988,38.36712],[-75.5977,38.36742],[-75.59555,38.3676],[-75.59544,38.36638],[-75.59691,38.36623],[-75.5968,38.36521],[-75.59922,38.36454],[-75.60049,38.36451],[-75.60185,38.36403],[-75.60294,38.36324],[-75.6039,38.36406],[-75.60571,38.36291],[-75.60707,38.36153],[-75.60815,38.35959],[-75.6084,38.35984],[-75.60969,38.35907],[-75.60913,38.35841],[-75.6121,38.35667],[-75.61339,38.35566],[-75.61398,38.35436],[-75.61598,38.35189],[-75.61643,38.34999],[-75.6211,38.34838],[-75.6223,38.34842],[-75.62301,38.34817],[-75.62336,38.34759],[-75.62323,38.34503],[-75.62426,38.34354],[-75.62514,38.34358],[-75.62676,38.3441],[-75.6276,38.34408],[-75.62779,38.34391],[-75.62751,38.3438],[-75.62734,38.34406],[-75.62677,38.34409],[-75.62515,38.34358],[-75.62413,38.34351],[-75.61639,38.34102],[-75.60679,38.33893],[-75.6079,38.33719],[-75.61273,38.33086],[-75.61292,38.33091],[-75.61325,38.33154],[-75.61419,38.33035],[-75.61481,38.33017],[-75.61427,38.32883],[-75.61641,38.32648],[-75.61711,38.32768],[-75.61765,38.32711],[-75.61791,38.32726],[-75.6176,38.32765],[-75.61778,38.32802],[-75.61746,38.32821],[-75.61844,38.32971],[-75.61956,38.33075],[-75.61624,38.33342],[-75.61328,38.32688],[-75.61022,38.32938],[-75.61214,38.33105],[-75.61214,38.33125],[-75.60799,38.33666],[-75.60622,38.33943],[-75.59935,38.33816],[-75.59851,38.34569],[-75.59775,38.34849],[-75.59811,38.35008],[-75.59811,38.35099],[-75.59618,38.35786],[-75.59588,38.35778],[-75.59556,38.35731],[-75.59524,38.35631],[-75.5975,38.34906],[-75.59475,38.34902],[-75.5951,38.34791],[-75.58213,38.34783],[-75.5763,38.34952],[-75.57544,38.34992],[-75.57462,38.35052],[-75.57212,38.35328],[-75.57121,38.35502],[-75.57141,38.3574],[-75.5713,38.35818],[-75.56671,38.36581],[-75.56613,38.36725],[-75.56578,38.36741],[-75.5547,38.3654],[-75.55161,38.36529],[-75.54889,38.36551],[-75.54482,38.3664],[-75.53511,38.36999],[-75.53239,38.37077],[-75.50374,38.37506],[-75.50392,38.37665],[-75.50593,38.37602]],"type":"LineString"},"properties":{"color":"#FF6E00","color_name":"orange","kind":"route","label":"154","long":"South Salisbury - Fruitland","route_id":"154","text_color":"#FFFFFF","type_label":"Bus"},"type":"Feature"},{"geometry":{"coordinates":[[-75.50596,38.37602],[-75.50392,38.37664],[-75.50422,38.37986],[-75.50341,38.38286],[-75.50513,38.38536],[-75.50977,38.38409],[-75.51662,38.37963],[-75.51519,38.37844],[-75.51461,38.37761],[-75.51472,38.37513],[-75.52415,38.3738],[-75.52521,38.37388],[-75.52624,38.37428],[-75.5273,38.37238],[-75.52777,38.37212],[-75.53377,38.37095],[-75.54468,38.36698],[-75.54893,38.36599],[-75.55143,38.36579],[-75.55475,38.36587],[-75.57289,38.36915],[-75.57744,38.36944],[-75.58432,38.36872],[-75.59054,38.36739],[-75.59554,38.36768],[-75.59706,38.3676],[-75.60164,38.3663],[-75.60329,38.36609],[-75.60366,38.3653],[-75.60458,38.36538],[-75.60632,38.36487],[-75.60817,38.36474],[-75.61146,38.36365],[-75.61398,38.36411],[-75.61926,38.36888],[-75.62206,38.36893],[-75.62228,38.36763],[-75.62204,38.36764],[-75.62204,38.36892],[-75.61754,38.36884],[-75.6141,38.36958],[-75.61513,38.37097],[-75.61773,38.3763],[-75.61063,38.37851],[-75.61076,38.38117],[-75.60272,38.38148],[-75.60181,38.38852],[-75.60301,38.39267],[-75.60402,38.39516],[-75.60452,38.40014],[-75.60456,38.40313],[-75.60182,38.41035],[-75.59562,38.40934],[-75.59551,38.40887],[-75.59565,38.40864],[-75.59687,38.40872],[-75.59751,38.40852],[-75.59778,38.4082],[-75.59765,38.4081],[-75.5969,38.40868],[-75.59561,38.40859],[-75.59547,38.40878],[-75.59557,38.40933],[-75.59307,38.40905],[-75.58357,38.40717],[-75.58257,38.40725],[-75.57949,38.40845],[-75.57081,38.40969],[-75.57098,38.41476],[-75.57021,38.41482],[-75.57087,38.4152],[-75.57042,38.41669],[-75.56635,38.41604],[-75.56753,38.41203],[-75.56773,38.40809],[-75.56827,38.40545],[-75.57269,38.39584],[-75.57466,38.39273],[-75.58165,38.38556],[-75.58413,38.38339],[-75.5886,38.38041],[-75.58984,38.37937],[-75.5923,38.37526],[-75.59359,38.37247],[-75.59546,38.3679],[-75.59544,38.36638],[-75.5969,38.36623],[-75.59719,38.36734],[-75.59544,38.36731],[-75.5952,38.36825],[-75.58869,38.37086],[-75.58258,38.37285],[-75.57886,38.37309],[-75.57874,38.37188],[-75.57801,38.3713],[-75.57311,38.37113],[-75.57327,38.36812],[-75.57374,38.36713],[-75.57347,38.36707],[-75.57325,38.3681],[-75.57357,38.36814],[-75.58243,38.36781],[-75.58259,38.36803],[-75.58187,38.36863],[-75.58073,38.36902],[-75.57681,38.36927],[-75.57339,38.36906],[-75.55563,38.3655],[-75.55509,38.36504],[-75.55542,38.36408],[-75.55232,38.364],[-75.55194,38.36377],[-75.5493,38.36411],[-75.54791,38.36409],[-75.54797,38.36298],[-75.54717,38.36322],[-75.54736,38.36392],[-75.54699,38.3641],[-75.5472,38.36461],[-75.54785,38.3646],[-75.5477,38.367],[-75.54611,38.36686],[-75.54336,38.36788],[-75.54501,38.36977],[-75.54745,38.37089],[-75.54778,38.36567],[-75.54474,38.36642],[-75.53413,38.37031],[-75.53064,38.37109],[-75.50429,38.37499],[-75.50369,38.3747],[-75.50353,38.37356],[-75.50262,38.37367],[-75.50218,38.37328],[-75.50165,38.37324],[-75.50188,38.37436],[-75.50248,38.37411],[-75.50264,38.37369],[-75.50351,38.37357],[-75.50391,38.37665],[-75.50596,38.37602]],"type":"LineString"},"properties":{"color":"#1500FF","color_name":"blue","kind":"route","label":"198","long":"East & West Salisbury","route_id":"198","text_color":"#FFFFFF","type_label":"Bus"},"type":"Feature"},{"geometry":{"coordinates":[[-75.50596,38.37601],[-75.50393,38.37664],[-75.50383,38.37589],[-75.50447,38.37545],[-75.53223,38.37136],[-75.53512,38.37053],[-75.5461,38.36653],[-75.55032,38.36584],[-75.553,38.36577],[-75.55572,38.36601],[-75.57294,38.36915],[-75.57633,38.36945],[-75.58315,38.36892],[-75.59075,38.36738],[-75.59556,38.36768],[-75.59695,38.36762],[-75.59884,38.36721],[-75.59874,38.36699],[-75.59693,38.36738],[-75.59579,38.36733],[-75.59556,38.36715],[-75.59544,38.36637],[-75.59697,38.36621],[-75.59846,38.3661],[-75.5988,38.36711],[-75.59694,38.36754],[-75.59555,38.3676],[-75.5908,38.36726],[-75.58323,38.36877],[-75.57632,38.36927],[-75.5722,38.36887],[-75.55577,38.36553],[-75.55308,38.36529],[-75.54892,38.36549],[-75.54476,38.36641],[-75.53507,38.37],[-75.53132,38.37097],[-75.50429,38.37499],[-75.50369,38.3747],[-75.50353,38.37357],[-75.50265,38.37367],[-75.50219,38.37328],[-75.50163,38.37323],[-75.50189,38.37436],[-75.50249,38.37411],[-75.50264,38.37368],[-75.50352,38.37357],[-75.50368,38.37469],[-75.50311,38.37516],[-75.50057,38.37555],[-75.46466,38.38074],[-75.42756,38.38476],[-75.42248,38.38496],[-75.42162,38.38659],[-75.41739,38.39083],[-75.40937,38.39029],[-75.40689,38.38547],[-75.40675,38.38463],[-75.36965,38.38397],[-75.36541,38.38433],[-75.3566,38.38592],[-75.35249,38.38628],[-75.34937,38.3861],[-75.33538,38.3841],[-75.33188,38.3841],[-75.31315,38.38503],[-75.31195,38.38486],[-75.31183,38.3846],[-75.31203,38.38415],[-75.31105,38.38362],[-75.31086,38.38377],[-75.31052,38.38369],[-75.31048,38.38392],[-75.31105,38.38365],[-75.312,38.38417],[-75.31128,38.38495],[-75.3099,38.38511],[-75.30723,38.38486],[-75.30321,38.38387],[-75.28821,38.37798],[-75.22676,38.34538],[-75.22276,38.34394],[-75.21822,38.34315],[-75.2171,38.34273],[-75.21369,38.34006],[-75.21299,38.33926],[-75.21035,38.33345],[-75.21001,38.3323],[-75.2099,38.33066],[-75.21012,38.32947],[-75.21486,38.33076],[-75.2184,38.32503],[-75.21616,38.32433],[-75.21515,38.32462],[-75.21432,38.32462],[-75.21152,38.32403],[-75.20975,38.3303],[-75.2099,38.33268],[-75.21096,38.33524],[-75.20931,38.33639],[-75.2097,38.3368],[-75.21031,38.33857],[-75.21057,38.33953],[-75.2105,38.34029],[-75.21062,38.33986],[-75.21039,38.33879],[-75.20972,38.3368],[-75.20935,38.33638],[-75.21098,38.33526],[-75.21222,38.33815],[-75.21238,38.33989],[-75.21186,38.34083],[-75.21102,38.34148],[-75.20927,38.3419],[-75.20149,38.3411],[-75.19885,38.34114],[-75.19639,38.34144],[-75.19306,38.34222],[-75.17805,38.34688],[-75.17531,38.34737],[-75.17123,38.34724],[-75.16799,38.34639],[-75.16769,38.34708],[-75.16841,38.35116],[-75.16891,38.35794],[-75.16879,38.36013],[-75.16789,38.36288],[-75.16495,38.36819],[-75.1631,38.3744],[-75.16327,38.37555],[-75.16373,38.37661],[-75.16495,38.37768],[-75.1664,38.37844],[-75.16732,38.37773],[-75.16974,38.37856],[-75.17016,38.37829],[-75.16955,38.37782],[-75.16887,38.37833],[-75.16764,38.37774],[-75.16707,38.37779],[-75.16644,38.37838],[-75.16557,38.37794],[-75.16475,38.37747],[-75.16388,38.3766],[-75.16348,38.37589],[-75.16317,38.3743],[-75.16421,38.37034],[-75.16498,38.36819],[-75.16785,38.36299],[-75.16882,38.36012],[-75.16892,38.35751],[-75.16852,38.35223],[-75.16771,38.3471],[-75.168,38.34639],[-75.16122,38.34334],[-75.16308,38.34081],[-75.1612,38.34333],[-75.14959,38.33814],[-75.14785,38.33763],[-75.1451,38.33722],[-75.1423,38.33727],[-75.12508,38.3394],[-75.12043,38.33936],[-75.1165,38.33888],[-75.10299,38.3355],[-75.10255,38.3352],[-75.10279,38.33469],[-75.10167,38.3344],[-75.10138,38.33508],[-75.08801,38.33165],[-75.08764,38.33126],[-75.08961,38.32751],[-75.08871,38.32738]],"type":"LineString"},"properties":{"color":"#B3B1C1","color_name":"gray","kind":"route","label":"203E","long":"Salisbury - Ocean City","route_id":"203E","text_color":"#FFFFFF","type_label":"Bus"},"type":"Feature"},{"geometry":{"coordinates":[[-75.08878,38.32742],[-75.08833,38.32734],[-75.0856,38.33264],[-75.08683,38.33305],[-75.08752,38.33175],[-75.0879,38.33171],[-75.10774,38.33689],[-75.10745,38.33761],[-75.11121,38.3386],[-75.11157,38.33789],[-75.11489,38.33874],[-75.1188,38.33939],[-75.12456,38.3396],[-75.14239,38.33747],[-75.14512,38.33743],[-75.14647,38.33756],[-75.14919,38.33822],[-75.15504,38.34078],[-75.1558,38.33987],[-75.15681,38.33975],[-75.15859,38.3404],[-75.15993,38.34148],[-75.16193,38.34243],[-75.16322,38.34066],[-75.16189,38.34242],[-75.16542,38.34405],[-75.16488,38.34505],[-75.16492,38.34527],[-75.16766,38.34656],[-75.16851,38.35247],[-75.1689,38.3575],[-75.1688,38.36003],[-75.1679,38.36286],[-75.16487,38.36834],[-75.1631,38.37439],[-75.16341,38.37601],[-75.16373,38.37662],[-75.16494,38.37767],[-75.1664,38.37843],[-75.16732,38.37773],[-75.16979,38.37859],[-75.17016,38.37831],[-75.16957,38.37781],[-75.1689,38.37835],[-75.16763,38.37773],[-75.16708,38.37778],[-75.16645,38.37837],[-75.16582,38.37807],[-75.16477,38.37749],[-75.16406,38.37679],[-75.16349,38.37591],[-75.1632,38.37485],[-75.16321,38.37389],[-75.1649,38.36837],[-75.16792,38.36288],[-75.16846,38.36155],[-75.16891,38.35962],[-75.16889,38.35672],[-75.1684,38.35062],[-75.16776,38.34687],[-75.16833,38.34673],[-75.17064,38.34739],[-75.17338,38.34767],[-75.17598,38.34753],[-75.1779,38.34717],[-75.19438,38.34206],[-75.19877,38.34136],[-75.19875,38.34075],[-75.19895,38.34052],[-75.20688,38.33765],[-75.20932,38.33638],[-75.2097,38.33678],[-75.21031,38.33857],[-75.21057,38.3403],[-75.21038,38.33873],[-75.20971,38.33676],[-75.20934,38.33638],[-75.21107,38.33517],[-75.21006,38.33253],[-75.20989,38.3313],[-75.21011,38.32958],[-75.21486,38.33082],[-75.21847,38.32503],[-75.21619,38.32434],[-75.21507,38.32462],[-75.2142,38.32461],[-75.21152,38.32402],[-75.2099,38.32953],[-75.20974,38.33181],[-75.21005,38.33327],[-75.21237,38.33863],[-75.21354,38.34315],[-75.21351,38.34365],[-75.2131,38.34405],[-75.21239,38.34409],[-75.21203,38.34391],[-75.21182,38.34341],[-75.21196,38.34308],[-75.21239,38.34282],[-75.21319,38.34278],[-75.22072,38.34379],[-75.22537,38.34514],[-75.23206,38.34855],[-75.28765,38.37823],[-75.30372,38.38446],[-75.30762,38.3854],[-75.31077,38.38565],[-75.33201,38.38468],[-75.33586,38.38472],[-75.3486,38.38658],[-75.35276,38.38683],[-75.35325,38.38719],[-75.3522,38.38885],[-75.3635,38.38831],[-75.37864,38.38826],[-75.41739,38.39084],[-75.42159,38.38659],[-75.4221,38.38581],[-75.42293,38.38545],[-75.42649,38.38535],[-75.46811,38.38081],[-75.53219,38.37137],[-75.53509,38.37055],[-75.54469,38.36698],[-75.54889,38.36601],[-75.55152,38.36577],[-75.55577,38.36601],[-75.57081,38.3688],[-75.57551,38.36944],[-75.57904,38.36934],[-75.58452,38.36872],[-75.59079,38.36736],[-75.59695,38.36762],[-75.59885,38.36721],[-75.59875,38.36699],[-75.59692,38.36739],[-75.59587,38.36736],[-75.59556,38.36716],[-75.59545,38.36637],[-75.59847,38.3661],[-75.5988,38.36712],[-75.59676,38.36756],[-75.59006,38.36732],[-75.5837,38.36872],[-75.5772,38.36929],[-75.57468,38.36917],[-75.57257,38.36892],[-75.55647,38.36561],[-75.55286,38.36529],[-75.55034,38.36535],[-75.54772,38.36568],[-75.54474,38.36641],[-75.53524,38.36995],[-75.53245,38.37075],[-75.53035,38.37114],[-75.50427,38.37499],[-75.50369,38.3747],[-75.50353,38.37356],[-75.50263,38.37367],[-75.50216,38.37327],[-75.50165,38.37324],[-75.50188,38.37436],[-75.5025,38.3741],[-75.50265,38.37369],[-75.50351,38.37358],[-75.50392,38.37665],[-75.50592,38.37603]],"type":"LineString"},"properties":{"color":"#B3B1C1","color_name":"gray","kind":"route","label":"203W","long":"Ocean City - Salisbury","route_id":"203W","text_color":"#FFFFFF","type_label":"Bus"},"type":"Feature"},{"geometry":{"coordinates":[[-75.5059,38.37602],[-75.50394,38.37664],[-75.50384,38.37589],[-75.50448,38.37545],[-75.53224,38.37136],[-75.53642,38.37007],[-75.54482,38.36693],[-75.54723,38.36629],[-75.55023,38.36585],[-75.5551,38.36593],[-75.57321,38.3692],[-75.57617,38.36945],[-75.57817,38.36942],[-75.58431,38.36875],[-75.59079,38.36738],[-75.59558,38.36768],[-75.59694,38.36762],[-75.59885,38.36722],[-75.59876,38.36699],[-75.59694,38.36739],[-75.59585,38.36735],[-75.59556,38.36715],[-75.59545,38.36637],[-75.59692,38.36624],[-75.59686,38.36574],[-75.59535,38.36584],[-75.59555,38.36513],[-75.59744,38.35971],[-75.59917,38.35898],[-75.59967,38.35846],[-75.60094,38.35395],[-75.60238,38.35417],[-75.60245,38.35381],[-75.60102,38.35359],[-75.60244,38.34787],[-75.60392,38.34451],[-75.60711,38.33839],[-75.61241,38.33129],[-75.6102,38.32939],[-75.61327,38.32689],[-75.61427,38.32887],[-75.61641,38.3265],[-75.61709,38.32764],[-75.61767,38.32708],[-75.61797,38.32668],[-75.61678,38.3261],[-75.61798,38.32474],[-75.63247,38.30492],[-75.63399,38.30314],[-75.63747,38.3003],[-75.63868,38.29697],[-75.63944,38.29581],[-75.67642,38.24812],[-75.68944,38.23069],[-75.69141,38.22857],[-75.69436,38.22608],[-75.69588,38.22433],[-75.69678,38.22308],[-75.69815,38.2201],[-75.69801,38.21971],[-75.69169,38.21813],[-75.68891,38.21657],[-75.68754,38.21527],[-75.68631,38.2132],[-75.68893,38.21257],[-75.68984,38.21183],[-75.69012,38.2114],[-75.69026,38.21065],[-75.68903,38.21043],[-75.68877,38.21053],[-75.68895,38.21076],[-75.68931,38.21055],[-75.69022,38.21067],[-75.68984,38.21182],[-75.68892,38.21255],[-75.68755,38.21298],[-75.686,38.21297],[-75.68756,38.2154],[-75.68828,38.21613],[-75.68998,38.21733],[-75.69247,38.21848],[-75.69591,38.21932],[-75.69605,38.21785],[-75.69554,38.21405],[-75.6983,38.21381],[-75.6985,38.21512],[-75.69838,38.2154],[-75.69855,38.21553],[-75.69834,38.21382],[-75.70014,38.21368],[-75.70101,38.21048],[-75.70105,38.20892],[-75.70081,38.20782],[-75.69882,38.20354],[-75.69816,38.20155],[-75.69719,38.19468],[-75.69658,38.19307],[-75.69563,38.19162],[-75.69387,38.19356],[-75.69301,38.19394],[-75.69217,38.19185],[-75.69207,38.19064],[-75.69148,38.18982],[-75.69007,38.18868],[-75.68997,38.18574],[-75.6901,38.18545],[-75.69083,38.185],[-75.69018,38.18299],[-75.68985,38.17624],[-75.68939,38.16539],[-75.68974,38.16282],[-75.69021,38.16139],[-75.69336,38.15422],[-75.70089,38.14073],[-75.70153,38.13846],[-75.7015,38.13704],[-75.70122,38.13594],[-75.6997,38.13307],[-75.69771,38.13062],[-75.69423,38.12754],[-75.6881,38.12352],[-75.68576,38.12241],[-75.68329,38.12153],[-75.67212,38.11917],[-75.66111,38.11779],[-75.65872,38.11708],[-75.64398,38.10934],[-75.60216,38.0839],[-75.59883,38.08232],[-75.59581,38.08141],[-75.58682,38.07933],[-75.58187,38.07861],[-75.57973,38.07849],[-75.56597,38.07888],[-75.56385,38.07868],[-75.56244,38.07821],[-75.56121,38.07752],[-75.55868,38.07509],[-75.55602,38.07501],[-75.55576,38.07382],[-75.55491,38.07296],[-75.55376,38.0736],[-75.55492,38.07477],[-75.55496,38.07507],[-75.55691,38.07505],[-75.55845,38.07531],[-75.56038,38.07725],[-75.5612,38.07783],[-75.56256,38.07851],[-75.56396,38.0789],[-75.56595,38.07907],[-75.57955,38.0788],[-75.58286,38.07899],[-75.58705,38.07966],[-75.59644,38.08185],[-75.59902,38.0827],[-75.60193,38.0841],[-75.64354,38.10944],[-75.65867,38.11738],[-75.66084,38.11803],[-75.67315,38.11963],[-75.68196,38.12146],[-75.68528,38.12252],[-75.68832,38.12396],[-75.69048,38.12536],[-75.69508,38.12929],[-75.69489,38.12967],[-75.69522,38.12977],[-75.6952,38.12993],[-75.69854,38.13264],[-75.69875,38.13253],[-75.6999,38.13403],[-75.70075,38.13595],[-75.70101,38.13794],[-75.70071,38.13983],[-75.69978,38.14198],[-75.69277,38.15457],[-75.68963,38.16184],[-75.68914,38.16382],[-75.689,38.16547],[-75.68977,38.18209],[-75.69001,38.18391],[-75.69082,38.18573],[-75.69527,38.1917],[-75.69523,38.19206],[-75.69388,38.19357],[-75.69341,38.19383],[-75.69036,38.19425],[-75.69041,38.19609],[-75.69454,38.20731],[-75.69552,38.21402],[-75.6983,38.21383],[-75.69849,38.21515],[-75.69838,38.21554],[-75.69858,38.21552],[-75.69834,38.21381],[-75.69552,38.21403],[-75.69603,38.2178],[-75.69591,38.21924],[-75.69304,38.21858],[-75.69033,38.21749],[-75.68819,38.21596],[-75.687,38.21457],[-75.68631,38.21319],[-75.68893,38.21256],[-75.68984,38.21184],[-75.69026,38.21066],[-75.68878,38.21052],[-75.68893,38.21075],[-75.6893,38.21054],[-75.69024,38.21067],[-75.68983,38.21182],[-75.68892,38.21256],[-75.68753,38.21298],[-75.68601,38.21298],[-75.68687,38.21455],[-75.68757,38.21541],[-75.68826,38.21612],[-75.68995,38.21732],[-75.69249,38.2185],[-75.69764,38.21973],[-75.69779,38.22008],[-75.69669,38.22249],[-75.69455,38.22537],[-75.69026,38.22917],[-75.68775,38.23215],[-75.67674,38.24693],[-75.66106,38.2671],[-75.63142,38.30592],[-75.61737,38.32508],[-75.61453,38.32817],[-75.61393,38.32819],[-75.61328,38.32687],[-75.61021,38.32939],[-75.612,38.33091],[-75.61214,38.33124],[-75.607,38.33801],[-75.60353,38.34474],[-75.60212,38.34846],[-75.60041,38.35557],[-75.59883,38.35536],[-75.6004,38.35558],[-75.59966,38.3582],[-75.59893,38.35902],[-75.59736,38.35967],[-75.5953,38.36558],[-75.59523,38.36583],[-75.59536,38.36585],[-75.59684,38.36575],[-75.5972,38.36735],[-75.59585,38.36734],[-75.59555,38.36715],[-75.59545,38.36637],[-75.59805,38.36613],[-75.59846,38.3661],[-75.5988,38.36712],[-75.59691,38.36754],[-75.5956,38.3676],[-75.59139,38.36726],[-75.59004,38.36733],[-75.58315,38.36878],[-75.57891,38.36923],[-75.57628,38.36927],[-75.57209,38.36885],[-75.55607,38.36558],[-75.55338,38.36532],[-75.55021,38.36538],[-75.54741,38.36577],[-75.54471,38.36643],[-75.53507,38.37002],[-75.53102,38.37102],[-75.50429,38.37498],[-75.5037,38.37471],[-75.50354,38.37356],[-75.50264,38.37367],[-75.50217,38.37327],[-75.50164,38.37325],[-75.5019,38.37437],[-75.50249,38.37411],[-75.50263,38.37368],[-75.50353,38.37357],[-75.50391,38.37665],[-75.5059,38.37602]],"type":"LineString"},"properties":{"color":"#EC0000","color_name":"red","kind":"route","label":"252","long":"Salisbury-Princess Anne-Pocomoke","route_id":"252","text_color":"#FFFFFF","type_label":"Bus"},"type":"Feature"},{"geometry":{"coordinates":[[-75.50625,38.37628],[-75.50594,38.37603],[-75.50553,38.37609],[-75.50437,38.37664],[-75.50393,38.37665],[-75.50385,38.3759],[-75.50449,38.37545],[-75.5322,38.37137],[-75.53493,38.37059],[-75.53971,38.36882],[-75.5398,38.36837],[-75.53758,38.36518],[-75.53799,38.36316],[-75.5442,38.34641],[-75.54541,38.34448],[-75.54746,38.34264],[-75.54889,38.34181],[-75.56676,38.33465],[-75.57125,38.3323],[-75.57512,38.32965],[-75.59559,38.31337],[-75.59964,38.31096],[-75.608,38.30658],[-75.61063,38.3055],[-75.61343,38.30475],[-75.63487,38.30178],[-75.63675,38.30091],[-75.63774,38.29971],[-75.63866,38.29698],[-75.63919,38.29614],[-75.67724,38.24706],[-75.68959,38.23049],[-75.69161,38.22837],[-75.69435,38.22606],[-75.69595,38.22424],[-75.69694,38.22278],[-75.69791,38.22073],[-75.70014,38.21366],[-75.69831,38.21381],[-75.69859,38.21545],[-75.69833,38.21383],[-75.70011,38.21369],[-75.70102,38.21031],[-75.70099,38.20884],[-75.70063,38.20738],[-75.69889,38.20382],[-75.6981,38.20148],[-75.69719,38.19493],[-75.69673,38.19344],[-75.69565,38.19163],[-75.69391,38.19354],[-75.693,38.19394],[-75.69217,38.19186],[-75.69208,38.19065],[-75.69149,38.18984],[-75.69005,38.18868],[-75.68993,38.18597],[-75.6901,38.18544],[-75.69083,38.185],[-75.69024,38.18345],[-75.69008,38.18174],[-75.68939,38.167],[-75.68938,38.16509],[-75.68968,38.16304],[-75.69026,38.16121],[-75.69371,38.15339],[-75.70091,38.14063],[-75.70146,38.13874],[-75.70145,38.13704],[-75.70085,38.13511],[-75.69902,38.13216],[-75.69754,38.13045],[-75.69413,38.12751],[-75.68951,38.12439],[-75.68702,38.123],[-75.68426,38.12188],[-75.68133,38.12107],[-75.67295,38.11935],[-75.66098,38.1178],[-75.6585,38.11701],[-75.64391,38.10935],[-75.60203,38.08387],[-75.59858,38.08227],[-75.59632,38.08156],[-75.58692,38.07939],[-75.58219,38.07865],[-75.57992,38.07852],[-75.56451,38.07883],[-75.56272,38.07836],[-75.5616,38.0778],[-75.55868,38.0751],[-75.55496,38.075],[-75.55494,38.07478],[-75.55309,38.07285],[-75.55296,38.07295],[-75.55304,38.07337],[-75.55397,38.07459],[-75.55388,38.07502],[-75.56442,38.07552],[-75.56498,38.07581],[-75.56674,38.07419],[-75.54958,38.06212],[-75.54679,38.06707],[-75.54385,38.06992],[-75.54194,38.0731],[-75.54158,38.07463],[-75.54088,38.0801],[-75.54062,38.08126],[-75.54008,38.08234],[-75.53865,38.08411],[-75.53669,38.08548],[-75.53376,38.08698],[-75.52603,38.08924],[-75.51999,38.09],[-75.51449,38.09133],[-75.50765,38.09199],[-75.49944,38.09308],[-75.4906,38.09569],[-75.48896,38.09666],[-75.48801,38.09749],[-75.48018,38.10642],[-75.47462,38.11094],[-75.47332,38.11166],[-75.47184,38.11217],[-75.46583,38.11382],[-75.46396,38.11456],[-75.45233,38.12296],[-75.44078,38.12774],[-75.43909,38.12901],[-75.43553,38.13279],[-75.43428,38.13379],[-75.42159,38.1415],[-75.41793,38.14308],[-75.4151,38.14381],[-75.41178,38.14435],[-75.40495,38.14466],[-75.40274,38.14505],[-75.39959,38.14599],[-75.39657,38.14739],[-75.38111,38.15731],[-75.38384,38.16085],[-75.38737,38.16457],[-75.39141,38.16956],[-75.39426,38.1679],[-75.39719,38.16586],[-75.39833,38.16571],[-75.40045,38.16615],[-75.40005,38.1679],[-75.40076,38.17162],[-75.40036,38.17325],[-75.39976,38.17373],[-75.3956,38.17579],[-75.39623,38.17666],[-75.39522,38.17722],[-75.39576,38.17784],[-75.39419,38.17863],[-75.39296,38.17707],[-75.39041,38.17841],[-75.37445,38.17353],[-75.37389,38.17309],[-75.37446,38.17279],[-75.37587,38.17095],[-75.37546,38.1707],[-75.37555,38.17054],[-75.37496,38.17027],[-75.3748,38.17064],[-75.37505,38.172],[-75.3743,38.17293],[-75.37388,38.17308],[-75.37368,38.17278],[-75.37299,38.17246],[-75.37269,38.17474],[-75.37272,38.17684],[-75.37308,38.17883],[-75.37492,38.18337],[-75.3753,38.18491],[-75.37526,38.18684],[-75.37445,38.18887],[-75.36494,38.20084],[-75.36207,38.20417],[-75.36008,38.20551],[-75.35251,38.20865],[-75.3511,38.20948],[-75.34449,38.21786],[-75.34368,38.21994],[-75.34224,38.22496],[-75.34136,38.22649],[-75.34016,38.22765],[-75.33425,38.23179],[-75.332,38.23285],[-75.32782,38.23371],[-75.32298,38.23501],[-75.32071,38.23528],[-75.31555,38.23519],[-75.31406,38.23542],[-75.3125,38.23593],[-75.31066,38.23701],[-75.30309,38.24289],[-75.30164,38.24383],[-75.30168,38.2442],[-75.30045,38.24477],[-75.2952,38.24911],[-75.29071,38.25088],[-75.28652,38.24818],[-75.26852,38.25307],[-75.26547,38.2541],[-75.26286,38.25541],[-75.26106,38.25662],[-75.25229,38.26412],[-75.25088,38.26489],[-75.24578,38.26694],[-75.24391,38.26816],[-75.24283,38.26926],[-75.23339,38.28076],[-75.23207,38.28261],[-75.22702,38.29456],[-75.22333,38.29952],[-75.22078,38.30674],[-75.22007,38.3109],[-75.21937,38.31337],[-75.21848,38.31457],[-75.21374,38.3189],[-75.2125,38.32082],[-75.21218,38.32068],[-75.21151,38.32305],[-75.21097,38.3239],[-75.21152,38.32403],[-75.20975,38.33034],[-75.20991,38.33268],[-75.21097,38.33525],[-75.20931,38.33638],[-75.2097,38.33679],[-75.2103,38.33853],[-75.21058,38.33956],[-75.21049,38.34028],[-75.21064,38.34025],[-75.21063,38.33987],[-75.21033,38.33855],[-75.20973,38.33676],[-75.20933,38.33637],[-75.21099,38.33526],[-75.21232,38.33843],[-75.21245,38.33956],[-75.21217,38.3404],[-75.21102,38.34148],[-75.21022,38.34178],[-75.20895,38.3419],[-75.20142,38.34109],[-75.19727,38.34129],[-75.19301,38.34224],[-75.17807,38.34688],[-75.17472,38.3474],[-75.17121,38.34724],[-75.16802,38.3464],[-75.16123,38.34334],[-75.16305,38.3408],[-75.16121,38.34333],[-75.15066,38.33857],[-75.14932,38.33805],[-75.14646,38.33736],[-75.14237,38.33726],[-75.12804,38.33913],[-75.12442,38.33943],[-75.11902,38.33924],[-75.11436,38.33842],[-75.088,38.33164],[-75.08765,38.33127],[-75.08959,38.32752],[-75.08869,38.32739]],"type":"LineString"},"properties":{"color":"#916F40","color_name":"brown","kind":"route","label":"503N","long":"Pocomoke - Ocean City","route_id":"503N","text_color":"#FFFFFF","type_label":"Bus"},"type":"Feature"},{"geometry":{"coordinates":[[-75.08886,38.32742],[-75.08833,38.32736],[-75.08561,38.33265],[-75.08682,38.33306],[-75.08752,38.33175],[-75.0879,38.3317],[-75.10773,38.33689],[-75.10744,38.33761],[-75.11121,38.33862],[-75.11157,38.33789],[-75.11661,38.33909],[-75.12055,38.33955],[-75.12628,38.3395],[-75.14234,38.33747],[-75.14511,38.33742],[-75.14661,38.33758],[-75.14942,38.3383],[-75.15505,38.34078],[-75.1558,38.33987],[-75.15681,38.33975],[-75.15854,38.34037],[-75.15995,38.3415],[-75.16191,38.34243],[-75.16304,38.3408],[-75.16189,38.34242],[-75.16543,38.34406],[-75.16495,38.3449],[-75.16502,38.3453],[-75.16882,38.3469],[-75.17231,38.34758],[-75.17549,38.34756],[-75.17806,38.3471],[-75.19435,38.34206],[-75.19877,38.34137],[-75.19875,38.34074],[-75.19898,38.34052],[-75.20691,38.33764],[-75.20931,38.33638],[-75.20968,38.33677],[-75.21033,38.33857],[-75.21057,38.34028],[-75.21034,38.33856],[-75.2097,38.33676],[-75.20933,38.33637],[-75.21112,38.33515],[-75.21009,38.3328],[-75.20992,38.33066],[-75.21031,38.32872],[-75.21264,38.32093],[-75.21219,38.32068],[-75.21152,38.32305],[-75.21096,38.32391],[-75.2117,38.32409],[-75.21266,38.32092],[-75.2138,38.31906],[-75.21799,38.31535],[-75.21937,38.31363],[-75.2201,38.31182],[-75.22147,38.30465],[-75.22324,38.30024],[-75.22426,38.29846],[-75.22677,38.29531],[-75.22758,38.29391],[-75.23164,38.28405],[-75.23247,38.2824],[-75.24376,38.26849],[-75.24571,38.26713],[-75.25088,38.26504],[-75.25283,38.26401],[-75.26053,38.25712],[-75.26312,38.25533],[-75.26593,38.25399],[-75.28652,38.24818],[-75.29071,38.25088],[-75.29343,38.24969],[-75.29518,38.24914],[-75.30046,38.24477],[-75.30167,38.24419],[-75.30165,38.24384],[-75.30303,38.24298],[-75.31065,38.2371],[-75.31244,38.23601],[-75.31552,38.23523],[-75.32067,38.23533],[-75.32227,38.2352],[-75.33189,38.23291],[-75.33428,38.23182],[-75.34017,38.22776],[-75.3415,38.22637],[-75.34227,38.22498],[-75.34431,38.21832],[-75.35108,38.20961],[-75.35231,38.20877],[-75.3601,38.20553],[-75.36164,38.20457],[-75.36433,38.20165],[-75.3744,38.18912],[-75.37522,38.18725],[-75.37536,38.18492],[-75.37497,38.18336],[-75.37365,38.18014],[-75.37309,38.17824],[-75.37287,38.17519],[-75.37314,38.17278],[-75.37341,38.17262],[-75.37387,38.17309],[-75.3743,38.17294],[-75.37506,38.17199],[-75.3748,38.17063],[-75.37487,38.17045],[-75.37557,38.17062],[-75.37497,38.17025],[-75.37479,38.17064],[-75.37511,38.17182],[-75.37444,38.1728],[-75.37387,38.17308],[-75.37444,38.17353],[-75.39042,38.17843],[-75.39295,38.17708],[-75.39418,38.17863],[-75.39576,38.17786],[-75.39521,38.17721],[-75.39624,38.17666],[-75.3956,38.17577],[-75.39976,38.17371],[-75.40036,38.17325],[-75.40076,38.17163],[-75.4001,38.1685],[-75.40012,38.16738],[-75.40046,38.16615],[-75.39835,38.16572],[-75.39719,38.16585],[-75.39434,38.16784],[-75.39141,38.16955],[-75.38737,38.16457],[-75.38384,38.16085],[-75.38122,38.15748],[-75.39591,38.14794],[-75.39936,38.14621],[-75.40353,38.14502],[-75.40713,38.14462],[-75.41281,38.14445],[-75.41549,38.14404],[-75.41907,38.14312],[-75.42101,38.14221],[-75.43443,38.13453],[-75.43598,38.13331],[-75.44126,38.12779],[-75.45219,38.1235],[-75.4642,38.11468],[-75.47332,38.11206],[-75.47435,38.11156],[-75.48071,38.10645],[-75.48802,38.09807],[-75.48907,38.09701],[-75.49008,38.09631],[-75.49138,38.09572],[-75.49863,38.0935],[-75.50858,38.09216],[-75.51485,38.09164],[-75.51991,38.09034],[-75.52433,38.08977],[-75.52796,38.08906],[-75.53393,38.08728],[-75.537,38.0857],[-75.53839,38.08483],[-75.53953,38.08377],[-75.54065,38.08224],[-75.5412,38.08076],[-75.54187,38.07524],[-75.54259,38.07262],[-75.54382,38.07049],[-75.5461,38.06814],[-75.5471,38.06683],[-75.54889,38.06336],[-75.54969,38.06228],[-75.55511,38.06599],[-75.5631,38.07183],[-75.56674,38.0742],[-75.56501,38.07582],[-75.56442,38.07552],[-75.56078,38.07527],[-75.56082,38.07556],[-75.56062,38.07554],[-75.56064,38.07525],[-75.55388,38.07502],[-75.55397,38.07459],[-75.55304,38.07337],[-75.55296,38.07295],[-75.55309,38.07285],[-75.55493,38.07477],[-75.55496,38.07509],[-75.55786,38.07511],[-75.55845,38.07531],[-75.56127,38.07787],[-75.56275,38.07858],[-75.56397,38.07892],[-75.56601,38.07905],[-75.57871,38.07879],[-75.58353,38.07903],[-75.58819,38.07991],[-75.59664,38.08191],[-75.59881,38.0826],[-75.60179,38.08402],[-75.64334,38.10936],[-75.65654,38.11629],[-75.6601,38.11786],[-75.67284,38.11957],[-75.68311,38.12173],[-75.68625,38.12292],[-75.6888,38.12424],[-75.69068,38.12551],[-75.69508,38.12929],[-75.69484,38.12952],[-75.69493,38.12972],[-75.69529,38.12978],[-75.69524,38.12993],[-75.69854,38.13265],[-75.69876,38.13254],[-75.69994,38.1341],[-75.7008,38.13602],[-75.70098,38.13699],[-75.70088,38.13914],[-75.70012,38.14125],[-75.69242,38.15528],[-75.68958,38.16203],[-75.68904,38.16429],[-75.68901,38.1656],[-75.69006,38.18868],[-75.69151,38.18987],[-75.69207,38.19065],[-75.69214,38.19184],[-75.693,38.19394],[-75.69146,38.19416],[-75.69321,38.19881],[-75.69158,38.19925],[-75.69443,38.20691],[-75.69554,38.21405],[-75.6983,38.21383],[-75.69848,38.21547],[-75.69834,38.21383],[-75.69941,38.21389],[-75.69957,38.21432],[-75.69773,38.22019],[-75.69706,38.22183],[-75.69606,38.22353],[-75.69379,38.22615],[-75.69076,38.22866],[-75.68881,38.23072],[-75.676,38.24795],[-75.65646,38.27304],[-75.63849,38.29669],[-75.63737,38.29973],[-75.63678,38.30049],[-75.63593,38.3011],[-75.63455,38.30157],[-75.61493,38.30423],[-75.61205,38.30479],[-75.60792,38.30633],[-75.59773,38.31167],[-75.59392,38.31419],[-75.57524,38.32917],[-75.57084,38.33221],[-75.56629,38.33455],[-75.54886,38.34152],[-75.54606,38.34336],[-75.54457,38.34508],[-75.54384,38.34643],[-75.53647,38.36596],[-75.53349,38.37022],[-75.53208,38.37082],[-75.53041,38.37111],[-75.50375,38.37507],[-75.50391,38.37664],[-75.50436,38.37662],[-75.50553,38.37607],[-75.50594,38.37602],[-75.5063,38.37635]],"type":"LineString"},"properties":{"color":"#916F40","color_name":"brown","kind":"route","label":"503S","long":"Ocean City - Pocomoke","route_id":"503S","text_color":"#FFFFFF","type_label":"Bus"},"type":"Feature"},{"geometry":{"coordinates":[[-75.50587,38.37604],[-75.50511,38.37609],[-75.50505,38.3763],[-75.50455,38.37654],[-75.504,38.37657],[-75.50363,38.37508],[-75.46562,38.3806],[-75.42532,38.38495],[-75.37,38.38396],[-75.36526,38.38436],[-75.35669,38.38592],[-75.35256,38.38629],[-75.34969,38.38615],[-75.33893,38.3845],[-75.33457,38.38408],[-75.31183,38.38509],[-75.3078,38.38493],[-75.30534,38.38448],[-75.30287,38.38374],[-75.28861,38.37817],[-75.22722,38.34561],[-75.22508,38.34468],[-75.22216,38.34379],[-75.20253,38.34115],[-75.19845,38.34116],[-75.19458,38.34179],[-75.17775,38.34696],[-75.17488,38.34739],[-75.17235,38.34737],[-75.17051,38.34711],[-75.16825,38.34647],[-75.16137,38.34334],[-75.16308,38.34074],[-75.16106,38.34324],[-75.15012,38.33834],[-75.14716,38.33748],[-75.145,38.33721],[-75.14211,38.33728],[-75.12656,38.33926],[-75.11878,38.33531],[-75.11471,38.33348],[-75.11446,38.33351],[-75.11155,38.33762],[-75.10295,38.33546],[-75.10258,38.33517],[-75.10273,38.33469],[-75.10177,38.33443],[-75.10139,38.33501],[-75.10142,38.33523],[-75.10163,38.33531],[-75.10762,38.33693],[-75.10744,38.33759],[-75.10756,38.33767],[-75.11104,38.33859],[-75.11134,38.33849],[-75.11162,38.33797],[-75.11753,38.33924],[-75.12156,38.33962],[-75.12707,38.33944],[-75.14344,38.33742],[-75.14697,38.33768],[-75.14861,38.33807],[-75.15108,38.33903],[-75.1677,38.3466],[-75.16764,38.34708],[-75.16824,38.34999],[-75.16837,38.35207],[-75.1646,38.35231],[-75.16369,38.35253],[-75.16365,38.35276],[-75.16407,38.35293],[-75.16473,38.35237],[-75.16824,38.35226],[-75.16856,38.35356],[-75.16891,38.35776],[-75.16863,38.36084],[-75.16777,38.3631],[-75.16515,38.36772],[-75.1642,38.37029],[-75.16316,38.37403],[-75.16319,38.3753],[-75.16367,38.3765],[-75.16451,38.37737],[-75.16624,38.37849],[-75.1657,38.37917],[-75.16552,38.38011],[-75.16496,38.38056],[-75.16006,38.38028],[-75.16107,38.37802],[-75.16098,38.37652],[-75.16324,38.37608],[-75.16501,38.37773],[-75.17593,38.38329],[-75.17758,38.384],[-75.18345,38.38595],[-75.18579,38.38713],[-75.18499,38.38772],[-75.16435,38.3994],[-75.16062,38.3971],[-75.15924,38.39802],[-75.16,38.39854],[-75.15998,38.39831],[-75.15964,38.39826],[-75.15948,38.39801],[-75.16072,38.39719],[-75.16427,38.39947],[-75.186,38.38712],[-75.18336,38.38585],[-75.17747,38.38389],[-75.1726,38.38144],[-75.17233,38.38108],[-75.1724,38.38067],[-75.17414,38.37947],[-75.17644,38.37875],[-75.17999,38.37797],[-75.18343,38.37747],[-75.18701,38.3772],[-75.20762,38.37717],[-75.20833,38.37763],[-75.20827,38.37825],[-75.20756,38.37857],[-75.20714,38.37853],[-75.20661,38.37803],[-75.20644,38.37592],[-75.20677,38.37375],[-75.20777,38.3713],[-75.21176,38.36561],[-75.21294,38.36303],[-75.21379,38.359],[-75.21509,38.34927],[-75.21478,38.34652],[-75.21322,38.34044],[-75.2123,38.3377],[-75.21033,38.33341],[-75.20998,38.33202],[-75.21007,38.32988],[-75.21014,38.32958],[-75.21045,38.32958],[-75.21496,38.33067],[-75.21841,38.32503],[-75.21634,38.32438],[-75.2148,38.32462],[-75.21148,38.3241],[-75.21005,38.32897],[-75.20971,38.33047],[-75.20971,38.33163],[-75.21004,38.33322],[-75.21173,38.337],[-75.21242,38.33921],[-75.21237,38.33986],[-75.21189,38.34076],[-75.21069,38.34162],[-75.20902,38.34191],[-75.20298,38.34119],[-75.20009,38.34106],[-75.19643,38.34139],[-75.19366,38.34202],[-75.17882,38.34663],[-75.17741,38.34701],[-75.17463,38.34739],[-75.1716,38.34729],[-75.16831,38.34649],[-75.16154,38.34344],[-75.16137,38.34331],[-75.16156,38.34295],[-75.16311,38.34076],[-75.16188,38.34242],[-75.16536,38.344],[-75.16545,38.34415],[-75.16492,38.34495],[-75.16512,38.3454],[-75.16949,38.34712],[-75.17193,38.34759],[-75.1734,38.34767],[-75.17568,38.34756],[-75.17795,38.34715],[-75.19401,38.34218],[-75.19798,38.34144],[-75.20263,38.34144],[-75.22002,38.3437],[-75.22318,38.34436],[-75.22521,38.34506],[-75.22828,38.34652],[-75.28814,38.37837],[-75.30345,38.38434],[-75.30788,38.38539],[-75.31225,38.3856],[-75.3328,38.38463],[-75.33552,38.38468],[-75.34864,38.38658],[-75.35198,38.38683],[-75.35572,38.38658],[-75.36573,38.3848],[-75.37092,38.38443],[-75.42515,38.38544],[-75.46423,38.38126],[-75.50333,38.3757],[-75.50377,38.37588],[-75.50401,38.37669],[-75.50697,38.37668],[-75.50734,38.37643],[-75.50724,38.37625],[-75.5067,38.37659],[-75.50633,38.37657],[-75.50635,38.37635],[-75.50587,38.37604]],"type":"LineString"},"properties":{"color":"#8473AC","color_name":"gray","kind":"route","label":"593","long":"West OC - Ocean Pines - Berlin","route_id":"593","text_color":"#FFFFFF","type_label":"Bus"},"type":"Feature"},{"geometry":{"coordinates":[[-75.50594,38.37602],[-75.50394,38.37663],[-75.50385,38.37588],[-75.50448,38.37545],[-75.53218,38.37137],[-75.53504,38.37055],[-75.53969,38.36883],[-75.53987,38.36864],[-75.53979,38.36838],[-75.53756,38.36514],[-75.53799,38.36317],[-75.54423,38.3464],[-75.54539,38.34454],[-75.54735,38.34275],[-75.54977,38.34145],[-75.56664,38.33472],[-75.57097,38.33249],[-75.57565,38.32926],[-75.59554,38.31342],[-75.59976,38.31091],[-75.60852,38.30638],[-75.61126,38.30533],[-75.61429,38.3046],[-75.63448,38.30185],[-75.63593,38.30141],[-75.63708,38.30062],[-75.63775,38.29971],[-75.63859,38.2972],[-75.63928,38.29604],[-75.67661,38.24788],[-75.68974,38.2303],[-75.69114,38.22882],[-75.69514,38.22526],[-75.6967,38.2232],[-75.69777,38.22117],[-75.70014,38.21368],[-75.69834,38.21382],[-75.69847,38.21538],[-75.6984,38.21382],[-75.70014,38.21367],[-75.70102,38.2106],[-75.70102,38.20877],[-75.70063,38.2073],[-75.69883,38.20357],[-75.69815,38.20152],[-75.69724,38.19498],[-75.69675,38.19339],[-75.69618,38.19235],[-75.69126,38.18574],[-75.69031,38.18367],[-75.68939,38.16651],[-75.68955,38.16369],[-75.68985,38.16237],[-75.69063,38.16036],[-75.69376,38.1534],[-75.70103,38.1404],[-75.70151,38.13844],[-75.70126,38.13611],[-75.70144,38.13497],[-75.72999,38.06986],[-75.73153,38.06719],[-75.7331,38.06536],[-75.73567,38.06324],[-75.84148,37.99285],[-75.85235,37.98546],[-75.85466,37.98334],[-75.85745,37.98112],[-75.86362,37.97777],[-75.85792,37.9807],[-75.85598,37.97859],[-75.85416,37.97854],[-75.85294,37.9793],[-75.85162,37.97952],[-75.85145,37.97804],[-75.85066,37.97812],[-75.85046,37.97964],[-75.84475,37.98033],[-75.84385,37.99045],[-75.84327,37.99129],[-75.84135,37.99285],[-75.78083,38.03317],[-75.77961,38.0333],[-75.77614,38.03583],[-75.77064,38.03938],[-75.76482,38.03995],[-75.76477,38.03966],[-75.76395,38.03977],[-75.76398,38.04003],[-75.77047,38.03951],[-75.77087,38.0398],[-75.73553,38.06325],[-75.73336,38.06505],[-75.73127,38.06749],[-75.72999,38.06974],[-75.70682,38.12251],[-75.70821,38.1261],[-75.70847,38.12599],[-75.70816,38.12594],[-75.70682,38.12251],[-75.70451,38.12788],[-75.70412,38.12808],[-75.70267,38.12798],[-75.69616,38.12862],[-75.69484,38.12951],[-75.69854,38.13264],[-75.69874,38.13253],[-75.69992,38.13404],[-75.70063,38.1355],[-75.701,38.13682],[-75.70094,38.13905],[-75.69991,38.14177],[-75.69322,38.15369],[-75.68997,38.16103],[-75.6893,38.16315],[-75.68902,38.16509],[-75.6891,38.16801],[-75.68971,38.16799],[-75.6902,38.17783],[-75.68956,38.17795],[-75.69006,38.18869],[-75.69149,38.18985],[-75.69207,38.19065],[-75.69215,38.19186],[-75.693,38.19394],[-75.69035,38.19425],[-75.69043,38.19609],[-75.69389,38.20548],[-75.69158,38.20606],[-75.69022,38.20618],[-75.69025,38.21059],[-75.68898,38.21041],[-75.68876,38.21056],[-75.68895,38.21075],[-75.68939,38.21056],[-75.69024,38.21064],[-75.69011,38.21138],[-75.6895,38.21218],[-75.68832,38.21281],[-75.68703,38.21304],[-75.686,38.21297],[-75.6873,38.21512],[-75.68983,38.21725],[-75.69255,38.21852],[-75.69577,38.21926],[-75.69598,38.21927],[-75.69608,38.2184],[-75.69701,38.21849],[-75.69695,38.21892],[-75.69712,38.21897],[-75.69778,38.21893],[-75.69783,38.21863],[-75.69608,38.21832],[-75.69554,38.21405],[-75.69832,38.21382],[-75.69848,38.21544],[-75.6984,38.21382],[-75.69942,38.2139],[-75.69957,38.21431],[-75.69745,38.22096],[-75.69635,38.22308],[-75.69491,38.22498],[-75.6904,38.22901],[-75.68862,38.23101],[-75.67593,38.248],[-75.64444,38.28884],[-75.6387,38.29643],[-75.6381,38.29756],[-75.63743,38.29954],[-75.63675,38.30051],[-75.63572,38.30118],[-75.63466,38.30154],[-75.61469,38.30425],[-75.61145,38.30494],[-75.60792,38.30629],[-75.59763,38.31171],[-75.59326,38.31467],[-75.57467,38.32961],[-75.57117,38.332],[-75.56607,38.33463],[-75.54899,38.34145],[-75.54762,38.34218],[-75.54613,38.34329],[-75.54468,38.3449],[-75.54378,38.34653],[-75.53727,38.36416],[-75.53643,38.36603],[-75.53349,38.37023],[-75.53208,38.37082],[-75.53082,38.37105],[-75.50374,38.37507],[-75.50393,38.37665],[-75.50594,38.37602]],"type":"LineString"},"properties":{"color":"#FECB00","color_name":"yellow","kind":"route","label":"705N","long":"Salisbury-Crisfield-Princess Anne","route_id":"705N","text_color":"#FFFFFF","type_label":"Bus"},"type":"Feature"},{"geometry":{"coordinates":[[-75.50593,38.37604],[-75.50393,38.37664],[-75.50383,38.37589],[-75.50446,38.37546],[-75.53215,38.37137],[-75.53496,38.37059],[-75.53971,38.36882],[-75.5398,38.36838],[-75.53758,38.36518],[-75.538,38.36317],[-75.54419,38.34645],[-75.54533,38.34457],[-75.54731,38.34275],[-75.54991,38.34138],[-75.56706,38.33452],[-75.57071,38.33262],[-75.5751,38.32967],[-75.59315,38.31517],[-75.59577,38.31324],[-75.59829,38.31168],[-75.60811,38.30655],[-75.6107,38.30548],[-75.61481,38.30449],[-75.63486,38.30177],[-75.63594,38.30139],[-75.63709,38.30061],[-75.63775,38.29968],[-75.63868,38.29696],[-75.6415,38.29311],[-75.64881,38.28387],[-75.68014,38.24317],[-75.68932,38.23083],[-75.69121,38.22876],[-75.69482,38.22559],[-75.69603,38.22415],[-75.69769,38.22125],[-75.70014,38.21367],[-75.69833,38.21382],[-75.69856,38.21543],[-75.69831,38.21382],[-75.69554,38.21404],[-75.69445,38.20691],[-75.69046,38.1961],[-75.69035,38.19426],[-75.69303,38.19394],[-75.69217,38.19186],[-75.69208,38.19064],[-75.69149,38.18983],[-75.69006,38.18869],[-75.68992,38.18597],[-75.69008,38.18545],[-75.69083,38.18501],[-75.69019,38.18298],[-75.68992,38.17795],[-75.69021,38.17794],[-75.6898,38.16935],[-75.68972,38.16799],[-75.68947,38.168],[-75.6894,38.16667],[-75.68944,38.16455],[-75.68985,38.16241],[-75.69349,38.15393],[-75.70103,38.14041],[-75.70151,38.13839],[-75.70148,38.13705],[-75.70112,38.13568],[-75.69913,38.13232],[-75.69855,38.13264],[-75.69485,38.12952],[-75.69619,38.12862],[-75.70267,38.12799],[-75.70442,38.12816],[-75.70682,38.12254],[-75.70815,38.12594],[-75.70837,38.12588],[-75.70843,38.12603],[-75.70823,38.12609],[-75.70683,38.1225],[-75.71729,38.09878],[-75.71795,38.099],[-75.71795,38.09915],[-75.71853,38.09918],[-75.7173,38.09876],[-75.72961,38.07067],[-75.73115,38.06773],[-75.73293,38.06552],[-75.73527,38.06348],[-75.77089,38.03979],[-75.77047,38.03949],[-75.76483,38.03995],[-75.76477,38.03966],[-75.76401,38.03971],[-75.76397,38.04004],[-75.77064,38.0394],[-75.77585,38.03605],[-75.77957,38.03332],[-75.78084,38.03318],[-75.84365,37.99131],[-75.84404,37.98908],[-75.84477,37.98034],[-75.85054,37.97965],[-75.85066,37.97812],[-75.85145,37.97805],[-75.85159,37.97953],[-75.85295,37.9793],[-75.85417,37.97855],[-75.85599,37.9786],[-75.858,37.98081],[-75.86362,37.97776],[-75.8573,37.98107],[-75.85237,37.98518],[-75.84378,37.99093],[-75.84362,37.99132],[-75.84454,37.9907],[-75.84507,37.99123],[-75.84453,37.99136]],"type":"LineString"},"properties":{"color":"#FECB00","color_name":"yellow","kind":"route","label":"705S","long":"Princess Anne - Crisfield","route_id":"705S","text_color":"#FFFFFF","type_label":"Bus"},"type":"Feature"},{"geometry":{"coordinates":[-75.50591,38.37602],"type":"Point"},"properties":{"kind":"stop","name":"Shore Transit Bus Terminal","stop_id":"S100"},"type":"Feature"},{"geometry":{"coordinates":[-75.592,38.37414],"type":"Point"},"properties":{"kind":"stop","name":"E. S. Adkins Business Center","stop_id":"S102"},"type":"Feature"},{"geometry":{"coordinates":[-75.6137,38.33103],"type":"Point"},"properties":{"kind":"stop","name":"Apple Drugs - Fruitland","stop_id":"S104"},"type":"Feature"},{"geometry":{"coordinates":[-75.60341,38.34472],"type":"Point"},"properties":{"kind":"stop","name":"Pat's Pizzeria","stop_id":"S107"},"type":"Feature"},{"geometry":{"coordinates":[-75.58137,38.34796],"type":"Point"},"properties":{"kind":"stop","name":"Beaglin Station","stop_id":"S108"},"type":"Feature"},{"geometry":{"coordinates":[-75.61375,38.37747],"type":"Point"},"properties":{"kind":"stop","name":"Booth St. - Wicomico Nursing Home","stop_id":"S110"},"type":"Feature"},{"geometry":{"coordinates":[-75.56485,38.39725],"type":"Point"},"properties":{"kind":"stop","name":"Centre @ Salisbury (Dick's Sporting Good's Entrance)","stop_id":"S117"},"type":"Feature"},{"geometry":{"coordinates":[-75.58593,38.38231],"type":"Point"},"properties":{"kind":"stop","name":"Value Carpet One","stop_id":"S125"},"type":"Feature"},{"geometry":{"coordinates":[-75.57703,38.39009],"type":"Point"},"properties":{"kind":"stop","name":"Gordy Rd. & Business Rt. 13 N.","stop_id":"S131"},"type":"Feature"},{"geometry":{"coordinates":[-75.60451,38.40127],"type":"Point"},"properties":{"kind":"stop","name":"Hearn Ln. & Jersey Rd.","stop_id":"S135"},"type":"Feature"},{"geometry":{"coordinates":[-75.58491,38.38269],"type":"Point"},"properties":{"kind":"stop","name":"Homer St. & Business Rt. 13 N.","stop_id":"S138"},"type":"Feature"},{"geometry":{"coordinates":[-75.60242,38.33866],"type":"Point"},"properties":{"kind":"stop","name":"Milford Street Medical Center","stop_id":"S143"},"type":"Feature"},{"geometry":{"coordinates":[-75.5932,38.37344],"type":"Point"},"properties":{"kind":"stop","name":"Friendly Food Store","stop_id":"S145"},"type":"Feature"},{"geometry":{"coordinates":[-75.5913,38.37721],"type":"Point"},"properties":{"kind":"stop","name":"Union Ave. & Business Rt. 13 S.","stop_id":"S146"},"type":"Feature"},{"geometry":{"coordinates":[-75.5645,38.40902],"type":"Point"},"properties":{"kind":"stop","name":"Golden Corral Buffet","stop_id":"S148"},"type":"Feature"},{"geometry":{"coordinates":[-75.60086,38.35451],"type":"Point"},"properties":{"kind":"stop","name":"South Salisbury Plaza","stop_id":"S153"},"type":"Feature"},{"geometry":{"coordinates":[-75.57107,38.41219],"type":"Point"},"properties":{"kind":"stop","name":"Social Security Administration","stop_id":"S154"},"type":"Feature"},{"geometry":{"coordinates":[-75.57772,38.40491],"type":"Point"},"properties":{"kind":"stop","name":"Blind Industries And Services of MD (Northwood Dr.)","stop_id":"S155"},"type":"Feature"},{"geometry":{"coordinates":[-75.58115,38.36796],"type":"Point"},"properties":{"kind":"stop","name":"Walgreen's @ 917 Mt. Hermon Rd.","stop_id":"S158"},"type":"Feature"},{"geometry":{"coordinates":[-75.61573,38.36577],"type":"Point"},"properties":{"kind":"stop","name":"Parsons Rd. & Mitchell Rd.","stop_id":"S159"},"type":"Feature"},{"geometry":{"coordinates":[-75.62177,38.3676],"type":"Point"},"properties":{"kind":"stop","name":"Food Lion (Pecan Square)","stop_id":"S160"},"type":"Feature"},{"geometry":{"coordinates":[-75.62775,38.34408],"type":"Point"},"properties":{"kind":"stop","name":"Pine Bluff Village","stop_id":"S164"},"type":"Feature"},{"geometry":{"coordinates":[-75.42203,38.38609],"type":"Point"},"properties":{"kind":"stop","name":"Sixty Foot Rd. (in front of produce stand)","stop_id":"S166"},"type":"Feature"},{"geometry":{"coordinates":[-75.42183,38.38599],"type":"Point"},"properties":{"kind":"stop","name":"Sixty Foot Rd. (in front of JT's Market)","stop_id":"S167"},"type":"Feature"},{"geometry":{"coordinates":[-75.60753,38.36089],"type":"Point"},"properties":{"kind":"stop","name":"Riverside Medical Center","stop_id":"S169"},"type":"Feature"},{"geometry":{"coordinates":[-75.57345,38.37109],"type":"Point"},"properties":{"kind":"stop","name":"Civic Ave. & Saratoga St.","stop_id":"S171"},"type":"Feature"},{"geometry":{"coordinates":[-75.59621,38.36637],"type":"Point"},"properties":{"kind":"stop","name":"Calvert Street","stop_id":"S173"},"type":"Feature"},{"geometry":{"coordinates":[-75.60439,38.34381],"type":"Point"},"properties":{"kind":"stop","name":"Salisbury University (Maggs Activity Center)","stop_id":"S174"},"type":"Feature"},{"geometry":{"coordinates":[-75.54724,38.36344],"type":"Point"},"properties":{"kind":"stop","name":"K-Mart - Salisbury","stop_id":"S175"},"type":"Feature"},{"geometry":{"coordinates":[-75.60959,38.35921],"type":"Point"},"properties":{"kind":"stop","name":"Taylor St. & Alabama Ave.","stop_id":"S178"},"type":"Feature"},{"geometry":{"coordinates":[-75.61029,38.3291],"type":"Point"},"properties":{"kind":"stop","name":"Walmart - Fruitland","stop_id":"S181"},"type":"Feature"},{"geometry":{"coordinates":[-75.56895,38.41647],"type":"Point"},"properties":{"kind":"stop","name":"Walmart - Salisbury","stop_id":"S182"},"type":"Feature"},{"geometry":{"coordinates":[-75.60122,38.36429],"type":"Point"},"properties":{"kind":"stop","name":"Wicomico County Free Library","stop_id":"S190"},"type":"Feature"},{"geometry":{"coordinates":[-75.51969,38.3745],"type":"Point"},"properties":{"kind":"stop","name":"Winter Place Parkway","stop_id":"S191"},"type":"Feature"},{"geometry":{"coordinates":[-75.55994,38.45526],"type":"Point"},"properties":{"kind":"stop","name":"Rite Aid - Delmar","stop_id":"S192"},"type":"Feature"},{"geometry":{"coordinates":[-75.50167,38.37383],"type":"Point"},"properties":{"kind":"stop","name":"Wor Wic Community College","stop_id":"S193"},"type":"Feature"},{"geometry":{"coordinates":[-75.6899,38.21713],"type":"Point"},"properties":{"kind":"stop","name":"Ardens Run Apartment","stop_id":"S194"},"type":"Feature"},{"geometry":{"coordinates":[-75.86366,37.97774],"type":"Point"},"properties":{"kind":"stop","name":"Crisfield Dock","stop_id":"S195"},"type":"Feature"},{"geometry":{"coordinates":[-75.84416,37.98689],"type":"Point"},"properties":{"kind":"stop","name":"Crisfield High School - North","stop_id":"S197"},"type":"Feature"},{"geometry":{"coordinates":[-75.8525,37.97935],"type":"Point"},"properties":{"kind":"stop","name":"Charlotte Ave. & Cove St. - East","stop_id":"S198"},"type":"Feature"},{"geometry":{"coordinates":[-75.84488,37.98024],"type":"Point"},"properties":{"kind":"stop","name":"Cove St. & Somerset Ave. - East","stop_id":"S200"},"type":"Feature"},{"geometry":{"coordinates":[-75.85657,37.98187],"type":"Point"},"properties":{"kind":"stop","name":"The Crab Place","stop_id":"S202"},"type":"Feature"},{"geometry":{"coordinates":[-75.84439,37.99088],"type":"Point"},"properties":{"kind":"stop","name":"McDonalds - Crisfield","stop_id":"S204"},"type":"Feature"},{"geometry":{"coordinates":[-75.69312,38.19385],"type":"Point"},"properties":{"kind":"stop","name":"Greenwood Gardens Apartments","stop_id":"S207"},"type":"Feature"},{"geometry":{"coordinates":[-75.69115,38.19836],"type":"Point"},"properties":{"kind":"stop","name":"Hampden Avenue - North","stop_id":"S208"},"type":"Feature"},{"geometry":{"coordinates":[-75.69137,38.19843],"type":"Point"},"properties":{"kind":"stop","name":"Hampden Avenue - South","stop_id":"S209"},"type":"Feature"},{"geometry":{"coordinates":[-75.7707,38.03942],"type":"Point"},"properties":{"kind":"stop","name":"Marion Fire Department - South","stop_id":"S210"},"type":"Feature"},{"geometry":{"coordinates":[-75.77061,38.03935],"type":"Point"},"properties":{"kind":"stop","name":"Marion Fire Department - North","stop_id":"S211"},"type":"Feature"},{"geometry":{"coordinates":[-75.76444,38.03968],"type":"Point"},"properties":{"kind":"stop","name":"Marion Sarah Peyton School","stop_id":"S212"},"type":"Feature"},{"geometry":{"coordinates":[-75.69547,38.21321],"type":"Point"},"properties":{"kind":"stop","name":"Princess Anne Mini-Storage & Rentals","stop_id":"S214"},"type":"Feature"},{"geometry":{"coordinates":[-75.69844,38.21538],"type":"Point"},"properties":{"kind":"stop","name":"Princess Anne Transfer Point","stop_id":"S215"},"type":"Feature"},{"geometry":{"coordinates":[-75.69025,38.17759],"type":"Point"},"properties":{"kind":"stop","name":"Kings Creek Market - South","stop_id":"S216"},"type":"Feature"},{"geometry":{"coordinates":[-75.69011,38.17783],"type":"Point"},"properties":{"kind":"stop","name":"Kings Creek Market - North","stop_id":"S217"},"type":"Feature"},{"geometry":{"coordinates":[-75.68966,38.16815],"type":"Point"},"properties":{"kind":"stop","name":"Wilson Landing - North","stop_id":"S218"},"type":"Feature"},{"geometry":{"coordinates":[-75.68979,38.16816],"type":"Point"},"properties":{"kind":"stop","name":"Wilson Landing - South","stop_id":"S219"},"type":"Feature"},{"geometry":{"coordinates":[-75.69372,38.20529],"type":"Point"},"properties":{"kind":"stop","name":"Shamrock Gas / Stop n Shop","stop_id":"S220"},"type":"Feature"},{"geometry":{"coordinates":[-75.8551,37.97858],"type":"Point"},"properties":{"kind":"stop","name":"Somers Cove 1 - Wilson Center","stop_id":"S221"},"type":"Feature"},{"geometry":{"coordinates":[-75.85073,37.97815],"type":"Point"},"properties":{"kind":"stop","name":"Somers Cove 3 - Retirement Village","stop_id":"S223"},"type":"Feature"},{"geometry":{"coordinates":[-75.71744,38.09888],"type":"Point"},"properties":{"kind":"stop","name":"Somerset County Health Department","stop_id":"S224"},"type":"Feature"},{"geometry":{"coordinates":[-75.69329,38.21883],"type":"Point"},"properties":{"kind":"stop","name":"Talons Square Apts","stop_id":"S228"},"type":"Feature"},{"geometry":{"coordinates":[-75.68911,38.21077],"type":"Point"},"properties":{"kind":"stop","name":"UMES - Student Services Center","stop_id":"S229"},"type":"Feature"},{"geometry":{"coordinates":[-75.69278,38.20232],"type":"Point"},"properties":{"kind":"stop","name":"Princess Anne Post Office - South","stop_id":"S230"},"type":"Feature"},{"geometry":{"coordinates":[-75.69271,38.20254],"type":"Point"},"properties":{"kind":"stop","name":"Princess Anne Post Office - North","stop_id":"S231"},"type":"Feature"},{"geometry":{"coordinates":[-75.69511,38.12971],"type":"Point"},"properties":{"kind":"stop","name":"Westover Park and Ride","stop_id":"S232"},"type":"Feature"},{"geometry":{"coordinates":[-75.70588,38.12493],"type":"Point"},"properties":{"kind":"stop","name":"Dash In - South","stop_id":"S233"},"type":"Feature"},{"geometry":{"coordinates":[-75.70548,38.12533],"type":"Point"},"properties":{"kind":"stop","name":"Dash In - North","stop_id":"S234"},"type":"Feature"},{"geometry":{"coordinates":[-75.21054,38.33873],"type":"Point"},"properties":{"kind":"stop","name":"Atlantic General Hospital","stop_id":"S236"},"type":"Feature"},{"geometry":{"coordinates":[-75.21137,38.32337],"type":"Point"},"properties":{"kind":"stop","name":"Decatur St.","stop_id":"S242"},"type":"Feature"},{"geometry":{"coordinates":[-75.16273,38.3411],"type":"Point"},"properties":{"kind":"stop","name":"Walmart - Berlin","stop_id":"S247"},"type":"Feature"},{"geometry":{"coordinates":[-75.10957,38.33712],"type":"Point"},"properties":{"kind":"stop","name":"Comfort Inn - Ocean City","stop_id":"S248"},"type":"Feature"},{"geometry":{"coordinates":[-75.2868,38.24825],"type":"Point"},"properties":{"kind":"stop","name":"Langmaid Rd. & Rt. 113 S.","stop_id":"S249"},"type":"Feature"},{"geometry":{"coordinates":[-75.29078,38.25078],"type":"Point"},"properties":{"kind":"stop","name":"Newark Rd. & Langmaid Rd. - South","stop_id":"S250"},"type":"Feature"},{"geometry":{"coordinates":[-75.29058,38.25085],"type":"Point"},"properties":{"kind":"stop","name":"Newark Rd. & Langmaid Rd. - North","stop_id":"S251"},"type":"Feature"},{"geometry":{"coordinates":[-75.16988,38.37861],"type":"Point"},"properties":{"kind":"stop","name":"Ocean Pines Plaza","stop_id":"S252"},"type":"Feature"},{"geometry":{"coordinates":[-75.54848,38.06379],"type":"Point"},"properties":{"kind":"stop","name":"Hardee's - Pocomoke City","stop_id":"S253"},"type":"Feature"},{"geometry":{"coordinates":[-75.56078,38.07536],"type":"Point"},"properties":{"kind":"stop","name":"Pocomoke Plaza","stop_id":"S255"},"type":"Feature"},{"geometry":{"coordinates":[-75.37501,38.17023],"type":"Point"},"properties":{"kind":"stop","name":"Snow Hill Detention Center","stop_id":"S256"},"type":"Feature"},{"geometry":{"coordinates":[-75.39513,38.17822],"type":"Point"},"properties":{"kind":"stop","name":"Sturgis Park","stop_id":"S257"},"type":"Feature"},{"geometry":{"coordinates":[-75.08871,38.32734],"type":"Point"},"properties":{"kind":"stop","name":"Ocean City Transfer Point","stop_id":"S258"},"type":"Feature"},{"geometry":{"coordinates":[-75.55386,38.07343],"type":"Point"},"properties":{"kind":"stop","name":"Walmart - Pocomoke City","stop_id":"S259"},"type":"Feature"},{"geometry":{"coordinates":[-75.31091,38.38383],"type":"Point"},"properties":{"kind":"stop","name":"Fort Whaley Campground","stop_id":"S260"},"type":"Feature"},{"geometry":{"coordinates":[-75.10969,38.33826],"type":"Point"},"properties":{"kind":"stop","name":"White Marlin Mall (at KFC)","stop_id":"S261"},"type":"Feature"},{"geometry":{"coordinates":[-75.10261,38.33499],"type":"Point"},"properties":{"kind":"stop","name":"West Ocean City Park and Ride","stop_id":"S262"},"type":"Feature"},{"geometry":{"coordinates":[-75.14355,38.3375],"type":"Point"},"properties":{"kind":"stop","name":"Worcester Addiction Cooperative Services (WAC)","stop_id":"S263"},"type":"Feature"},{"geometry":{"coordinates":[-75.38724,38.16461],"type":"Point"},"properties":{"kind":"stop","name":"Wor. Co. Commission on Aging Inc (MAC)","stop_id":"S264"},"type":"Feature"},{"geometry":{"coordinates":[-75.59718,38.40842],"type":"Point"},"properties":{"kind":"stop","name":"Lodges @ Naylor Mill","stop_id":"S265"},"type":"Feature"},{"geometry":{"coordinates":[-75.39996,38.16847],"type":"Point"},"properties":{"kind":"stop","name":"Market St. &  Maple St.","stop_id":"S266"},"type":"Feature"},{"geometry":{"coordinates":[-75.39989,38.17378],"type":"Point"},"properties":{"kind":"stop","name":"Byrd Park - South","stop_id":"S267"},"type":"Feature"},{"geometry":{"coordinates":[-75.40002,38.17348],"type":"Point"},"properties":{"kind":"stop","name":"Byrd Park - North","stop_id":"S268"},"type":"Feature"},{"geometry":{"coordinates":[-75.69386,38.20513],"type":"Point"},"properties":{"kind":"stop","name":"Princess Anne Fire Company","stop_id":"S269"},"type":"Feature"},{"geometry":{"coordinates":[-75.57726,38.39021],"type":"Point"},"properties":{"kind":"stop","name":"Gordy Rd. & Business Rt. 13 S.","stop_id":"S272"},"type":"Feature"},{"geometry":{"coordinates":[-75.70832,38.126],"type":"Point"},"properties":{"kind":"stop","name":"Sign Post Road","stop_id":"S273"},"type":"Feature"},{"geometry":{"coordinates":[-75.5724,38.40211],"type":"Point"},"properties":{"kind":"stop","name":"Kiley Dr. & West Zion Rd.","stop_id":"S274"},"type":"Feature"},{"geometry":{"coordinates":[-75.59561,38.35731],"type":"Point"},"properties":{"kind":"stop","name":"716 South Division Street","stop_id":"S275"},"type":"Feature"},{"geometry":{"coordinates":[-75.58764,38.37118],"type":"Point"},"properties":{"kind":"stop","name":"E. Church St. & Naylor St.","stop_id":"S276"},"type":"Feature"},{"geometry":{"coordinates":[-75.5509,38.36372],"type":"Point"},"properties":{"kind":"stop","name":"Woodbrooke Dr. - TLC Medical Ctr.","stop_id":"S277"},"type":"Feature"},{"geometry":{"coordinates":[-75.61769,38.32712],"type":"Point"},"properties":{"kind":"stop","name":"Food Lion - Fruitland","stop_id":"S283"},"type":"Feature"},{"geometry":{"coordinates":[-75.21222,38.3302],"type":"Point"},"properties":{"kind":"stop","name":"Franklin Ave. (across from Medical Center)","stop_id":"S296"},"type":"Feature"},{"geometry":{"coordinates":[-75.21804,38.32489],"type":"Point"},"properties":{"kind":"stop","name":"Pitts St.","stop_id":"S297"},"type":"Feature"},{"geometry":{"coordinates":[-75.56474,38.07283],"type":"Point"},"properties":{"kind":"stop","name":"Pocomoke Family Medical Ctr. @ 5th St.","stop_id":"S300"},"type":"Feature"},{"geometry":{"coordinates":[-75.16362,38.35266],"type":"Point"},"properties":{"kind":"stop","name":"Casino at Ocean Downs and Race Track","stop_id":"S303"},"type":"Feature"},{"geometry":{"coordinates":[-75.16541,38.38021],"type":"Point"},"properties":{"kind":"stop","name":"Ocean Pines Sports Core Pool","stop_id":"S304"},"type":"Feature"},{"geometry":{"coordinates":[-75.16005,38.39839],"type":"Point"},"properties":{"kind":"stop","name":"Ocean Pines Community Center","stop_id":"S305"},"type":"Feature"},{"geometry":{"coordinates":[-75.54425,38.36745],"type":"Point"},"properties":{"kind":"stop","name":"Merritt Mill Rd @ Microtel","stop_id":"S308"},"type":"Feature"},{"geometry":{"coordinates":[-75.54768,38.36842],"type":"Point"},"properties":{"kind":"stop","name":"Health South","stop_id":"S309"},"type":"Feature"},{"geometry":{"coordinates":[-75.57355,38.36711],"type":"Point"},"properties":{"kind":"stop","name":"Twilley Center","stop_id":"S311"},"type":"Feature"},{"geometry":{"coordinates":[-75.58319,38.40714],"type":"Point"},"properties":{"kind":"stop","name":"W. Naylor Mill Rd. @ MaTech","stop_id":"S314"},"type":"Feature"},{"geometry":{"coordinates":[-75.35274,38.3879],"type":"Point"},"properties":{"kind":"stop","name":"Dash In - Willards","stop_id":"S316"},"type":"Feature"},{"geometry":{"coordinates":[-75.56177,38.41496],"type":"Point"},"properties":{"kind":"stop","name":"Target","stop_id":"S317"},"type":"Feature"},{"geometry":{"coordinates":[-75.56695,38.40097],"type":"Point"},"properties":{"kind":"stop","name":"Centre at Salisbury - Boscov's Front Entrance","stop_id":"S318"},"type":"Feature"},{"geometry":{"coordinates":[-75.55907,38.43005],"type":"Point"},"properties":{"kind":"stop","name":"Pond's Edge Apartments","stop_id":"S319"},"type":"Feature"},{"geometry":{"coordinates":[-75.57213,38.45219],"type":"Point"},"properties":{"kind":"stop","name":"Stop n Shop - Delmar","stop_id":"S321"},"type":"Feature"},{"geometry":{"coordinates":[-75.69585,38.21425],"type":"Point"},"properties":{"kind":"stop","name":"Royal Farms","stop_id":"S323"},"type":"Feature"},{"geometry":{"coordinates":[-75.61868,38.32302],"type":"Point"},"properties":{"kind":"stop","name":"Red Fox","stop_id":"S325"},"type":"Feature"},{"geometry":{"coordinates":[-75.62037,38.32163],"type":"Point"},"properties":{"kind":"stop","name":"Autobahn Service Center","stop_id":"S326"},"type":"Feature"},{"geometry":{"coordinates":[-75.59929,38.35548],"type":"Point"},"properties":{"kind":"stop","name":"Giant Food/ Walgreen's","stop_id":"S327"},"type":"Feature"},{"geometry":{"coordinates":[-75.60435,38.34501],"type":"Point"},"properties":{"kind":"stop","name":"Salisbury University @ Perdue School of Business","stop_id":"S329"},"type":"Feature"},{"geometry":{"coordinates":[-75.60448,38.33913],"type":"Point"},"properties":{"kind":"stop","name":"University Terrace @ Milford St.","stop_id":"S330"},"type":"Feature"},{"geometry":{"coordinates":[-75.59918,38.33933],"type":"Point"},"properties":{"kind":"stop","name":"University Orchard @ S. Division St.","stop_id":"S331"},"type":"Feature"},{"geometry":{"coordinates":[-75.59532,38.36113],"type":"Point"},"properties":{"kind":"stop","name":"Evolution Craft Brewing Company","stop_id":"S332"},"type":"Feature"},{"geometry":{"coordinates":[-75.59676,38.36577],"type":"Point"},"properties":{"kind":"stop","name":"E. Main St.","stop_id":"S333"},"type":"Feature"},{"geometry":{"coordinates":[-75.60301,38.36525],"type":"Point"},"properties":{"kind":"stop","name":"Salisbury Downtown Plaza","stop_id":"S334"},"type":"Feature"},{"geometry":{"coordinates":[-75.60661,38.36478],"type":"Point"},"properties":{"kind":"stop","name":"Brew River","stop_id":"S335"},"type":"Feature"},{"geometry":{"coordinates":[-75.69003,38.18635],"type":"Point"},"properties":{"kind":"stop","name":"Eastern Shore Psychological Services","stop_id":"S336"},"type":"Feature"},{"geometry":{"coordinates":[-75.60311,38.38152],"type":"Point"},"properties":{"kind":"stop","name":"Morris St. & Jersey Rd.","stop_id":"S337"},"type":"Feature"},{"geometry":{"coordinates":[-75.12614,38.33896],"type":"Point"},"properties":{"kind":"stop","name":"Greater Ocean City, Maryland Chamber of Commerce","stop_id":"S339"},"type":"Feature"},{"geometry":{"coordinates":[-75.59986,38.36431],"type":"Point"},"properties":{"kind":"stop","name":"Headquarters Live","stop_id":"S340"},"type":"Feature"},{"geometry":{"coordinates":[-75.60456,38.33718],"type":"Point"},"properties":{"kind":"stop","name":"University Park 1","stop_id":"S341"},"type":"Feature"},{"geometry":{"coordinates":[-75.60453,38.33902],"type":"Point"},"properties":{"kind":"stop","name":"University Park 2","stop_id":"S342"},"type":"Feature"},{"geometry":{"coordinates":[-75.58993,38.34318],"type":"Point"},"properties":{"kind":"stop","name":"University Village","stop_id":"S343"},"type":"Feature"},{"geometry":{"coordinates":[-75.60032,38.3459],"type":"Point"},"properties":{"kind":"stop","name":"Avery Street","stop_id":"S344"},"type":"Feature"}],"type":"FeatureCollection"}
