{"features":[{"geometry":{"coordinates":[[-76.5951,38.54478],[-76.59408,38.54493],[-76.59158,38.54605],[-76.59148,38.54592],[-76.59111,38.54608],[-76.59074,38.54556],[-76.59019,38.5458],[-76.59055,38.54632],[-76.59034,38.54638],[-76.59043,38.54654],[-76.5899,38.54672],[-76.58928,38.5456],[-76.58903,38.54455],[-76.58934,38.54013],[-76.59104,38.5402],[-76.59079,38.54138],[-76.58934,38.54136],[-76.58926,38.53897],[-76.58844,38.53712],[-76.58865,38.53658],[-76.59088,38.53569],[-76.59271,38.53454],[-76.59405,38.53413],[-76.59733,38.5336],[-76.60225,38.53363],[-76.60487,38.53307],[-76.60883,38.53272],[-76.60906,38.53365],[-76.60857,38.5348],[-76.60858,38.53531],[-76.60726,38.53544],[-76.6075,38.53562],[-76.60861,38.53543],[-76.60857,38.5348],[-76.60906,38.53365],[-76.60883,38.53272],[-76.61029,38.53206],[-76.6119,38.53093],[-76.61306,38.53101],[-76.6136,38.53149],[-76.61391,38.53236],[-76.615,38.53347],[-76.61572,38.5353],[-76.61489,38.53583],[-76.61467,38.53572],[-76.61391,38.53616],[-76.61425,38.53651],[-76.61518,38.53597],[-76.61522,38.53559],[-76.61572,38.5353],[-76.615,38.53347],[-76.61391,38.53236],[-76.6136,38.53149],[-76.61306,38.53101],[-76.6119,38.53093],[-76.60976,38.53228],[-76.60813,38.53282],[-76.60487,38.53307],[-76.60225,38.53363],[-76.59951,38.53361],[-76.59871,38.53141],[-76.59894,38.53063],[-76.59934,38.53071],[-76.5998,38.53017],[-76.59953,38.52987],[-76.59889,38.53071],[-76.59871,38.53141],[-76.59951,38.53361],[-76.59707,38.53362],[-76.59338,38.53428],[-76.59088,38.53569],[-76.58841,38.53663],[-76.58795,38.53654],[-76.58687,38.53566],[-76.58359,38.53393],[-76.58414,38.53257],[-76.58359,38.53393],[-76.58258,38.53514],[-76.57991,38.5366],[-76.57901,38.53571],[-76.5788,38.53525],[-76.57905,38.53356],[-76.57838,38.53133],[-76.57628,38.52944],[-76.5753,38.52985],[-76.57513,38.53019],[-76.5765,38.5312],[-76.57803,38.53099],[-76.57828,38.53117],[-76.57901,38.53323],[-76.57878,38.53502],[-76.57896,38.53564],[-76.58036,38.53704],[-76.58271,38.53871]],"type":"LineString"},"properties":{"color":"#000000","color_name":"black","kind":"route","label":"White","long":"Prince Frederick Shuttle I","route_id":"1","text_color":"#FFFFFF","type_label":"Bus"},"type":"Feature"},{"geometry":{"coordinates":[[-76.59513,38.54444],[-76.59484,38.54442],[-76.59467,38.54477],[-76.59167,38.54597],[-76.59103,38.5453],[-76.59001,38.54595],[-76.59043,38.54639],[-76.59142,38.54596],[-76.59182,38.546],[-76.59393,38.54507],[-76.59413,38.54513],[-76.59437,38.54597],[-76.5939,38.54739],[-76.59379,38.54925],[-76.59452,38.54946],[-76.5944,38.55037],[-76.59461,38.55016],[-76.59457,38.5496],[-76.59481,38.54943],[-76.5938,38.54936],[-76.59398,38.55031],[-76.59507,38.55176],[-76.59537,38.55248],[-76.59557,38.55254],[-76.596,38.55225],[-76.59679,38.55261],[-76.59717,38.55345],[-76.59688,38.55439],[-76.5978,38.55484],[-76.59802,38.55562],[-76.59899,38.55639],[-76.59998,38.55787],[-76.60307,38.5575],[-76.60386,38.56048],[-76.60357,38.56144],[-76.60316,38.56178],[-76.60396,38.5621],[-76.60433,38.56199],[-76.60404,38.56157],[-76.60387,38.5617],[-76.60409,38.56203],[-76.60389,38.56206],[-76.6035,38.56163],[-76.60229,38.56137],[-76.59959,38.56175],[-76.59871,38.55912],[-76.59837,38.55854],[-76.59813,38.55845],[-76.59652,38.559],[-76.59688,38.55948],[-76.59735,38.55922],[-76.59691,38.55863],[-76.59565,38.55839],[-76.59496,38.55872],[-76.59557,38.56016],[-76.59567,38.56106],[-76.59738,38.56082],[-76.59802,38.56043],[-76.59824,38.55967],[-76.59776,38.55864],[-76.59827,38.55842],[-76.59825,38.5582],[-76.5968,38.55624],[-76.5957,38.55727],[-76.59543,38.55723],[-76.5944,38.55546],[-76.59419,38.55456],[-76.59334,38.55363],[-76.59267,38.55243],[-76.59074,38.54997],[-76.58974,38.54956],[-76.58622,38.54885],[-76.5859,38.54861],[-76.58244,38.55096],[-76.58233,38.55063],[-76.58284,38.54738],[-76.58019,38.54713],[-76.5801,38.54613],[-76.57994,38.54624],[-76.5801,38.54639],[-76.57989,38.54717],[-76.58278,38.54737],[-76.58306,38.54683],[-76.58451,38.54655],[-76.58467,38.54637],[-76.58512,38.54287],[-76.5858,38.54115],[-76.58527,38.54053],[-76.58276,38.53869]],"type":"LineString"},"properties":{"color":"#17AC32","color_name":"green","kind":"route","label":"Green","long":"Prince Frederick Shuttle II","route_id":"2","text_color":"#FFFFFF","type_label":"Bus"},"type":"Feature"},{"geometry":{"coordinates":[[-76.66199,38.72598],[-76.66259,38.72597],[-76.66257,38.72612],[-76.66142,38.72613],[-76.66016,38.72588],[-76.66078,38.72174],[-76.66201,38.72115],[-76.66183,38.71992],[-76.66248,38.71963],[-76.66221,38.71821],[-76.66412,38.71805],[-76.66454,38.71813],[-76.66487,38.71846],[-76.66471,38.71819],[-76.66421,38.71802],[-76.6629,38.71802],[-76.6608,38.71834],[-76.65941,38.71531],[-76.65891,38.71469],[-76.65623,38.71233],[-76.65101,38.70858],[-76.64979,38.70743],[-76.64929,38.70681],[-76.64678,38.70218],[-76.63987,38.69149],[-76.63992,38.6912],[-76.64041,38.69099],[-76.64037,38.6905],[-76.63911,38.69036],[-76.63651,38.68578],[-76.63486,38.68383],[-76.62109,38.6721],[-76.60897,38.66284],[-76.60906,38.66268],[-76.6129,38.66204],[-76.61594,38.66025],[-76.61848,38.65953],[-76.62127,38.65935],[-76.62389,38.6597],[-76.62718,38.65349],[-76.62968,38.64923],[-76.63038,38.64856],[-76.63494,38.64563],[-76.63581,38.64465],[-76.63605,38.64404],[-76.63542,38.64211],[-76.63377,38.63917],[-76.6339,38.63594],[-76.63418,38.63453],[-76.63198,38.63263],[-76.63179,38.63213],[-76.6321,38.63025],[-76.63343,38.62717],[-76.63352,38.62524],[-76.63006,38.6226],[-76.62658,38.62089],[-76.62501,38.61972],[-76.62365,38.61913],[-76.61871,38.61759],[-76.61653,38.61766],[-76.61359,38.61731],[-76.61307,38.61448],[-76.61246,38.61441],[-76.61212,38.61643],[-76.61067,38.6219],[-76.61015,38.62322],[-76.60911,38.62471],[-76.60586,38.6277],[-76.60534,38.62849],[-76.6049,38.62977],[-76.60628,38.65794],[-76.60682,38.66063],[-76.60667,38.66113],[-76.60399,38.66435],[-76.60415,38.66458],[-76.60431,38.66452],[-76.6041,38.66441],[-76.60416,38.66419],[-76.60707,38.66063],[-76.60653,38.65842],[-76.60641,38.65148],[-76.6051,38.62993],[-76.60542,38.6288],[-76.60586,38.62803],[-76.60953,38.62451],[-76.61072,38.62245],[-76.61247,38.61556],[-76.61292,38.60936],[-76.61463,38.60257],[-76.61479,38.60082],[-76.61278,38.59268],[-76.61193,38.5903],[-76.61072,38.58861],[-76.60525,38.58323],[-76.60268,38.5798],[-76.60207,38.57839],[-76.60181,38.57609],[-76.6023,38.5722],[-76.60178,38.56948],[-76.59854,38.55873],[-76.59462,38.55302],[-76.59493,38.55268],[-76.5957,38.55242],[-76.59404,38.55035],[-76.59384,38.54979],[-76.59396,38.54732],[-76.59443,38.54589],[-76.59419,38.54502],[-76.59568,38.54482],[-76.59573,38.54455],[-76.59514,38.54441]],"type":"LineString"},"properties":{"color":"#FF7D00","color_name":"orange","kind":"route","label":"Orange","long":"Dunkirk Route","route_id":"3","text_color":"#FFFFFF","type_label":"Bus"},"type":"Feature"},{"geometry":{"coordinates":[[-76.58264,38.53877],[-76.58536,38.54065],[-76.58612,38.53938],[-76.58724,38.53806],[-76.58811,38.53854],[-76.5888,38.53841],[-76.58915,38.53965],[-76.58916,38.54135],[-76.59077,38.54154],[-76.5911,38.54021],[-76.5895,38.54009],[-76.58924,38.53848],[-76.58849,38.53686],[-76.58887,38.5365],[-76.59104,38.53568],[-76.59165,38.53628],[-76.59187,38.53698],[-76.59184,38.53889],[-76.59335,38.54179],[-76.59341,38.54362],[-76.59371,38.54443],[-76.59416,38.54493],[-76.59555,38.54486],[-76.59574,38.54464],[-76.59489,38.54439],[-76.59474,38.54473],[-76.5941,38.54499],[-76.59438,38.54586],[-76.5939,38.54752],[-76.59377,38.54959],[-76.59389,38.55015],[-76.59514,38.55188],[-76.59539,38.55251],[-76.59594,38.55225],[-76.5969,38.55273],[-76.59717,38.55356],[-76.59688,38.5544],[-76.59782,38.55486],[-76.59798,38.55557],[-76.59903,38.55642],[-76.59759,38.55704],[-76.59444,38.55304],[-76.59418,38.55296],[-76.59307,38.55331],[-76.59415,38.5546],[-76.59437,38.55553],[-76.59549,38.55734],[-76.59579,38.5573],[-76.59669,38.55638],[-76.59766,38.55764],[-76.59802,38.55843],[-76.59654,38.55899],[-76.59674,38.55945],[-76.59734,38.55929],[-76.59722,38.55881],[-76.59804,38.55859],[-76.59841,38.55911],[-76.60193,38.57117],[-76.60196,38.57299],[-76.6015,38.57621],[-76.60182,38.57856],[-76.6029,38.58062],[-76.6054,38.58381],[-76.61047,38.58872],[-76.61163,38.59028],[-76.61226,38.59189],[-76.61442,38.60023],[-76.61444,38.60229],[-76.61262,38.60989],[-76.61224,38.61571],[-76.61069,38.62183],[-76.6102,38.62312],[-76.60933,38.62444],[-76.60565,38.62798],[-76.60514,38.62894],[-76.60486,38.63005],[-76.60612,38.65228],[-76.60624,38.65731],[-76.60678,38.66082],[-76.60629,38.66161],[-76.59749,38.67207],[-76.59648,38.674],[-76.59587,38.6766],[-76.59599,38.67945],[-76.59691,38.68214],[-76.59799,38.68393],[-76.60521,38.69425],[-76.60633,38.69638],[-76.60698,38.69866],[-76.60247,38.69849],[-76.59681,38.69913],[-76.59502,38.69965],[-76.5922,38.70003],[-76.58967,38.70158],[-76.57492,38.70377],[-76.5731,38.70384],[-76.56901,38.70313],[-76.5565,38.69947],[-76.55265,38.69913],[-76.54999,38.69857],[-76.54975,38.69785],[-76.5492,38.6974],[-76.54841,38.69693],[-76.54701,38.69647],[-76.54175,38.69577],[-76.54044,38.6958],[-76.54017,38.69614],[-76.53375,38.69482],[-76.53413,38.69913],[-76.53235,38.7093],[-76.53592,38.70982],[-76.53572,38.71131]],"type":"LineString"},"properties":{"color":"#FF66B3","color_name":"pink","kind":"route","label":"Pink","long":"North Route","route_id":"4","text_color":"#FFFFFF","type_label":"Bus"},"type":"Feature"},{"geometry":{"coordinates":[[-76.46557,38.33595],[-76.46556,38.33704],[-76.46464,38.33705],[-76.46441,38.33624],[-76.4635,38.33633],[-76.46342,38.33653],[-76.46434,38.33716],[-76.46641,38.33711],[-76.46643,38.33807],[-76.46617,38.33879],[-76.46446,38.34118],[-76.46401,38.34248],[-76.46172,38.34575],[-76.46052,38.34652],[-76.46002,38.34644],[-76.45914,38.34758],[-76.45967,38.34802],[-76.4593,38.34856],[-76.45942,38.34876],[-76.45797,38.35039],[-76.45601,38.34923],[-76.4554,38.34864],[-76.45422,38.34617],[-76.45392,38.34486],[-76.45397,38.34221],[-76.4533,38.33879],[-76.4533,38.33857],[-76.45365,38.33843],[-76.45321,38.33839],[-76.45392,38.34209],[-76.45388,38.34486],[-76.45413,38.34602],[-76.45527,38.34855],[-76.45786,38.35062],[-76.45643,38.35249],[-76.45376,38.35426],[-76.45246,38.3555],[-76.45171,38.35688],[-76.45081,38.36091],[-76.45042,38.36182],[-76.4493,38.36381],[-76.44833,38.36393],[-76.44699,38.3635],[-76.44564,38.36158],[-76.44365,38.36035],[-76.44248,38.35894],[-76.44184,38.35844],[-76.44087,38.35816],[-76.43606,38.3581],[-76.43539,38.35783],[-76.43315,38.35614],[-76.43323,38.35533],[-76.43358,38.35458],[-76.43842,38.34913],[-76.43989,38.34643],[-76.43832,38.34919],[-76.43359,38.35451],[-76.43297,38.35607],[-76.42923,38.35602],[-76.4278,38.35553],[-76.42699,38.35465],[-76.42677,38.35377],[-76.42671,38.3512],[-76.42637,38.35017],[-76.42478,38.34701],[-76.42458,38.34564],[-76.42467,38.34234],[-76.42486,38.34155],[-76.42945,38.33115],[-76.42998,38.33043],[-76.43106,38.32973],[-76.43201,38.32944],[-76.44594,38.32663],[-76.44813,38.32616],[-76.44814,38.32602],[-76.43166,38.32949],[-76.43041,38.33003],[-76.42969,38.33069],[-76.42474,38.34177],[-76.42454,38.34274],[-76.42468,38.34682],[-76.42659,38.35092],[-76.42673,38.35396],[-76.42704,38.35482],[-76.4277,38.35552],[-76.42875,38.35597],[-76.43208,38.35601],[-76.433,38.35642],[-76.4347,38.36456],[-76.43503,38.36543],[-76.43811,38.36938],[-76.44112,38.37219],[-76.43532,38.37546],[-76.43638,38.37867],[-76.43716,38.37945],[-76.43701,38.37967],[-76.43561,38.37988],[-76.43553,38.38018],[-76.43648,38.38017],[-76.43725,38.37948],[-76.438,38.37975],[-76.43847,38.37876],[-76.4393,38.37812],[-76.43891,38.37727],[-76.43901,38.37678],[-76.43802,38.3765],[-76.43777,38.37686],[-76.43885,38.3773],[-76.43927,38.37808],[-76.43842,38.37877],[-76.43826,38.37934],[-76.43788,38.3797],[-76.43674,38.37912],[-76.43648,38.37879],[-76.43527,38.3755],[-76.43367,38.37702],[-76.43131,38.37987],[-76.43081,38.38099],[-76.43063,38.38238],[-76.43092,38.38719],[-76.43136,38.38847],[-76.4322,38.38875],[-76.43602,38.3888],[-76.43633,38.39116],[-76.43684,38.3929],[-76.43786,38.39509],[-76.43925,38.39707],[-76.4416,38.39943],[-76.44912,38.40525],[-76.45161,38.40806],[-76.4565,38.4163],[-76.46205,38.42324],[-76.46792,38.43844],[-76.46938,38.44203],[-76.4702,38.44338],[-76.47164,38.44453],[-76.47343,38.4453],[-76.48757,38.4476],[-76.49005,38.44832],[-76.49235,38.44945],[-76.49375,38.45044],[-76.49505,38.45167],[-76.51017,38.46837],[-76.51101,38.46971],[-76.5112,38.4704],[-76.5082,38.4725],[-76.50587,38.4732],[-76.50793,38.47696],[-76.50816,38.47783],[-76.50818,38.48027],[-76.50838,38.48137],[-76.5102,38.4841],[-76.51115,38.48679],[-76.51237,38.48929],[-76.51414,38.49154],[-76.51624,38.49094],[-76.51916,38.49513],[-76.52103,38.4967],[-76.52275,38.49759],[-76.52541,38.49832],[-76.53563,38.49964],[-76.54806,38.50264],[-76.55015,38.50344],[-76.55405,38.50535],[-76.55931,38.50711],[-76.56239,38.50872],[-76.56383,38.5099],[-76.5656,38.51239],[-76.56897,38.51601],[-76.58024,38.53144],[-76.58129,38.53257],[-76.58338,38.53407],[-76.5824,38.53525],[-76.57994,38.53669],[-76.58531,38.54063],[-76.58724,38.53807],[-76.58763,38.53823],[-76.58731,38.53854],[-76.58687,38.5384],[-76.58533,38.54066],[-76.5898,38.54677],[-76.59435,38.54491],[-76.59567,38.54484],[-76.59571,38.54454],[-76.59513,38.54442]],"type":"LineString"},"properties":{"color":"#008ED2","color_name":"teal","kind":"route","label":"Blue","long":"South Route","route_id":"5","text_color":"#FFFFFF","type_label":"Bus"},"type":"Feature"},{"geometry":{"coordinates":[[-76.64228,38.5074],[-76.64258,38.50572],[-76.64231,38.50465],[-76.64288,38.50326],[-76.64218,38.50207],[-76.64151,38.4995],[-76.6413,38.49927],[-76.63726,38.4993],[-76.63583,38.49796],[-76.63524,38.49676],[-76.63438,38.4963],[-76.63273,38.49608],[-76.63059,38.49636],[-76.62634,38.49615],[-76.62544,38.49635],[-76.62476,38.49627],[-76.62263,38.49513],[-76.62069,38.49466],[-76.61768,38.49404],[-76.61419,38.49396],[-76.61261,38.49363],[-76.61068,38.49226],[-76.60925,38.49182],[-76.60742,38.49217],[-76.60582,38.49398],[-76.6042,38.49529],[-76.6035,38.4955],[-76.60232,38.49555],[-76.60038,38.49515],[-76.59895,38.49447],[-76.59718,38.4947],[-76.59306,38.49404],[-76.59101,38.4939],[-76.59007,38.49411],[-76.58708,38.49588],[-76.58292,38.49704],[-76.57508,38.50132],[-76.57013,38.50459],[-76.57067,38.50519],[-76.57013,38.50459],[-76.57432,38.50176],[-76.57684,38.50032],[-76.58292,38.49704],[-76.58708,38.49588],[-76.58962,38.49431],[-76.59069,38.49395],[-76.58996,38.49312],[-76.5897,38.49065],[-76.58993,38.48892],[-76.58962,38.48844],[-76.58867,38.48786],[-76.58702,38.48748],[-76.58298,38.48586],[-76.58126,38.48542],[-76.57916,38.48658],[-76.57784,38.48678],[-76.57703,38.48735],[-76.57529,38.4875],[-76.5726,38.48849],[-76.57098,38.48863],[-76.56804,38.48843],[-76.5654,38.48935],[-76.56349,38.48908],[-76.56259,38.48876],[-76.56004,38.48691],[-76.55771,38.4841],[-76.55496,38.48185],[-76.55114,38.48039],[-76.54621,38.47793],[-76.5466,38.47686],[-76.54679,38.47445],[-76.54797,38.47155],[-76.54848,38.47114],[-76.5509,38.47012],[-76.55231,38.46926],[-76.55619,38.46484],[-76.55641,38.46372],[-76.55629,38.45885],[-76.55741,38.45672],[-76.5593,38.45471],[-76.56096,38.45089],[-76.56109,38.44926],[-76.56256,38.44886],[-76.56442,38.4487],[-76.56572,38.44884],[-76.56767,38.44941],[-76.57047,38.44934],[-76.57603,38.44844],[-76.57808,38.44772],[-76.57603,38.44844],[-76.57047,38.44934],[-76.56767,38.44941],[-76.56572,38.44884],[-76.56442,38.4487],[-76.56256,38.44886],[-76.56109,38.44926],[-76.56065,38.4459],[-76.5594,38.44246],[-76.55693,38.43961],[-76.55365,38.43404],[-76.55185,38.43138],[-76.5499,38.42686],[-76.54749,38.42344],[-76.54508,38.42068],[-76.54456,38.41984],[-76.54439,38.41897],[-76.54447,38.41803],[-76.54697,38.41409],[-76.54525,38.41329],[-76.54532,38.41287],[-76.54525,38.41329],[-76.54697,38.41409],[-76.54447,38.41803],[-76.54439,38.41897],[-76.54456,38.41984],[-76.54508,38.42068],[-76.54749,38.42344],[-76.5499,38.42686],[-76.55185,38.43138],[-76.55365,38.43404],[-76.55693,38.43961],[-76.5594,38.44246],[-76.56065,38.4459],[-76.56109,38.4491],[-76.55886,38.44956],[-76.55695,38.44958],[-76.55272,38.44867],[-76.55244,38.44883],[-76.55163,38.45015],[-76.55023,38.45126],[-76.54958,38.45267],[-76.54784,38.45396],[-76.54453,38.45556],[-76.54297,38.45594],[-76.53961,38.45619],[-76.5382,38.45787],[-76.53275,38.4557],[-76.52805,38.45345],[-76.52347,38.44972],[-76.52102,38.44652],[-76.51699,38.44269],[-76.5165,38.44203],[-76.51478,38.44366],[-76.51066,38.4436],[-76.50933,38.44432],[-76.50842,38.44509],[-76.50795,38.44577],[-76.50741,38.44818],[-76.50613,38.4507],[-76.5058,38.45114],[-76.50404,38.4521],[-76.50286,38.45187],[-76.50131,38.45071],[-76.4991,38.45055],[-76.49732,38.44925],[-76.49661,38.44896],[-76.49528,38.44902],[-76.49351,38.44998],[-76.49106,38.44853],[-76.48861,38.44764],[-76.47352,38.44516],[-76.4718,38.44442],[-76.47041,38.4433],[-76.46944,38.44165],[-76.46369,38.42678],[-76.46381,38.4264],[-76.46584,38.42515],[-76.46731,38.42553],[-76.47029,38.42549],[-76.47115,38.42534],[-76.4724,38.42475],[-76.47361,38.42467],[-76.47704,38.42499],[-76.47816,38.42556],[-76.47891,38.42643],[-76.48018,38.42682],[-76.4817,38.42632],[-76.48327,38.42606],[-76.4817,38.42632],[-76.48018,38.42682],[-76.47891,38.42643],[-76.47816,38.42556],[-76.47704,38.42499],[-76.47361,38.42467],[-76.4724,38.42475],[-76.47115,38.42534],[-76.47029,38.42549],[-76.46731,38.42553],[-76.46584,38.42515],[-76.46424,38.42624],[-76.46357,38.42646],[-76.46259,38.42395],[-76.46177,38.42242],[-76.45701,38.41667],[-76.45214,38.40848],[-76.45104,38.40697],[-76.44854,38.4045],[-76.44157,38.39916],[-76.43911,38.3966],[-76.43802,38.39496],[-76.43692,38.39252],[-76.4365,38.39096],[-76.43626,38.38868],[-76.43635,38.38695],[-76.43667,38.38533],[-76.43734,38.38341],[-76.43818,38.38179],[-76.43962,38.3798],[-76.44409,38.37474],[-76.45012,38.36866],[-76.45084,38.36774],[-76.45145,38.36647],[-76.45354,38.35827],[-76.45413,38.35683],[-76.46377,38.34343],[-76.46657,38.33894],[-76.46685,38.33816],[-76.46689,38.33703],[-76.4668,38.33642],[-76.4663,38.33631],[-76.46619,38.33592],[-76.46559,38.33594],[-76.46619,38.33592],[-76.46584,38.33397],[-76.46617,38.33409],[-76.46644,38.33483],[-76.46675,38.33745],[-76.46649,38.33868],[-76.46331,38.34382],[-76.45393,38.35685],[-76.45346,38.35797],[-76.45132,38.36623],[-76.45086,38.36737],[-76.45018,38.36835],[-76.44549,38.373],[-76.43945,38.37973],[-76.43806,38.38163],[-76.43716,38.38336],[-76.43659,38.38492],[-76.43618,38.38684],[-76.43611,38.38953],[-76.43677,38.39266],[-76.43818,38.39558],[-76.43962,38.39749],[-76.44081,38.39871],[-76.44872,38.40487],[-76.45056,38.40667],[-76.45213,38.40881],[-76.4566,38.4164],[-76.46153,38.42239],[-76.46253,38.4243],[-76.46929,38.44178],[-76.47035,38.44347],[-76.47184,38.44464],[-76.47362,38.44535],[-76.48806,38.44773],[-76.49022,38.44841],[-76.4923,38.44944],[-76.49487,38.45151],[-76.51024,38.46843],[-76.51123,38.46998],[-76.5118,38.47184],[-76.5118,38.48276],[-76.51213,38.48446],[-76.51822,38.49383],[-76.51957,38.49551],[-76.52172,38.49707],[-76.52417,38.49804],[-76.5357,38.49963],[-76.54853,38.50276],[-76.55383,38.50522],[-76.55894,38.50692],[-76.56245,38.50871],[-76.56381,38.50982],[-76.56556,38.51232],[-76.56897,38.51597],[-76.58002,38.53112],[-76.58111,38.53238],[-76.5826,38.53353],[-76.58675,38.53576],[-76.58813,38.53698],[-76.58865,38.53658],[-76.59112,38.53556],[-76.59186,38.53678],[-76.59188,38.53897],[-76.59342,38.542],[-76.59353,38.54398],[-76.59408,38.54493],[-76.5951,38.54478]],"type":"LineString"},"properties":{"color":"#FCF841","color_name":"yellow","kind":"route","label":"Yellow","long":"Mid-County","route_id":"6","text_color":"#000000","type_label":"Bus"},"type":"Feature"},{"geometry":{"coordinates":[[-76.43049,38.33003],[-76.43026,38.32973],[-76.42982,38.3297],[-76.42561,38.32986],[-76.42524,38.3315],[-76.42797,38.3319],[-76.42888,38.3322],[-76.42491,38.34129],[-76.42461,38.34256],[-76.42464,38.34669],[-76.4266,38.35096],[-76.42678,38.35425],[-76.42711,38.35494],[-76.42786,38.35562],[-76.42912,38.35604],[-76.43245,38.35607],[-76.43299,38.35641],[-76.43366,38.35649],[-76.4353,38.35785],[-76.43613,38.35816],[-76.44061,38.35818],[-76.44152,38.35834],[-76.44232,38.35883],[-76.44383,38.36054],[-76.44549,38.36154],[-76.44686,38.3635],[-76.44945,38.36436],[-76.44967,38.36416],[-76.44956,38.36365],[-76.44979,38.36299],[-76.4508,38.36106],[-76.45165,38.35722],[-76.45223,38.35589],[-76.45371,38.35434],[-76.45573,38.35311],[-76.45684,38.35213],[-76.46043,38.34741],[-76.45953,38.34707],[-76.4591,38.34764],[-76.45971,38.34799],[-76.45928,38.34859],[-76.4594,38.34879],[-76.45685,38.35207],[-76.45563,38.35314],[-76.45336,38.35458],[-76.45209,38.35606],[-76.45169,38.35694],[-76.45065,38.36136],[-76.44941,38.36376],[-76.4491,38.36403],[-76.44833,38.36706],[-76.44736,38.36863],[-76.44574,38.36988],[-76.43639,38.37474],[-76.43528,38.37548],[-76.43644,38.37881],[-76.43716,38.37949],[-76.43703,38.37966],[-76.43557,38.37989],[-76.43558,38.3802],[-76.43648,38.38019],[-76.43729,38.37948],[-76.43799,38.37974],[-76.43848,38.37876],[-76.4392,38.37831],[-76.43931,38.37804],[-76.43891,38.37723],[-76.43901,38.37678],[-76.438,38.37649],[-76.43778,38.37692],[-76.43883,38.37727],[-76.43925,38.37795],[-76.43923,38.37822],[-76.43849,38.37868],[-76.43795,38.37969],[-76.43683,38.37919],[-76.43643,38.37871],[-76.4354,38.37543],[-76.43926,38.37333],[-76.44011,38.37409],[-76.44097,38.37374],[-76.44164,38.37435],[-76.44247,38.37393],[-76.44202,38.37333],[-76.44134,38.3734],[-76.44079,38.37257],[-76.44567,38.36996],[-76.44705,38.369],[-76.44831,38.3672],[-76.44913,38.36459],[-76.44953,38.3644],[-76.45056,38.36494],[-76.45167,38.3652],[-76.45357,38.35817],[-76.45412,38.35684],[-76.46467,38.34203],[-76.46668,38.33861],[-76.46686,38.33769],[-76.46676,38.33657],[-76.46618,38.33592],[-76.46559,38.33592],[-76.46561,38.33702],[-76.46647,38.33701],[-76.46589,38.33438],[-76.46569,38.33209],[-76.4608,38.32392],[-76.46069,38.32346],[-76.46009,38.32252],[-76.45985,38.32249],[-76.46571,38.33225],[-76.46586,38.33449],[-76.46644,38.3372],[-76.46641,38.33811],[-76.46609,38.33895],[-76.46446,38.34117],[-76.46417,38.34219],[-76.46276,38.34433],[-76.46149,38.34439],[-76.46094,38.34534],[-76.4593,38.34594],[-76.45716,38.3488],[-76.45612,38.3493],[-76.45512,38.34829],[-76.45403,38.34556],[-76.45397,38.34224],[-76.45307,38.33749],[-76.45315,38.33612],[-76.45408,38.33308],[-76.45414,38.33133],[-76.45386,38.32787],[-76.45412,38.32729],[-76.45382,38.32796],[-76.45407,38.33286],[-76.45301,38.33687],[-76.45394,38.34223],[-76.45391,38.34517],[-76.45516,38.3484],[-76.45597,38.34923],[-76.45818,38.35077],[-76.45382,38.35702],[-76.45335,38.35827],[-76.4512,38.36655],[-76.45028,38.36819],[-76.44427,38.37424],[-76.444,38.37427],[-76.44309,38.37375],[-76.44121,38.37226],[-76.43536,38.37541],[-76.43646,38.37885],[-76.43693,38.37929],[-76.43789,38.37975],[-76.43825,38.37942],[-76.4385,38.37873],[-76.43929,38.37816],[-76.43892,38.37729],[-76.43904,38.37681],[-76.4385,38.3766]],"type":"LineString"},"properties":{"color":"#D7A200","color_name":"yellow","kind":"route","label":"Gold","long":"Lusby Shuttle","route_id":"7","text_color":"#FFFFFF","type_label":"Bus"},"type":"Feature"},{"geometry":{"coordinates":[[-76.59531,38.54476],[-76.59408,38.54493],[-76.59374,38.54437],[-76.59343,38.54366],[-76.59338,38.54187],[-76.59188,38.53897],[-76.59186,38.53678],[-76.59112,38.53556],[-76.59271,38.53454],[-76.5938,38.53418],[-76.59707,38.53362],[-76.60225,38.53363],[-76.60487,38.53307],[-76.60883,38.53272],[-76.60906,38.53365],[-76.60857,38.5348],[-76.60858,38.53531],[-76.60726,38.53544],[-76.6075,38.53562],[-76.60861,38.53543],[-76.60857,38.5348],[-76.60906,38.53365],[-76.60883,38.53272],[-76.61029,38.53206],[-76.6119,38.53093],[-76.61222,38.53092],[-76.61306,38.53101],[-76.6135,38.53136],[-76.61391,38.53236],[-76.61504,38.53354],[-76.61572,38.5353],[-76.6139,38.53621],[-76.61425,38.53651],[-76.61518,38.53597],[-76.61522,38.53559],[-76.61572,38.5353],[-76.61546,38.53443],[-76.615,38.53347],[-76.61391,38.53236],[-76.61336,38.53122],[-76.61288,38.53095],[-76.6119,38.53093],[-76.614,38.52894],[-76.61808,38.52289],[-76.61992,38.51752],[-76.62024,38.51519],[-76.62144,38.51285],[-76.62223,38.51178],[-76.62209,38.51148],[-76.62235,38.51036],[-76.62232,38.50637],[-76.6234,38.5029],[-76.62356,38.50156],[-76.62187,38.49231],[-76.62128,38.4874],[-76.62125,38.48617],[-76.62156,38.48392],[-76.62125,38.48617],[-76.62128,38.4874],[-76.62239,38.49508],[-76.62444,38.49618],[-76.62528,38.49634],[-76.6263,38.49615],[-76.63004,38.49637],[-76.6323,38.49608],[-76.63407,38.49623],[-76.63524,38.49676],[-76.63583,38.49796],[-76.63726,38.4993],[-76.64143,38.49934],[-76.64218,38.50207],[-76.64288,38.50326],[-76.64231,38.50465],[-76.64256,38.50552],[-76.64248,38.50634],[-76.64139,38.5106],[-76.64107,38.51093],[-76.64117,38.51116],[-76.64167,38.51104],[-76.64152,38.51061],[-76.64234,38.50717],[-76.64536,38.50759],[-76.65717,38.50986],[-76.66082,38.50981],[-76.66217,38.50997],[-76.66356,38.5104],[-76.67523,38.51524],[-76.67787,38.51591],[-76.68644,38.51632],[-76.69716,38.51469],[-76.70205,38.51461],[-76.70524,38.51509],[-76.70724,38.51573],[-76.71362,38.51845],[-76.72201,38.52024],[-76.72391,38.52103],[-76.72544,38.5223],[-76.72876,38.52606],[-76.73562,38.53238],[-76.73863,38.53441],[-76.74235,38.53617],[-76.74494,38.53834],[-76.74623,38.53911],[-76.74856,38.53975],[-76.75461,38.54014],[-76.76087,38.54128],[-76.76335,38.54118],[-76.76562,38.5404],[-76.77026,38.53675],[-76.7715,38.53605],[-76.78008,38.53395],[-76.77996,38.53367],[-76.77937,38.53354],[-76.77771,38.5324],[-76.77696,38.53125],[-76.77683,38.53028],[-76.777,38.5294],[-76.77752,38.52845],[-76.77909,38.5265],[-76.77936,38.52571],[-76.77939,38.52465],[-76.77898,38.52349],[-76.77516,38.51723],[-76.77479,38.51561],[-76.77502,38.50433],[-76.77556,38.50414],[-76.77702,38.50014],[-76.77684,38.49738],[-76.77754,38.49468],[-76.77752,38.49021],[-76.77807,38.48809],[-76.77918,38.48678],[-76.77964,38.48503],[-76.77945,38.48267],[-76.77789,38.47849],[-76.7788,38.47871],[-76.77947,38.47829],[-76.78008,38.47823],[-76.78028,38.47856],[-76.78082,38.47856],[-76.78028,38.47856],[-76.78008,38.47823],[-76.7797,38.47823],[-76.7788,38.47871],[-76.77815,38.47847],[-76.77527,38.4787],[-76.77493,38.49512],[-76.77367,38.49544],[-76.77282,38.49543],[-76.77341,38.49663],[-76.77333,38.50018]],"type":"LineString"},"properties":{"color":"#9D44B5","color_name":"purple","kind":"route","label":"Purple","long":"Charlotte Hall","route_id":"8","text_color":"#FFFFFF","type_label":"Bus"},"type":"Feature"},{"geometry":{"coordinates":[-76.59517,38.54436],"type":"Point"},"properties":{"kind":"stop","name":"Calvert Pines Senior Center","stop_id":"1"},"type":"Feature"},{"geometry":{"coordinates":[-76.58259,38.5388],"type":"Point"},"properties":{"kind":"stop","name":"Courthouse","stop_id":"10"},"type":"Feature"},{"geometry":{"coordinates":[-76.493,38.45],"type":"Point"},"properties":{"kind":"stop","name":"Route 4 NB and Parran Rd.","stop_id":"100"},"type":"Feature"},{"geometry":{"coordinates":[-76.51637,38.44227],"type":"Point"},"properties":{"kind":"stop","name":"Parran Rd. and Mackall Rd.","stop_id":"101"},"type":"Feature"},{"geometry":{"coordinates":[-76.53807,38.45789],"type":"Point"},"properties":{"kind":"stop","name":"Mackall Rd. and Ross Rd.","stop_id":"102"},"type":"Feature"},{"geometry":{"coordinates":[-76.5609,38.44917],"type":"Point"},"properties":{"kind":"stop","name":"Ross Rd. and Broomes Island Rd.","stop_id":"103"},"type":"Feature"},{"geometry":{"coordinates":[-76.56098,38.44901],"type":"Point"},"properties":{"kind":"stop","name":"Broomes Island Rd. and Williams Warf Rd.","stop_id":"104"},"type":"Feature"},{"geometry":{"coordinates":[-76.54618,38.47789],"type":"Point"},"properties":{"kind":"stop","name":"Broomes Island Rd. and Grays Rd.","stop_id":"105"},"type":"Feature"},{"geometry":{"coordinates":[-76.59049,38.49385],"type":"Point"},"properties":{"kind":"stop","name":"Grays Rd. and Sixes Rd.","stop_id":"106"},"type":"Feature"},{"geometry":{"coordinates":[-76.62219,38.49512],"type":"Point"},"properties":{"kind":"stop","name":"Sixes Rd. and Adelina Rd.","stop_id":"107"},"type":"Feature"},{"geometry":{"coordinates":[-76.62192,38.51183],"type":"Point"},"properties":{"kind":"stop","name":"Adelina Rd. and Route 231","stop_id":"108"},"type":"Feature"},{"geometry":{"coordinates":[-76.44954,38.36317],"type":"Point"},"properties":{"kind":"stop","name":"Route 765 and Southern Connector Blvd.","stop_id":"109"},"type":"Feature"},{"geometry":{"coordinates":[-76.58755,38.53821],"type":"Point"},"properties":{"kind":"stop","name":"Heritage Blvd at Bus Stop","stop_id":"11"},"type":"Feature"},{"geometry":{"coordinates":[-76.43349,38.35631],"type":"Point"},"properties":{"kind":"stop","name":"Southern Connector Blvd. and Rousby Hall Rd.","stop_id":"110"},"type":"Feature"},{"geometry":{"coordinates":[-76.4306,38.33001],"type":"Point"},"properties":{"kind":"stop","name":"Rousby Hall Rd. and Chesnut Dr.","stop_id":"111"},"type":"Feature"},{"geometry":{"coordinates":[-76.42573,38.3298],"type":"Point"},"properties":{"kind":"stop","name":"Chesnut Dr. and Barreda Blvd","stop_id":"112"},"type":"Feature"},{"geometry":{"coordinates":[-76.42765,38.33471],"type":"Point"},"properties":{"kind":"stop","name":"Barreda Blvd. and Rousby Hall Rd.","stop_id":"113"},"type":"Feature"},{"geometry":{"coordinates":[-76.44098,38.3721],"type":"Point"},"properties":{"kind":"stop","name":"Rousby Hall Rd. and HG Truman Rd.","stop_id":"114"},"type":"Feature"},{"geometry":{"coordinates":[-76.4368,38.39525],"type":"Point"},"properties":{"kind":"stop","name":"HG Truman Rd. and Calvert Cliffs State Park","stop_id":"115"},"type":"Feature"},{"geometry":{"coordinates":[-76.5645,38.51028],"type":"Point"},"properties":{"kind":"stop","name":"Route 4 and Sixes Rd.","stop_id":"116"},"type":"Feature"},{"geometry":{"coordinates":[-76.59058,38.49407],"type":"Point"},"properties":{"kind":"stop","name":"Sixes Rd. and Grays Rd.","stop_id":"117"},"type":"Feature"},{"geometry":{"coordinates":[-76.49389,38.45013],"type":"Point"},"properties":{"kind":"stop","name":"Route 4 SB and Parran Rd.","stop_id":"118"},"type":"Feature"},{"geometry":{"coordinates":[-76.41052,38.38034],"type":"Point"},"properties":{"kind":"stop","name":"Little Cove Point Rd.","stop_id":"119"},"type":"Feature"},{"geometry":{"coordinates":[-76.58239,38.55051],"type":"Point"},"properties":{"kind":"stop","name":"Dares Beach Rd. and Fairgrounds Rd.","stop_id":"12"},"type":"Feature"},{"geometry":{"coordinates":[-76.40681,38.36474],"type":"Point"},"properties":{"kind":"stop","name":"Ranch Club (Back Gate)","stop_id":"120"},"type":"Feature"},{"geometry":{"coordinates":[-76.40801,38.35916],"type":"Point"},"properties":{"kind":"stop","name":"Catalina Dr. and North Catalina Dr.","stop_id":"121"},"type":"Feature"},{"geometry":{"coordinates":[-76.41093,38.35854],"type":"Point"},"properties":{"kind":"stop","name":"Catalina Dr. and Golden West Way","stop_id":"122"},"type":"Feature"},{"geometry":{"coordinates":[-76.40635,38.34754],"type":"Point"},"properties":{"kind":"stop","name":"Golden West Way and Cascade Trail","stop_id":"123"},"type":"Feature"},{"geometry":{"coordinates":[-76.4119,38.35831],"type":"Point"},"properties":{"kind":"stop","name":"Catalina Dr. and San Mateo Trail","stop_id":"124"},"type":"Feature"},{"geometry":{"coordinates":[-76.41818,38.35384],"type":"Point"},"properties":{"kind":"stop","name":"Catalina Dr. and Chisolm Trail","stop_id":"125"},"type":"Feature"},{"geometry":{"coordinates":[-76.42364,38.35807],"type":"Point"},"properties":{"kind":"stop","name":"Lake Lariat","stop_id":"126"},"type":"Feature"},{"geometry":{"coordinates":[-76.43046,38.36402],"type":"Point"},"properties":{"kind":"stop","name":"Camp Grounds","stop_id":"127"},"type":"Feature"},{"geometry":{"coordinates":[-76.42874,38.37641],"type":"Point"},"properties":{"kind":"stop","name":"Gunsmoke Trail and Rawhide Rd.","stop_id":"128"},"type":"Feature"},{"geometry":{"coordinates":[-76.41653,38.37498],"type":"Point"},"properties":{"kind":"stop","name":"Gunsmoke Trail and Tomahawk Trail","stop_id":"129"},"type":"Feature"},{"geometry":{"coordinates":[-76.57994,38.54624],"type":"Point"},"properties":{"kind":"stop","name":"Silverwood Apartments","stop_id":"13"},"type":"Feature"},{"geometry":{"coordinates":[-76.41822,38.34324],"type":"Point"},"properties":{"kind":"stop","name":"Clubhouse Dr. and Catalina Dr.","stop_id":"130"},"type":"Feature"},{"geometry":{"coordinates":[-76.41872,38.33865],"type":"Point"},"properties":{"kind":"stop","name":"Clubhouse Dr. and Rodeo Rd.","stop_id":"131"},"type":"Feature"},{"geometry":{"coordinates":[-76.44235,38.37404],"type":"Point"},"properties":{"kind":"stop","name":"Giant Food","stop_id":"132"},"type":"Feature"},{"geometry":{"coordinates":[-76.4219,38.38712],"type":"Point"},"properties":{"kind":"stop","name":"Cove Point Water Park & Pool","stop_id":"1328228"},"type":"Feature"},{"geometry":{"coordinates":[-76.77326,38.50018],"type":"Point"},"properties":{"kind":"stop","name":"Charlotte Hall Food Lion","stop_id":"1328232"},"type":"Feature"},{"geometry":{"coordinates":[-76.78077,38.47856],"type":"Point"},"properties":{"kind":"stop","name":"Charlotte Hall Veterans Home","stop_id":"1328233"},"type":"Feature"},{"geometry":{"coordinates":[-76.59119,38.53546],"type":"Point"},"properties":{"kind":"stop","name":"North Prince Frederick Blvd and Hallowing Point Rd","stop_id":"1328234"},"type":"Feature"},{"geometry":{"coordinates":[-76.59144,38.5358],"type":"Point"},"properties":{"kind":"stop","name":"North Prince Frederick Blvd and Hallowing Point Rd","stop_id":"1328235"},"type":"Feature"},{"geometry":{"coordinates":[-76.62218,38.51144],"type":"Point"},"properties":{"kind":"stop","name":"Adelina Rd. and Route 231","stop_id":"1328236"},"type":"Feature"},{"geometry":{"coordinates":[-76.46004,38.32287],"type":"Point"},"properties":{"kind":"stop","name":"Solomons Info Center and Island","stop_id":"133"},"type":"Feature"},{"geometry":{"coordinates":[-76.45414,38.32741],"type":"Point"},"properties":{"kind":"stop","name":"Dowell Rd.","stop_id":"134"},"type":"Feature"},{"geometry":{"coordinates":[-76.42438,38.343],"type":"Point"},"properties":{"kind":"stop","name":"Ranch Club (Front Gate) and Rousby Hall Rd.","stop_id":"135"},"type":"Feature"},{"geometry":{"coordinates":[-76.59389,38.55434],"type":"Point"},"properties":{"kind":"stop","name":"Fox Run Center at Cato and Giant and Kmart","stop_id":"14"},"type":"Feature"},{"geometry":{"coordinates":[-76.59659,38.55927],"type":"Point"},"properties":{"kind":"stop","name":"Hospital at Main Entrance","stop_id":"15"},"type":"Feature"},{"geometry":{"coordinates":[-76.60417,38.56165],"type":"Point"},"properties":{"kind":"stop","name":"Edward T. Hall Aquatic Center","stop_id":"16"},"type":"Feature"},{"geometry":{"coordinates":[-76.59899,38.55624],"type":"Point"},"properties":{"kind":"stop","name":"Market Square Shopping Center at Library","stop_id":"17"},"type":"Feature"},{"geometry":{"coordinates":[-76.59707,38.55301],"type":"Point"},"properties":{"kind":"stop","name":"Chapline Shopping Center at Food Lion","stop_id":"18"},"type":"Feature"},{"geometry":{"coordinates":[-76.59435,38.54994],"type":"Point"},"properties":{"kind":"stop","name":"Chapline Senior Apartments","stop_id":"19"},"type":"Feature"},{"geometry":{"coordinates":[-76.59059,38.5456],"type":"Point"},"properties":{"kind":"stop","name":"Calvert Village at Safeway by Soda Machine","stop_id":"2"},"type":"Feature"},{"geometry":{"coordinates":[-76.59884,38.55631],"type":"Point"},"properties":{"kind":"stop","name":"Market Square Shopping Center at Library","stop_id":"22"},"type":"Feature"},{"geometry":{"coordinates":[-76.59382,38.55405],"type":"Point"},"properties":{"kind":"stop","name":"Fox Run Center at Kmart and Giant","stop_id":"23"},"type":"Feature"},{"geometry":{"coordinates":[-76.59245,38.55213],"type":"Point"},"properties":{"kind":"stop","name":"Fox Run Center at Cato","stop_id":"24"},"type":"Feature"},{"geometry":{"coordinates":[-76.58353,38.54678],"type":"Point"},"properties":{"kind":"stop","name":"Prince Frederick Villas","stop_id":"25"},"type":"Feature"},{"geometry":{"coordinates":[-76.58282,38.53865],"type":"Point"},"properties":{"kind":"stop","name":"Courthouse","stop_id":"26"},"type":"Feature"},{"geometry":{"coordinates":[-76.58308,38.5347],"type":"Point"},"properties":{"kind":"stop","name":"Old Field Lane and Route 4","stop_id":"27"},"type":"Feature"},{"geometry":{"coordinates":[-76.59979,38.53356],"type":"Point"},"properties":{"kind":"stop","name":"Yardley Hills and Route 231","stop_id":"28"},"type":"Feature"},{"geometry":{"coordinates":[-76.59336,38.54319],"type":"Point"},"properties":{"kind":"stop","name":"Southern Maryland Network","stop_id":"29"},"type":"Feature"},{"geometry":{"coordinates":[-76.59087,38.54108],"type":"Point"},"properties":{"kind":"stop","name":"Walmart","stop_id":"3"},"type":"Feature"},{"geometry":{"coordinates":[-76.60433,38.66452],"type":"Point"},"properties":{"kind":"stop","name":"Sunderland Park and Ride","stop_id":"31"},"type":"Feature"},{"geometry":{"coordinates":[-76.6307,38.68065],"type":"Point"},"properties":{"kind":"stop","name":"Route 4 and Skinner's Turn Rd.","stop_id":"32"},"type":"Feature"},{"geometry":{"coordinates":[-76.60341,38.69075],"type":"Point"},"properties":{"kind":"stop","name":"Skinner's Turn Rd. and Route 2","stop_id":"33"},"type":"Feature"},{"geometry":{"coordinates":[-76.60845,38.71091],"type":"Point"},"properties":{"kind":"stop","name":"Route 2 and Grover's Turn Rd.","stop_id":"34"},"type":"Feature"},{"geometry":{"coordinates":[-76.62227,38.70667],"type":"Point"},"properties":{"kind":"stop","name":"Grover's Turn Rd. and Mount Harmony Rd.","stop_id":"35"},"type":"Feature"},{"geometry":{"coordinates":[-76.64702,38.70397],"type":"Point"},"properties":{"kind":"stop","name":"Mount Harmony Rd. and Route 4","stop_id":"36"},"type":"Feature"},{"geometry":{"coordinates":[-76.65935,38.72515],"type":"Point"},"properties":{"kind":"stop","name":"Town Center Blvd. at McDonalds","stop_id":"37"},"type":"Feature"},{"geometry":{"coordinates":[-76.65577,38.72333],"type":"Point"},"properties":{"kind":"stop","name":"Dunkirk Market Place at Home Store","stop_id":"38"},"type":"Feature"},{"geometry":{"coordinates":[-76.65755,38.72253],"type":"Point"},"properties":{"kind":"stop","name":"Dunkirk Market Place at Walmart","stop_id":"39"},"type":"Feature"},{"geometry":{"coordinates":[-76.60744,38.53525],"type":"Point"},"properties":{"kind":"stop","name":"College of Southern Maryland","stop_id":"4"},"type":"Feature"},{"geometry":{"coordinates":[-76.65744,38.72409],"type":"Point"},"properties":{"kind":"stop","name":"Dunkirk Market Place at Giant","stop_id":"40"},"type":"Feature"},{"geometry":{"coordinates":[-76.65721,38.7258],"type":"Point"},"properties":{"kind":"stop","name":"Dunkirk Urgent Care","stop_id":"41"},"type":"Feature"},{"geometry":{"coordinates":[-76.66199,38.72599],"type":"Point"},"properties":{"kind":"stop","name":"Dunkirk Park","stop_id":"42"},"type":"Feature"},{"geometry":{"coordinates":[-76.66237,38.71885],"type":"Point"},"properties":{"kind":"stop","name":"Safeway Shopping Center","stop_id":"43"},"type":"Feature"},{"geometry":{"coordinates":[-76.66471,38.71843],"type":"Point"},"properties":{"kind":"stop","name":"Ward Rd. Extended at Office Building","stop_id":"44"},"type":"Feature"},{"geometry":{"coordinates":[-76.64007,38.69116],"type":"Point"},"properties":{"kind":"stop","name":"Fairview Library","stop_id":"45"},"type":"Feature"},{"geometry":{"coordinates":[-76.60923,38.66307],"type":"Point"},"properties":{"kind":"stop","name":"Route 4 and Route 262 - Lower Marlboro Rd.","stop_id":"46"},"type":"Feature"},{"geometry":{"coordinates":[-76.62382,38.65972],"type":"Point"},"properties":{"kind":"stop","name":"Route 262 and Huntingtown Rd.","stop_id":"47"},"type":"Feature"},{"geometry":{"coordinates":[-76.63357,38.62549],"type":"Point"},"properties":{"kind":"stop","name":"Huntingtown Rd. at 4-Way Stop","stop_id":"48"},"type":"Feature"},{"geometry":{"coordinates":[-76.61383,38.61731],"type":"Point"},"properties":{"kind":"stop","name":"Huntingtown Creek and Old Towne Rd.","stop_id":"49"},"type":"Feature"},{"geometry":{"coordinates":[-76.61414,38.53652],"type":"Point"},"properties":{"kind":"stop","name":"Detention and Substance Abuse Center","stop_id":"5"},"type":"Feature"},{"geometry":{"coordinates":[-76.61308,38.61447],"type":"Point"},"properties":{"kind":"stop","name":"Old Towne Rd. and Route 4","stop_id":"50"},"type":"Feature"},{"geometry":{"coordinates":[-76.61237,38.61401],"type":"Point"},"properties":{"kind":"stop","name":"Route 4 and Cox Rd.","stop_id":"51"},"type":"Feature"},{"geometry":{"coordinates":[-76.60662,38.66008],"type":"Point"},"properties":{"kind":"stop","name":"Route 4 and Route 2","stop_id":"52"},"type":"Feature"},{"geometry":{"coordinates":[-76.60691,38.69845],"type":"Point"},"properties":{"kind":"stop","name":"Route 2 and Mount Harmony Rd.","stop_id":"53"},"type":"Feature"},{"geometry":{"coordinates":[-76.54502,38.69611],"type":"Point"},"properties":{"kind":"stop","name":"Cox Rd. and Bayview Hills Rd.","stop_id":"54"},"type":"Feature"},{"geometry":{"coordinates":[-76.53472,38.69494],"type":"Point"},"properties":{"kind":"stop","name":"Route 260 and Route 261","stop_id":"55"},"type":"Feature"},{"geometry":{"coordinates":[-76.53234,38.70932],"type":"Point"},"properties":{"kind":"stop","name":"Chesapeake Ave. and 8th St.","stop_id":"56"},"type":"Feature"},{"geometry":{"coordinates":[-76.53579,38.70983],"type":"Point"},"properties":{"kind":"stop","name":"8th St. and Frederick Ave.","stop_id":"57"},"type":"Feature"},{"geometry":{"coordinates":[-76.53568,38.71131],"type":"Point"},"properties":{"kind":"stop","name":"North Beach Community Center","stop_id":"58"},"type":"Feature"},{"geometry":{"coordinates":[-76.53629,38.69182],"type":"Point"},"properties":{"kind":"stop","name":"C.B. Water Park and Library","stop_id":"59"},"type":"Feature"},{"geometry":{"coordinates":[-76.59919,38.52982],"type":"Point"},"properties":{"kind":"stop","name":"Yardley Hills at Community Building","stop_id":"6"},"type":"Feature"},{"geometry":{"coordinates":[-76.53624,38.68333],"type":"Point"},"properties":{"kind":"stop","name":"Route 261 and Old Bayside Rd.","stop_id":"60"},"type":"Feature"},{"geometry":{"coordinates":[-76.53711,38.66489],"type":"Point"},"properties":{"kind":"stop","name":"Old Bayside Rd. and Summer City Blvd.","stop_id":"61"},"type":"Feature"},{"geometry":{"coordinates":[-76.53401,38.62636],"type":"Point"},"properties":{"kind":"stop","name":"Breezy Point Store","stop_id":"62"},"type":"Feature"},{"geometry":{"coordinates":[-76.52588,38.6084],"type":"Point"},"properties":{"kind":"stop","name":"Tobacco Rd. and Plum Point Rd.","stop_id":"63"},"type":"Feature"},{"geometry":{"coordinates":[-76.52233,38.60683],"type":"Point"},"properties":{"kind":"stop","name":"Plum Point Rd. and Wilson Rd.","stop_id":"64"},"type":"Feature"},{"geometry":{"coordinates":[-76.54114,38.55907],"type":"Point"},"properties":{"kind":"stop","name":"Wilson Rd. and Dares Beach Rd.","stop_id":"65"},"type":"Feature"},{"geometry":{"coordinates":[-76.51818,38.56144],"type":"Point"},"properties":{"kind":"stop","name":"Dares Beach Rd. and Virginia Ave.","stop_id":"66"},"type":"Feature"},{"geometry":{"coordinates":[-76.50632,38.47359],"type":"Point"},"properties":{"kind":"stop","name":"St. Leonard Rd. and Calvert Beach Rd.","stop_id":"68"},"type":"Feature"},{"geometry":{"coordinates":[-76.46395,38.4272],"type":"Point"},"properties":{"kind":"stop","name":"SB Route 4 and White Sands Dr.","stop_id":"69"},"type":"Feature"},{"geometry":{"coordinates":[-76.58424,38.5326],"type":"Point"},"properties":{"kind":"stop","name":"Sherry Lane","stop_id":"7"},"type":"Feature"},{"geometry":{"coordinates":[-76.48329,38.42613],"type":"Point"},"properties":{"kind":"stop","name":"White Sands Dr. and Stable Lane","stop_id":"70"},"type":"Feature"},{"geometry":{"coordinates":[-76.45714,38.41196],"type":"Point"},"properties":{"kind":"stop","name":"Sellers Wharf Rd.","stop_id":"71"},"type":"Feature"},{"geometry":{"coordinates":[-76.44972,38.36966],"type":"Point"},"properties":{"kind":"stop","name":"Mill Bridge Rd.","stop_id":"72"},"type":"Feature"},{"geometry":{"coordinates":[-76.45385,38.36617],"type":"Point"},"properties":{"kind":"stop","name":"Coster Rd. and Bafford Rd.","stop_id":"73"},"type":"Feature"},{"geometry":{"coordinates":[-76.46557,38.33594],"type":"Point"},"properties":{"kind":"stop","name":"Patuxent Plaza Shopping Center at Bus Stop","stop_id":"74"},"type":"Feature"},{"geometry":{"coordinates":[-76.46355,38.33671],"type":"Point"},"properties":{"kind":"stop","name":"Holiday Inn (Solomons)","stop_id":"75"},"type":"Feature"},{"geometry":{"coordinates":[-76.45927,38.34781],"type":"Point"},"properties":{"kind":"stop","name":"Weis (Solomons)","stop_id":"76"},"type":"Feature"},{"geometry":{"coordinates":[-76.45334,38.33872],"type":"Point"},"properties":{"kind":"stop","name":"Dowell Rd. and Oyster Bay Pl.","stop_id":"77"},"type":"Feature"},{"geometry":{"coordinates":[-76.43985,38.34668],"type":"Point"},"properties":{"kind":"stop","name":"Olivet Rd. and St. Johns Dr.","stop_id":"78"},"type":"Feature"},{"geometry":{"coordinates":[-76.43058,38.33003],"type":"Point"},"properties":{"kind":"stop","name":"Drum Pt. and Chestnut and Barreda","stop_id":"79"},"type":"Feature"},{"geometry":{"coordinates":[-76.58076,38.53609],"type":"Point"},"properties":{"kind":"stop","name":"Old Field Lane","stop_id":"8"},"type":"Feature"},{"geometry":{"coordinates":[-76.44805,38.32618],"type":"Point"},"properties":{"kind":"stop","name":"Ships Pt. and Rousby Hall Rd.","stop_id":"80"},"type":"Feature"},{"geometry":{"coordinates":[-76.42451,38.34276],"type":"Point"},"properties":{"kind":"stop","name":"Ranch Club (Main Entrance)","stop_id":"81"},"type":"Feature"},{"geometry":{"coordinates":[-76.43546,38.38014],"type":"Point"},"properties":{"kind":"stop","name":"Southern Pines Senior Apartments","stop_id":"82"},"type":"Feature"},{"geometry":{"coordinates":[-76.43853,38.37657],"type":"Point"},"properties":{"kind":"stop","name":"Southern Pines Community Center","stop_id":"83"},"type":"Feature"},{"geometry":{"coordinates":[-76.46321,38.42637],"type":"Point"},"properties":{"kind":"stop","name":"NB Route 4 and White Sands Dr.","stop_id":"84"},"type":"Feature"},{"geometry":{"coordinates":[-76.50618,38.47362],"type":"Point"},"properties":{"kind":"stop","name":"Saint Leonard Rd. and Calvert Beach Rd.","stop_id":"85"},"type":"Feature"},{"geometry":{"coordinates":[-76.64238,38.5074],"type":"Point"},"properties":{"kind":"stop","name":"Industrial Park","stop_id":"86"},"type":"Feature"},{"geometry":{"coordinates":[-76.62264,38.4951],"type":"Point"},"properties":{"kind":"stop","name":"Sixes Rd. and Adelina Rd.","stop_id":"87"},"type":"Feature"},{"geometry":{"coordinates":[-76.62162,38.48392],"type":"Point"},"properties":{"kind":"stop","name":"Adelina Rd. and Macs Hollow Rd.","stop_id":"88"},"type":"Feature"},{"geometry":{"coordinates":[-76.57056,38.50525],"type":"Point"},"properties":{"kind":"stop","name":"Sixes Rd. and T Hance Turn Around","stop_id":"89"},"type":"Feature"},{"geometry":{"coordinates":[-76.57577,38.53075],"type":"Point"},"properties":{"kind":"stop","name":"Calvert Towne","stop_id":"9"},"type":"Feature"},{"geometry":{"coordinates":[-76.54642,38.478],"type":"Point"},"properties":{"kind":"stop","name":"Grays Rd. and Broomes Island Rd.","stop_id":"90"},"type":"Feature"},{"geometry":{"coordinates":[-76.56122,38.44951],"type":"Point"},"properties":{"kind":"stop","name":"Broomes Island Rd. and Williams Wharf Rd.","stop_id":"91"},"type":"Feature"},{"geometry":{"coordinates":[-76.57813,38.44778],"type":"Point"},"properties":{"kind":"stop","name":"Williams Wharf Rd. and Kings Rd.","stop_id":"92"},"type":"Feature"},{"geometry":{"coordinates":[-76.54529,38.41286],"type":"Point"},"properties":{"kind":"stop","name":"Broomes Island Rd. and Oyster House","stop_id":"93"},"type":"Feature"},{"geometry":{"coordinates":[-76.54595,38.45491],"type":"Point"},"properties":{"kind":"stop","name":"Ross Rd.","stop_id":"94"},"type":"Feature"},{"geometry":{"coordinates":[-76.53829,38.45771],"type":"Point"},"properties":{"kind":"stop","name":"Ross Rd. and Mackall Rd.","stop_id":"95"},"type":"Feature"},{"geometry":{"coordinates":[-76.51665,38.44217],"type":"Point"},"properties":{"kind":"stop","name":"Mackall Rd. and Parran Rd.","stop_id":"96"},"type":"Feature"},{"geometry":{"coordinates":[-76.4937,38.44976],"type":"Point"},"properties":{"kind":"stop","name":"Parran Rd. and Route 4","stop_id":"97"},"type":"Feature"},{"geometry":{"coordinates":[-76.51111,38.47001],"type":"Point"},"properties":{"kind":"stop","name":"Route 4 NB and Calvert Beach Rd.","stop_id":"98"},"type":"Feature"},{"geometry":{"coordinates":[-76.53663,38.49996],"type":"Point"},"properties":{"kind":"stop","name":"Route 4 NB and Broomes Island Rd.","stop_id":"99"},"type":"Feature"}],"type":"FeatureCollection"}
