{"features":[{"geometry":{"coordinates":[[-118.28187,33.92869],[-118.2827,33.92868],[-118.28265,33.92382],[-118.28316,33.91967],[-118.28284,33.91694],[-118.28283,33.90194],[-118.29196,33.90197],[-118.29207,33.90151],[-118.29198,33.89627],[-118.29214,33.89213],[-118.29176,33.88352],[-118.29128,33.88218],[-118.29132,33.8816],[-118.29974,33.88136],[-118.29979,33.88019],[-118.30001,33.88015],[-118.30916,33.88013],[-118.30915,33.88227],[-118.30902,33.88235],[-118.30915,33.88227],[-118.30915,33.88409],[-118.30902,33.88406],[-118.30915,33.88409],[-118.30917,33.88913],[-118.30902,33.88912],[-118.30917,33.88913],[-118.30917,33.89084],[-118.30902,33.89084],[-118.30917,33.89084],[-118.30914,33.89464],[-118.30982,33.89476],[-118.33503,33.89474],[-118.33509,33.89462],[-118.34875,33.89475],[-118.35,33.89461],[-118.35798,33.89474],[-118.36168,33.89454],[-118.36795,33.89468],[-118.36993,33.89452]],"type":"LineString"},"properties":{"color":"#EF4137","color_name":"red","kind":"route","label":"1X","long":"Line 1X","route_id":"1X","text_color":"#000000","type_label":"Bus"},"type":"Feature"},{"geometry":{"coordinates":[[-118.29745,33.78872],[-118.29747,33.78997],[-118.29963,33.78948],[-118.30756,33.78947],[-118.30732,33.80482],[-118.30755,33.80693],[-118.30855,33.81037],[-118.30883,33.81242],[-118.3089,33.83198],[-118.30918,33.83918],[-118.30915,33.84669],[-118.30932,33.84785],[-118.30932,33.84985],[-118.30917,33.84985],[-118.30932,33.84985],[-118.30938,33.85259],[-118.30921,33.85399],[-118.30933,33.85399],[-118.30944,33.85737],[-118.30918,33.85886],[-118.30902,33.85884],[-118.30918,33.85886],[-118.30916,33.86232],[-118.30902,33.86228],[-118.30916,33.86232],[-118.30915,33.86533],[-118.30902,33.86546],[-118.30915,33.86544],[-118.30918,33.86915],[-118.30916,33.87327],[-118.30901,33.87333],[-118.30916,33.87348],[-118.30914,33.87776],[-118.30902,33.87776],[-118.30915,33.87777],[-118.30917,33.87954],[-118.30902,33.87987],[-118.30918,33.88014],[-118.30916,33.88227],[-118.30902,33.88235],[-118.30916,33.88227],[-118.30916,33.8841],[-118.30902,33.88406],[-118.30915,33.88409],[-118.30917,33.88913],[-118.30902,33.88912],[-118.30917,33.88913],[-118.30917,33.89084],[-118.30902,33.89084],[-118.30917,33.89104],[-118.30914,33.89449],[-118.309,33.89449],[-118.30914,33.89449],[-118.30916,33.8963],[-118.30902,33.89918],[-118.30915,33.90534],[-118.30901,33.90534],[-118.30915,33.90555],[-118.30899,33.90896],[-118.30912,33.91454],[-118.30898,33.91611],[-118.30898,33.93091],[-118.29194,33.93096],[-118.29205,33.9288],[-118.29181,33.92423],[-118.29182,33.91925],[-118.29194,33.91898],[-118.29186,33.91607],[-118.29199,33.91607],[-118.29186,33.91607],[-118.29192,33.90913],[-118.29205,33.90883],[-118.29192,33.90883],[-118.29205,33.90641],[-118.29198,33.89627],[-118.29214,33.89213],[-118.29176,33.88352],[-118.29138,33.88249],[-118.29131,33.88161],[-118.29123,33.8769],[-118.29111,33.87691],[-118.29088,33.87206],[-118.29103,33.87205],[-118.29088,33.87206],[-118.29057,33.86718],[-118.28811,33.86835],[-118.28841,33.86908],[-118.2872,33.86957],[-118.28698,33.86988],[-118.28651,33.86951],[-118.28811,33.86833],[-118.29222,33.86645],[-118.29785,33.86633],[-118.29923,33.86587],[-118.29926,33.8577],[-118.29938,33.8577],[-118.29925,33.85747],[-118.29924,33.85423],[-118.29931,33.82474],[-118.29911,33.82198],[-118.29899,33.82201],[-118.29833,33.82003],[-118.29817,33.81885],[-118.2982,33.81369],[-118.29834,33.81369],[-118.2982,33.81368],[-118.2982,33.81304],[-118.29839,33.80958],[-118.29852,33.80958],[-118.29839,33.80958],[-118.29874,33.80237],[-118.29886,33.80237],[-118.29774,33.80032],[-118.29748,33.79942],[-118.29763,33.79748],[-118.29749,33.79663],[-118.29749,33.795],[-118.29763,33.795],[-118.29749,33.795],[-118.2975,33.78992],[-118.29446,33.79091],[-118.29178,33.79101],[-118.297,33.78644],[-118.2973,33.78649],[-118.29752,33.78697],[-118.29745,33.78872]],"type":"LineString"},"properties":{"color":"#91278F","color_name":"purple","kind":"route","label":"2","long":"Line 2","route_id":"2","text_color":"#000000","type_label":"Bus"},"type":"Feature"},{"geometry":{"coordinates":[[-118.22326,33.89811],[-118.22395,33.89788],[-118.22406,33.89625],[-118.22389,33.89587],[-118.2204,33.89598],[-118.22,33.89243],[-118.22626,33.89222],[-118.22642,33.89598],[-118.23765,33.89596],[-118.23715,33.88935],[-118.23712,33.88874],[-118.23725,33.88874],[-118.23711,33.88858],[-118.24949,33.8885],[-118.25056,33.88823],[-118.25061,33.88835],[-118.25056,33.88823],[-118.25402,33.88672],[-118.25572,33.88633],[-118.27072,33.88597],[-118.27095,33.88577],[-118.27591,33.8856],[-118.27609,33.88523],[-118.27591,33.8849],[-118.27579,33.88201],[-118.2913,33.8816],[-118.29171,33.89248],[-118.2965,33.89247],[-118.29857,33.89208],[-118.30177,33.89087],[-118.30471,33.88995],[-118.30504,33.88999],[-118.30527,33.88977],[-118.30878,33.88876],[-118.31158,33.88771],[-118.31384,33.88713],[-118.31786,33.8857],[-118.31825,33.88572],[-118.31819,33.88561],[-118.32205,33.88429],[-118.32293,33.88405],[-118.32302,33.88417],[-118.32294,33.88405],[-118.32605,33.88304],[-118.32631,33.88302],[-118.32624,33.88314],[-118.329,33.88207],[-118.3397,33.87879],[-118.34383,33.87729],[-118.34868,33.87588],[-118.35189,33.87467],[-118.3527,33.87426],[-118.35282,33.87208],[-118.35272,33.86553],[-118.3566,33.86554],[-118.3566,33.86758],[-118.35638,33.86799],[-118.35731,33.86808]],"type":"LineString"},"properties":{"color":"#F8941E","color_name":"orange","kind":"route","label":"3","long":"Line 3","route_id":"3","text_color":"#000000","type_label":"Bus"},"type":"Feature"},{"geometry":{"coordinates":[[-118.23829,33.92861],[-118.23611,33.92462],[-118.24335,33.92458],[-118.2463,33.92378],[-118.24623,33.91622],[-118.25483,33.91638],[-118.25483,33.9165],[-118.25483,33.91638],[-118.26338,33.91635],[-118.26593,33.91654],[-118.27001,33.91643],[-118.27001,33.91655],[-118.27001,33.91643],[-118.27388,33.91642],[-118.27437,33.91655],[-118.28466,33.91642],[-118.28733,33.91655],[-118.30556,33.91644],[-118.30659,33.91645],[-118.30656,33.91657],[-118.30659,33.91645],[-118.31819,33.91658],[-118.32661,33.91646],[-118.32721,33.91659],[-118.32803,33.91646],[-118.32928,33.91646],[-118.32928,33.91658],[-118.32928,33.91646],[-118.33251,33.91645],[-118.33273,33.91657],[-118.33273,33.91645],[-118.3784,33.91647],[-118.37846,33.92316],[-118.3783,33.92337],[-118.37843,33.92337],[-118.37853,33.93057],[-118.3785,33.94531],[-118.37822,33.94836],[-118.37706,33.95102],[-118.37706,33.95216],[-118.37713,33.9512],[-118.37814,33.9512]],"type":"LineString"},"properties":{"color":"#1B75BB","color_name":"teal","kind":"route","label":"5","long":"Line 5","route_id":"5","text_color":"#000000","type_label":"Bus"},"type":"Feature"},{"geometry":{"coordinates":[[-118.2877,33.86904],[-118.28746,33.86881],[-118.2881,33.86835],[-118.28817,33.86848],[-118.28916,33.87134],[-118.28913,33.87212],[-118.28853,33.87278],[-118.28588,33.87391],[-118.28525,33.8746],[-118.28494,33.87554],[-118.28495,33.88135],[-118.28539,33.88541],[-118.28553,33.8937],[-118.28638,33.89829],[-118.28633,33.91417],[-118.28597,33.91568],[-118.28515,33.91739],[-118.28406,33.91888],[-118.2823,33.92071],[-118.28167,33.92171],[-118.28124,33.92299],[-118.28097,33.9254],[-118.27977,33.92972],[-118.27938,33.93004],[-118.27885,33.92989],[-118.27876,33.92953],[-118.27902,33.92925],[-118.28114,33.92893],[-118.29496,33.92878],[-118.30959,33.92576],[-118.3127,33.92558],[-118.32201,33.92568],[-118.32429,33.92584],[-118.32504,33.92627],[-118.3265,33.92657],[-118.32646,33.93104],[-118.35237,33.93094],[-118.35253,33.95277],[-118.34401,33.95268],[-118.34398,33.95246]],"type":"LineString"},"properties":{"color":"#3FAE2A","color_name":"green","kind":"route","label":"7X","long":"Line 7X","route_id":"7X","text_color":"#000000","type_label":"Bus"},"type":"Feature"},{"geometry":{"coordinates":[[-118.30749,33.8838],[-118.30592,33.8838],[-118.30592,33.8874],[-118.30917,33.88742],[-118.30912,33.90919],[-118.31787,33.90923],[-118.31787,33.91648],[-118.30908,33.91644],[-118.30912,33.9092],[-118.31787,33.90923],[-118.31786,33.88743],[-118.40304,33.88737],[-118.40973,33.8851],[-118.41086,33.88719]],"type":"LineString"},"properties":{"color":"#F8D02D","color_name":"yellow","kind":"route","label":"G","long":"Line G to Manhattan Beach","route_id":"G","text_color":"#000000","type_label":"Bus"},"type":"Feature"},{"geometry":{"coordinates":[-118.23373,33.89599],"type":"Point"},"properties":{"kind":"stop","name":"Compton Bl & Matthisen Ave","stop_id":"1"},"type":"Feature"},{"geometry":{"coordinates":[-118.33631,33.89458],"type":"Point"},"properties":{"kind":"stop","name":"Marine Ave & Cranbrook Ave","stop_id":"10"},"type":"Feature"},{"geometry":{"coordinates":[-118.28297,33.88175],"type":"Point"},"properties":{"kind":"stop","name":"Gardena Bl & Figueroa St","stop_id":"100"},"type":"Feature"},{"geometry":{"coordinates":[-118.28663,33.88164],"type":"Point"},"properties":{"kind":"stop","name":"Gardena Bl & Hoover St","stop_id":"101"},"type":"Feature"},{"geometry":{"coordinates":[-118.29578,33.89224],"type":"Point"},"properties":{"kind":"stop","name":"Redondo Beach Bl & Budlong Ave","stop_id":"102"},"type":"Feature"},{"geometry":{"coordinates":[-118.29831,33.8919],"type":"Point"},"properties":{"kind":"stop","name":"Redondo Beach Bl & Raymond Ave","stop_id":"103"},"type":"Feature"},{"geometry":{"coordinates":[-118.29971,33.89145],"type":"Point"},"properties":{"kind":"stop","name":"Redondo Beach Bl & Normandie Ave","stop_id":"104"},"type":"Feature"},{"geometry":{"coordinates":[-118.34361,33.89475],"type":"Point"},"properties":{"kind":"stop","name":"Marine Ave & Prarie Ave","stop_id":"105"},"type":"Feature"},{"geometry":{"coordinates":[-118.30306,33.89037],"type":"Point"},"properties":{"kind":"stop","name":"Redondo Beach Bl & Nuanu Dr","stop_id":"106"},"type":"Feature"},{"geometry":{"coordinates":[-118.30512,33.8897],"type":"Point"},"properties":{"kind":"stop","name":"Redondo Beach Bl & Denker Ave","stop_id":"107"},"type":"Feature"},{"geometry":{"coordinates":[-118.31281,33.88721],"type":"Point"},"properties":{"kind":"stop","name":"Redondo Beach Bl & Gramercy Pl","stop_id":"108"},"type":"Feature"},{"geometry":{"coordinates":[-118.31659,33.886],"type":"Point"},"properties":{"kind":"stop","name":"Redondo Beach Bl & Van Ness Ave","stop_id":"109"},"type":"Feature"},{"geometry":{"coordinates":[-118.23173,33.896],"type":"Point"},"properties":{"kind":"stop","name":"Compton Bl & Aranbe Ave","stop_id":"11"},"type":"Feature"},{"geometry":{"coordinates":[-118.32324,33.88385],"type":"Point"},"properties":{"kind":"stop","name":"Redondo Beach Bl & Wilkie Ave","stop_id":"110"},"type":"Feature"},{"geometry":{"coordinates":[-118.33484,33.8801],"type":"Point"},"properties":{"kind":"stop","name":"Redondo Beach Bl & Yukon Ave","stop_id":"111"},"type":"Feature"},{"geometry":{"coordinates":[-118.33973,33.87852],"type":"Point"},"properties":{"kind":"stop","name":"Redondo Beach Bl & Ainsworth Ave","stop_id":"112"},"type":"Feature"},{"geometry":{"coordinates":[-118.34345,33.87731],"type":"Point"},"properties":{"kind":"stop","name":"Redondo Beach Bl & Prarie Ave","stop_id":"113"},"type":"Feature"},{"geometry":{"coordinates":[-118.33843,33.89469],"type":"Point"},"properties":{"kind":"stop","name":"Marine Ave & Bodger Ave","stop_id":"114"},"type":"Feature"},{"geometry":{"coordinates":[-118.34855,33.87568],"type":"Point"},"properties":{"kind":"stop","name":"Redondo Beach Bl & Amie Ave","stop_id":"115"},"type":"Feature"},{"geometry":{"coordinates":[-118.35191,33.87454],"type":"Point"},"properties":{"kind":"stop","name":"Redondo Beach Bl & Hawthorne Bl","stop_id":"116"},"type":"Feature"},{"geometry":{"coordinates":[-118.30154,33.78935],"type":"Point"},"properties":{"kind":"stop","name":"Pacific Coast Hwy & Belle Porte Ave","stop_id":"117"},"type":"Feature"},{"geometry":{"coordinates":[-118.3047,33.78935],"type":"Point"},"properties":{"kind":"stop","name":"Pacific Coast Hwy & President Ave","stop_id":"118"},"type":"Feature"},{"geometry":{"coordinates":[-118.30716,33.78937],"type":"Point"},"properties":{"kind":"stop","name":"Pacific Coast Hwy & Western Ave","stop_id":"119"},"type":"Feature"},{"geometry":{"coordinates":[-118.3389,33.89457],"type":"Point"},"properties":{"kind":"stop","name":"Marine Ave & Doty Ave","stop_id":"12"},"type":"Feature"},{"geometry":{"coordinates":[-118.30776,33.79265],"type":"Point"},"properties":{"kind":"stop","name":"Western Ave & 255th St","stop_id":"120"},"type":"Feature"},{"geometry":{"coordinates":[-118.30775,33.7945],"type":"Point"},"properties":{"kind":"stop","name":"Western Ave & 253rd St","stop_id":"121"},"type":"Feature"},{"geometry":{"coordinates":[-118.30773,33.79813],"type":"Point"},"properties":{"kind":"stop","name":"Western Ave & Lomita Bl","stop_id":"122"},"type":"Feature"},{"geometry":{"coordinates":[-118.33503,33.89474],"type":"Point"},"properties":{"kind":"stop","name":"Marine Ave & Yukon Ave","stop_id":"123"},"type":"Feature"},{"geometry":{"coordinates":[-118.30767,33.8011],"type":"Point"},"properties":{"kind":"stop","name":"Western Ave & 247th St","stop_id":"124"},"type":"Feature"},{"geometry":{"coordinates":[-118.30764,33.80464],"type":"Point"},"properties":{"kind":"stop","name":"Western Ave & 242nd Pl","stop_id":"125"},"type":"Feature"},{"geometry":{"coordinates":[-118.30831,33.80884],"type":"Point"},"properties":{"kind":"stop","name":"Western Ave & 238th St","stop_id":"126"},"type":"Feature"},{"geometry":{"coordinates":[-118.30891,33.81105],"type":"Point"},"properties":{"kind":"stop","name":"Western Ave & 236th St","stop_id":"127"},"type":"Feature"},{"geometry":{"coordinates":[-118.30903,33.81675],"type":"Point"},"properties":{"kind":"stop","name":"Western Ave & Sepulveda Bl","stop_id":"128"},"type":"Feature"},{"geometry":{"coordinates":[-118.30904,33.81919],"type":"Point"},"properties":{"kind":"stop","name":"Western Ave & 228th St","stop_id":"129"},"type":"Feature"},{"geometry":{"coordinates":[-118.34332,33.89457],"type":"Point"},"properties":{"kind":"stop","name":"Marine Ave & Prarie Ave","stop_id":"13"},"type":"Feature"},{"geometry":{"coordinates":[-118.30909,33.82299],"type":"Point"},"properties":{"kind":"stop","name":"Western Ave & Plaza del Amo","stop_id":"130"},"type":"Feature"},{"geometry":{"coordinates":[-118.30911,33.82467],"type":"Point"},"properties":{"kind":"stop","name":"Western Ave & 223rd St","stop_id":"131"},"type":"Feature"},{"geometry":{"coordinates":[-118.30916,33.82821],"type":"Point"},"properties":{"kind":"stop","name":"Western Ave & 220th St","stop_id":"132"},"type":"Feature"},{"geometry":{"coordinates":[-118.33112,33.89475],"type":"Point"},"properties":{"kind":"stop","name":"Marine Ave & Lemoli Ave","stop_id":"133"},"type":"Feature"},{"geometry":{"coordinates":[-118.30924,33.83513],"type":"Point"},"properties":{"kind":"stop","name":"Western Ave & 213th St","stop_id":"134"},"type":"Feature"},{"geometry":{"coordinates":[-118.30937,33.8376],"type":"Point"},"properties":{"kind":"stop","name":"Western Ave & Torrance Bl","stop_id":"135"},"type":"Feature"},{"geometry":{"coordinates":[-118.30942,33.84155],"type":"Point"},"properties":{"kind":"stop","name":"Western Ave & 208th St","stop_id":"136"},"type":"Feature"},{"geometry":{"coordinates":[-118.30944,33.84444],"type":"Point"},"properties":{"kind":"stop","name":"Western Ave & 205th St","stop_id":"137"},"type":"Feature"},{"geometry":{"coordinates":[-118.30945,33.84638],"type":"Point"},"properties":{"kind":"stop","name":"Western Ave & Del Amo Bl","stop_id":"138"},"type":"Feature"},{"geometry":{"coordinates":[-118.30947,33.84916],"type":"Point"},"properties":{"kind":"stop","name":"Western Ave & Western Way","stop_id":"139"},"type":"Feature"},{"geometry":{"coordinates":[-118.34845,33.89455],"type":"Point"},"properties":{"kind":"stop","name":"Marine Ave & Freeman Ave","stop_id":"14"},"type":"Feature"},{"geometry":{"coordinates":[-118.30961,33.85444],"type":"Point"},"properties":{"kind":"stop","name":"Western Ave & Toyota Way","stop_id":"140"},"type":"Feature"},{"geometry":{"coordinates":[-118.30956,33.85788],"type":"Point"},"properties":{"kind":"stop","name":"Western Ave & 190th St","stop_id":"141"},"type":"Feature"},{"geometry":{"coordinates":[-118.30931,33.86223],"type":"Point"},"properties":{"kind":"stop","name":"Western Ave & 186th St","stop_id":"142"},"type":"Feature"},{"geometry":{"coordinates":[-118.30931,33.86525],"type":"Point"},"properties":{"kind":"stop","name":"Western Ave & 182nd St","stop_id":"143"},"type":"Feature"},{"geometry":{"coordinates":[-118.3093,33.8694],"type":"Point"},"properties":{"kind":"stop","name":"Western Ave & 178th St","stop_id":"144"},"type":"Feature"},{"geometry":{"coordinates":[-118.30932,33.87315],"type":"Point"},"properties":{"kind":"stop","name":"Western Ave & Artesia Bl","stop_id":"145"},"type":"Feature"},{"geometry":{"coordinates":[-118.30927,33.87723],"type":"Point"},"properties":{"kind":"stop","name":"Western Ave & 169th St","stop_id":"146"},"type":"Feature"},{"geometry":{"coordinates":[-118.30928,33.88029],"type":"Point"},"properties":{"kind":"stop","name":"Western Ave & 166th St","stop_id":"147"},"type":"Feature"},{"geometry":{"coordinates":[-118.30929,33.89483],"type":"Point"},"properties":{"kind":"stop","name":"Western Ave & Marine Ave","stop_id":"148"},"type":"Feature"},{"geometry":{"coordinates":[-118.30931,33.89875],"type":"Point"},"properties":{"kind":"stop","name":"Western Ave & 146th St","stop_id":"149"},"type":"Feature"},{"geometry":{"coordinates":[-118.35203,33.89455],"type":"Point"},"properties":{"kind":"stop","name":"Marine Ave & Hawthorne Bl","stop_id":"15"},"type":"Feature"},{"geometry":{"coordinates":[-118.30928,33.9052],"type":"Point"},"properties":{"kind":"stop","name":"Western Ave & 139th St","stop_id":"150"},"type":"Feature"},{"geometry":{"coordinates":[-118.30928,33.90947],"type":"Point"},"properties":{"kind":"stop","name":"Western Ave & 135th St","stop_id":"151"},"type":"Feature"},{"geometry":{"coordinates":[-118.30927,33.91284],"type":"Point"},"properties":{"kind":"stop","name":"Western Ave & 132nd St","stop_id":"152"},"type":"Feature"},{"geometry":{"coordinates":[-118.32196,33.89476],"type":"Point"},"properties":{"kind":"stop","name":"Marine Ave & Dublin Ave","stop_id":"153"},"type":"Feature"},{"geometry":{"coordinates":[-118.30926,33.91608],"type":"Point"},"properties":{"kind":"stop","name":"Western Ave & El Segundo Bl","stop_id":"154"},"type":"Feature"},{"geometry":{"coordinates":[-118.30924,33.92354],"type":"Point"},"properties":{"kind":"stop","name":"Western Ave & 120th St","stop_id":"155"},"type":"Feature"},{"geometry":{"coordinates":[-118.30455,33.93109],"type":"Point"},"properties":{"kind":"stop","name":"Imperial Hwy & Denker Ave","stop_id":"156"},"type":"Feature"},{"geometry":{"coordinates":[-118.29999,33.93109],"type":"Point"},"properties":{"kind":"stop","name":"Imperial Hwy & Normandie Ave","stop_id":"157"},"type":"Feature"},{"geometry":{"coordinates":[-118.29534,33.93108],"type":"Point"},"properties":{"kind":"stop","name":"Imperial Hwy & Budlong Ave","stop_id":"158"},"type":"Feature"},{"geometry":{"coordinates":[-118.29241,33.93109],"type":"Point"},"properties":{"kind":"stop","name":"Imperial Hwy & Vermont Ave","stop_id":"159"},"type":"Feature"},{"geometry":{"coordinates":[-118.3574,33.89455],"type":"Point"},"properties":{"kind":"stop","name":"Marine Ave & Firmona Av","stop_id":"16"},"type":"Feature"},{"geometry":{"coordinates":[-118.29149,33.92887],"type":"Point"},"properties":{"kind":"stop","name":"Vermont Ave & Green Line Station","stop_id":"160"},"type":"Feature"},{"geometry":{"coordinates":[-118.29148,33.91992],"type":"Point"},"properties":{"kind":"stop","name":"Vermont Ave & 124th St","stop_id":"161"},"type":"Feature"},{"geometry":{"coordinates":[-118.29149,33.9161],"type":"Point"},"properties":{"kind":"stop","name":"Vermont Ave & El Segundo Bl","stop_id":"162"},"type":"Feature"},{"geometry":{"coordinates":[-118.31765,33.89476],"type":"Point"},"properties":{"kind":"stop","name":"Marine Ave & Van Ness Ave","stop_id":"163"},"type":"Feature"},{"geometry":{"coordinates":[-118.2915,33.9122],"type":"Point"},"properties":{"kind":"stop","name":"Vermont Ave & 132nd St","stop_id":"164"},"type":"Feature"},{"geometry":{"coordinates":[-118.29152,33.90948],"type":"Point"},"properties":{"kind":"stop","name":"Vermont Ave & 135th St","stop_id":"165"},"type":"Feature"},{"geometry":{"coordinates":[-118.29152,33.90456],"type":"Point"},"properties":{"kind":"stop","name":"Vermont Ave & 140th St","stop_id":"166"},"type":"Feature"},{"geometry":{"coordinates":[-118.2911,33.879],"type":"Point"},"properties":{"kind":"stop","name":"Vermont Ave & 168th St","stop_id":"167"},"type":"Feature"},{"geometry":{"coordinates":[-118.29081,33.87323],"type":"Point"},"properties":{"kind":"stop","name":"Vermont Ave & Artesia Bl","stop_id":"168"},"type":"Feature"},{"geometry":{"coordinates":[-118.29913,33.86232],"type":"Point"},"properties":{"kind":"stop","name":"Normandie Ave & 186th St","stop_id":"169"},"type":"Feature"},{"geometry":{"coordinates":[-118.23892,33.92583],"type":"Point"},"properties":{"kind":"stop","name":"Wilmington Ave & 118th St","stop_id":"17"},"type":"Feature"},{"geometry":{"coordinates":[-118.29912,33.85891],"type":"Point"},"properties":{"kind":"stop","name":"Normandie Ave & 190th St","stop_id":"170"},"type":"Feature"},{"geometry":{"coordinates":[-118.29914,33.85454],"type":"Point"},"properties":{"kind":"stop","name":"Normandie Ave & Knox St","stop_id":"171"},"type":"Feature"},{"geometry":{"coordinates":[-118.29913,33.85009],"type":"Point"},"properties":{"kind":"stop","name":"Normandie Ave & Francisco St","stop_id":"172"},"type":"Feature"},{"geometry":{"coordinates":[-118.3133,33.89476],"type":"Point"},"properties":{"kind":"stop","name":"Marine Ave & Gramercy Pl","stop_id":"173"},"type":"Feature"},{"geometry":{"coordinates":[-118.29912,33.84544],"type":"Point"},"properties":{"kind":"stop","name":"Normandie Ave & 204th St","stop_id":"174"},"type":"Feature"},{"geometry":{"coordinates":[-118.29912,33.84222],"type":"Point"},"properties":{"kind":"stop","name":"Normandie Ave & Torrance Bl","stop_id":"175"},"type":"Feature"},{"geometry":{"coordinates":[-118.29912,33.83714],"type":"Point"},"properties":{"kind":"stop","name":"Normandie Ave & 212th St","stop_id":"176"},"type":"Feature"},{"geometry":{"coordinates":[-118.2991,33.8342],"type":"Point"},"properties":{"kind":"stop","name":"Normandie Ave & Levinson St","stop_id":"177"},"type":"Feature"},{"geometry":{"coordinates":[-118.2991,33.8284],"type":"Point"},"properties":{"kind":"stop","name":"Normandie Ave & 220th St","stop_id":"178"},"type":"Feature"},{"geometry":{"coordinates":[-118.2991,33.82429],"type":"Point"},"properties":{"kind":"stop","name":"Normandie Ave & 223rd St","stop_id":"179"},"type":"Feature"},{"geometry":{"coordinates":[-118.24562,33.92379],"type":"Point"},"properties":{"kind":"stop","name":"120th St & Compton Ave","stop_id":"18"},"type":"Feature"},{"geometry":{"coordinates":[-118.29807,33.81876],"type":"Point"},"properties":{"kind":"stop","name":"Normandie Ave & 228th St","stop_id":"180"},"type":"Feature"},{"geometry":{"coordinates":[-118.29809,33.81267],"type":"Point"},"properties":{"kind":"stop","name":"Normandie Ave & Sepulveda Bl","stop_id":"181"},"type":"Feature"},{"geometry":{"coordinates":[-118.29825,33.80961],"type":"Point"},"properties":{"kind":"stop","name":"Normandie Ave & Oakhealth Dr","stop_id":"182"},"type":"Feature"},{"geometry":{"coordinates":[-118.30982,33.89476],"type":"Point"},"properties":{"kind":"stop","name":"Marine Ave & Western Ave","stop_id":"183"},"type":"Feature"},{"geometry":{"coordinates":[-118.2984,33.80686],"type":"Point"},"properties":{"kind":"stop","name":"Normandie Ave & Pasatiempo Ln","stop_id":"184"},"type":"Feature"},{"geometry":{"coordinates":[-118.2986,33.80297],"type":"Point"},"properties":{"kind":"stop","name":"Normandie Ave & 245th St","stop_id":"185"},"type":"Feature"},{"geometry":{"coordinates":[-118.29732,33.79752],"type":"Point"},"properties":{"kind":"stop","name":"Normandie Ave & Lomita Bl","stop_id":"186"},"type":"Feature"},{"geometry":{"coordinates":[-118.29734,33.79459],"type":"Point"},"properties":{"kind":"stop","name":"Normandie Ave & 253rd St","stop_id":"187"},"type":"Feature"},{"geometry":{"coordinates":[-118.29735,33.79265],"type":"Point"},"properties":{"kind":"stop","name":"Normandie Ave & 255th St","stop_id":"188"},"type":"Feature"},{"geometry":{"coordinates":[-118.29763,33.795],"type":"Point"},"properties":{"kind":"stop","name":"Normandie Ave & 253rd St","stop_id":"189"},"type":"Feature"},{"geometry":{"coordinates":[-118.22842,33.89604],"type":"Point"},"properties":{"kind":"stop","name":"Compton Bl & Orleander Ave","stop_id":"19"},"type":"Feature"},{"geometry":{"coordinates":[-118.29763,33.79748],"type":"Point"},"properties":{"kind":"stop","name":"Normandie Ave & Lomita Bl","stop_id":"190"},"type":"Feature"},{"geometry":{"coordinates":[-118.29886,33.80237],"type":"Point"},"properties":{"kind":"stop","name":"Normandie Ave & 245th St","stop_id":"191"},"type":"Feature"},{"geometry":{"coordinates":[-118.2505,33.88838],"type":"Point"},"properties":{"kind":"stop","name":"Alondra Bl & Central Ave","stop_id":"192"},"type":"Feature"},{"geometry":{"coordinates":[-118.30902,33.89084],"type":"Point"},"properties":{"kind":"stop","name":"Western Ave & 154th Pl","stop_id":"193"},"type":"Feature"},{"geometry":{"coordinates":[-118.29864,33.80678],"type":"Point"},"properties":{"kind":"stop","name":"Normandie Ave & Pasatiempo Ln","stop_id":"194"},"type":"Feature"},{"geometry":{"coordinates":[-118.29852,33.80958],"type":"Point"},"properties":{"kind":"stop","name":"Normandie Ave & Oakhealth Dr","stop_id":"195"},"type":"Feature"},{"geometry":{"coordinates":[-118.29834,33.81369],"type":"Point"},"properties":{"kind":"stop","name":"Normandie Ave & Sepulveda Bl","stop_id":"196"},"type":"Feature"},{"geometry":{"coordinates":[-118.29832,33.81919],"type":"Point"},"properties":{"kind":"stop","name":"Normandie Ave & 228th St","stop_id":"197"},"type":"Feature"},{"geometry":{"coordinates":[-118.29911,33.82198],"type":"Point"},"properties":{"kind":"stop","name":"Normandie Ave & 225th St","stop_id":"198"},"type":"Feature"},{"geometry":{"coordinates":[-118.29931,33.82474],"type":"Point"},"properties":{"kind":"stop","name":"Normandie Ave & 223rd St","stop_id":"199"},"type":"Feature"},{"geometry":{"coordinates":[-118.30934,33.88812],"type":"Point"},"properties":{"kind":"stop","name":"Western Ave & Redondo Beach Bl","stop_id":"2"},"type":"Feature"},{"geometry":{"coordinates":[-118.24612,33.91654],"type":"Point"},"properties":{"kind":"stop","name":"Compton Ave & El Segundo Bl","stop_id":"20"},"type":"Feature"},{"geometry":{"coordinates":[-118.29933,33.82826],"type":"Point"},"properties":{"kind":"stop","name":"Normandie Ave & 220th St","stop_id":"200"},"type":"Feature"},{"geometry":{"coordinates":[-118.29933,33.83175],"type":"Point"},"properties":{"kind":"stop","name":"Normandie Ave & Carson St","stop_id":"201"},"type":"Feature"},{"geometry":{"coordinates":[-118.29933,33.83448],"type":"Point"},"properties":{"kind":"stop","name":"Normandie Ave & Levinson St","stop_id":"202"},"type":"Feature"},{"geometry":{"coordinates":[-118.29934,33.84164],"type":"Point"},"properties":{"kind":"stop","name":"Normandie Ave & Torrance Bl","stop_id":"203"},"type":"Feature"},{"geometry":{"coordinates":[-118.30902,33.88912],"type":"Point"},"properties":{"kind":"stop","name":"Western Ave & Redondo Beach Bl","stop_id":"204"},"type":"Feature"},{"geometry":{"coordinates":[-118.29935,33.84567],"type":"Point"},"properties":{"kind":"stop","name":"Normandie Ave & 204th St","stop_id":"205"},"type":"Feature"},{"geometry":{"coordinates":[-118.29936,33.85051],"type":"Point"},"properties":{"kind":"stop","name":"Normandie Ave & Francisco St","stop_id":"206"},"type":"Feature"},{"geometry":{"coordinates":[-118.29936,33.85393],"type":"Point"},"properties":{"kind":"stop","name":"Normandie Ave & Knox St","stop_id":"207"},"type":"Feature"},{"geometry":{"coordinates":[-118.29938,33.8577],"type":"Point"},"properties":{"kind":"stop","name":"Normandie Ave & 190th St","stop_id":"208"},"type":"Feature"},{"geometry":{"coordinates":[-118.29936,33.86228],"type":"Point"},"properties":{"kind":"stop","name":"Normandie Ave & 186th St","stop_id":"209"},"type":"Feature"},{"geometry":{"coordinates":[-118.24908,33.91617],"type":"Point"},"properties":{"kind":"stop","name":"El Segundo Bl & Slater Ave","stop_id":"21"},"type":"Feature"},{"geometry":{"coordinates":[-118.29104,33.87213],"type":"Point"},"properties":{"kind":"stop","name":"Vermont Ave & Artesia Bl","stop_id":"210"},"type":"Feature"},{"geometry":{"coordinates":[-118.29123,33.8769],"type":"Point"},"properties":{"kind":"stop","name":"Vermont Ave & 170th St","stop_id":"211"},"type":"Feature"},{"geometry":{"coordinates":[-118.29133,33.87932],"type":"Point"},"properties":{"kind":"stop","name":"Vermont Ave & 168th St","stop_id":"212"},"type":"Feature"},{"geometry":{"coordinates":[-118.29206,33.90447],"type":"Point"},"properties":{"kind":"stop","name":"Vermont Ave & Carnelian Pl","stop_id":"213"},"type":"Feature"},{"geometry":{"coordinates":[-118.30902,33.88406],"type":"Point"},"properties":{"kind":"stop","name":"Western Ave & 162nd St","stop_id":"214"},"type":"Feature"},{"geometry":{"coordinates":[-118.29205,33.90641],"type":"Point"},"properties":{"kind":"stop","name":"Vermont Ave & 138th St","stop_id":"215"},"type":"Feature"},{"geometry":{"coordinates":[-118.29205,33.90892],"type":"Point"},"properties":{"kind":"stop","name":"Vermont Ave & 135th St","stop_id":"216"},"type":"Feature"},{"geometry":{"coordinates":[-118.292,33.91162],"type":"Point"},"properties":{"kind":"stop","name":"Vermont Ave & 133rd St","stop_id":"217"},"type":"Feature"},{"geometry":{"coordinates":[-118.29199,33.91607],"type":"Point"},"properties":{"kind":"stop","name":"Vermont Ave & El Segundo Bl","stop_id":"218"},"type":"Feature"},{"geometry":{"coordinates":[-118.29194,33.91898],"type":"Point"},"properties":{"kind":"stop","name":"Vermont Ave & 125th St","stop_id":"219"},"type":"Feature"},{"geometry":{"coordinates":[-118.25472,33.91625],"type":"Point"},"properties":{"kind":"stop","name":"El Segundo Bl & Central Ave","stop_id":"22"},"type":"Feature"},{"geometry":{"coordinates":[-118.2954,33.93086],"type":"Point"},"properties":{"kind":"stop","name":"Imperial Hwy & Budlong Ave","stop_id":"220"},"type":"Feature"},{"geometry":{"coordinates":[-118.30058,33.93085],"type":"Point"},"properties":{"kind":"stop","name":"Imperial Hwy & Normandie Ave","stop_id":"221"},"type":"Feature"},{"geometry":{"coordinates":[-118.30429,33.93084],"type":"Point"},"properties":{"kind":"stop","name":"Imperial Hwy & Denker Ave","stop_id":"222"},"type":"Feature"},{"geometry":{"coordinates":[-118.30835,33.93084],"type":"Point"},"properties":{"kind":"stop","name":"Imperial Hwy & Western Ave","stop_id":"223"},"type":"Feature"},{"geometry":{"coordinates":[-118.30902,33.88235],"type":"Point"},"properties":{"kind":"stop","name":"Western Ave & Gardena Bl","stop_id":"224"},"type":"Feature"},{"geometry":{"coordinates":[-118.30893,33.92952],"type":"Point"},"properties":{"kind":"stop","name":"Western Ave & College Dr","stop_id":"225"},"type":"Feature"},{"geometry":{"coordinates":[-118.30894,33.92384],"type":"Point"},"properties":{"kind":"stop","name":"Western Ave & 120th St","stop_id":"226"},"type":"Feature"},{"geometry":{"coordinates":[-118.37814,33.91652],"type":"Point"},"properties":{"kind":"stop","name":"El Segundo Bl & Aviation Bl","stop_id":"227"},"type":"Feature"},{"geometry":{"coordinates":[-118.37465,33.91652],"type":"Point"},"properties":{"kind":"stop","name":"El Segundo Bl & Isis Ave","stop_id":"228"},"type":"Feature"},{"geometry":{"coordinates":[-118.36408,33.91653],"type":"Point"},"properties":{"kind":"stop","name":"El Segundo Bl & Shoup Ave","stop_id":"229"},"type":"Feature"},{"geometry":{"coordinates":[-118.25716,33.91626],"type":"Point"},"properties":{"kind":"stop","name":"El Segundo Bl & Keene Ave","stop_id":"23"},"type":"Feature"},{"geometry":{"coordinates":[-118.36099,33.91653],"type":"Point"},"properties":{"kind":"stop","name":"El Segundo Bl & Inglewood Ave","stop_id":"230"},"type":"Feature"},{"geometry":{"coordinates":[-118.3572,33.91654],"type":"Point"},"properties":{"kind":"stop","name":"El Segundo Bl & Ramona Ave","stop_id":"231"},"type":"Feature"},{"geometry":{"coordinates":[-118.35224,33.91655],"type":"Point"},"properties":{"kind":"stop","name":"El Segundo Bl & Hawthorne Bl","stop_id":"232"},"type":"Feature"},{"geometry":{"coordinates":[-118.30894,33.8802],"type":"Point"},"properties":{"kind":"stop","name":"166th St & Western Ave","stop_id":"233"},"type":"Feature"},{"geometry":{"coordinates":[-118.34995,33.91655],"type":"Point"},"properties":{"kind":"stop","name":"El Segundo Bl & Birch Ave","stop_id":"234"},"type":"Feature"},{"geometry":{"coordinates":[-118.34632,33.91655],"type":"Point"},"properties":{"kind":"stop","name":"El Segundo Bl & Oxford Ave","stop_id":"235"},"type":"Feature"},{"geometry":{"coordinates":[-118.3443,33.91655],"type":"Point"},"properties":{"kind":"stop","name":"El Segundo Bl & Prarie Ave","stop_id":"236"},"type":"Feature"},{"geometry":{"coordinates":[-118.34139,33.91656],"type":"Point"},"properties":{"kind":"stop","name":"El Segundo Bl & Cordary Ave","stop_id":"237"},"type":"Feature"},{"geometry":{"coordinates":[-118.33561,33.91657],"type":"Point"},"properties":{"kind":"stop","name":"El Segundo Bl & Yukon Ave","stop_id":"238"},"type":"Feature"},{"geometry":{"coordinates":[-118.33273,33.91657],"type":"Point"},"properties":{"kind":"stop","name":"El Segundo Bl & Cerise Ave","stop_id":"239"},"type":"Feature"},{"geometry":{"coordinates":[-118.26115,33.91625],"type":"Point"},"properties":{"kind":"stop","name":"El Segundo Bl & McKinley Ave","stop_id":"24"},"type":"Feature"},{"geometry":{"coordinates":[-118.32928,33.91658],"type":"Point"},"properties":{"kind":"stop","name":"El Segundo Bl & Chadron Ave","stop_id":"240"},"type":"Feature"},{"geometry":{"coordinates":[-118.32714,33.91659],"type":"Point"},"properties":{"kind":"stop","name":"El Segundo Bl & Crenshaw Bl","stop_id":"241"},"type":"Feature"},{"geometry":{"coordinates":[-118.32324,33.91658],"type":"Point"},"properties":{"kind":"stop","name":"El Segundo Bl & Wilkie Ave","stop_id":"242"},"type":"Feature"},{"geometry":{"coordinates":[-118.30421,33.88022],"type":"Point"},"properties":{"kind":"stop","name":"166th St & Denker Ave","stop_id":"243"},"type":"Feature"},{"geometry":{"coordinates":[-118.31819,33.91658],"type":"Point"},"properties":{"kind":"stop","name":"El Segundo Bl & Van Ness Ave","stop_id":"244"},"type":"Feature"},{"geometry":{"coordinates":[-118.30873,33.91657],"type":"Point"},"properties":{"kind":"stop","name":"El Segundo Bl & Western Ave","stop_id":"245"},"type":"Feature"},{"geometry":{"coordinates":[-118.30656,33.91657],"type":"Point"},"properties":{"kind":"stop","name":"El Segundo Bl & Harvard Bl","stop_id":"246"},"type":"Feature"},{"geometry":{"coordinates":[-118.30221,33.91656],"type":"Point"},"properties":{"kind":"stop","name":"El Segundo Bl & Halldale Ave","stop_id":"247"},"type":"Feature"},{"geometry":{"coordinates":[-118.30008,33.91655],"type":"Point"},"properties":{"kind":"stop","name":"El Segundo Bl & Normandie Ave","stop_id":"248"},"type":"Feature"},{"geometry":{"coordinates":[-118.29614,33.91655],"type":"Point"},"properties":{"kind":"stop","name":"El Segundo Bl & Budlong Ave","stop_id":"249"},"type":"Feature"},{"geometry":{"coordinates":[-118.26475,33.91629],"type":"Point"},"properties":{"kind":"stop","name":"El Segundo Bl & Avalon Bl","stop_id":"25"},"type":"Feature"},{"geometry":{"coordinates":[-118.28733,33.91655],"type":"Point"},"properties":{"kind":"stop","name":"El Segundo Bl & Hoover St","stop_id":"250"},"type":"Feature"},{"geometry":{"coordinates":[-118.27793,33.91655],"type":"Point"},"properties":{"kind":"stop","name":"El Segundo Bl & Broadway","stop_id":"251"},"type":"Feature"},{"geometry":{"coordinates":[-118.27437,33.91655],"type":"Point"},"properties":{"kind":"stop","name":"El Segundo Bl & Main St","stop_id":"252"},"type":"Feature"},{"geometry":{"coordinates":[-118.30062,33.88022],"type":"Point"},"properties":{"kind":"stop","name":"166th St & Brighton Ave","stop_id":"253"},"type":"Feature"},{"geometry":{"coordinates":[-118.27001,33.91655],"type":"Point"},"properties":{"kind":"stop","name":"El Segundo Bl & San Pedro St","stop_id":"254"},"type":"Feature"},{"geometry":{"coordinates":[-118.26131,33.91648],"type":"Point"},"properties":{"kind":"stop","name":"El Segundo Bl & McKinley Ave","stop_id":"255"},"type":"Feature"},{"geometry":{"coordinates":[-118.25739,33.91649],"type":"Point"},"properties":{"kind":"stop","name":"El Segundo Bl & Keene Ave","stop_id":"256"},"type":"Feature"},{"geometry":{"coordinates":[-118.25483,33.9165],"type":"Point"},"properties":{"kind":"stop","name":"El Segundo Bl & Central Ave","stop_id":"257"},"type":"Feature"},{"geometry":{"coordinates":[-118.24881,33.91638],"type":"Point"},"properties":{"kind":"stop","name":"El Segundo Bl & Slater Ave","stop_id":"258"},"type":"Feature"},{"geometry":{"coordinates":[-118.24635,33.91642],"type":"Point"},"properties":{"kind":"stop","name":"Compton Ave & El Segundo Bl","stop_id":"259"},"type":"Feature"},{"geometry":{"coordinates":[-118.26988,33.91629],"type":"Point"},"properties":{"kind":"stop","name":"El Segundo Bl & San Pedro St","stop_id":"26"},"type":"Feature"},{"geometry":{"coordinates":[-118.24635,33.92006],"type":"Point"},"properties":{"kind":"stop","name":"Compton Ave & 124th St","stop_id":"260"},"type":"Feature"},{"geometry":{"coordinates":[-118.23965,33.92472],"type":"Point"},"properties":{"kind":"stop","name":"120th St & Wilmington Ave","stop_id":"261"},"type":"Feature"},{"geometry":{"coordinates":[-118.29791,33.88151],"type":"Point"},"properties":{"kind":"stop","name":"Gardena Bl & Raymond Ave","stop_id":"262"},"type":"Feature"},{"geometry":{"coordinates":[-118.29591,33.88156],"type":"Point"},"properties":{"kind":"stop","name":"Gardena Bl & Budlong Ave","stop_id":"268"},"type":"Feature"},{"geometry":{"coordinates":[-118.27437,33.91631],"type":"Point"},"properties":{"kind":"stop","name":"El Segundo Bl & Main St","stop_id":"27"},"type":"Feature"},{"geometry":{"coordinates":[-118.27784,33.9163],"type":"Point"},"properties":{"kind":"stop","name":"El Segundo Bl & Broadway","stop_id":"28"},"type":"Feature"},{"geometry":{"coordinates":[-118.29928,33.86545],"type":"Point"},"properties":{"kind":"stop","name":"Normandie Ave & 182nd St","stop_id":"286"},"type":"Feature"},{"geometry":{"coordinates":[-118.24683,33.88859],"type":"Point"},"properties":{"kind":"stop","name":"Alondra Bl & Nestor Ave","stop_id":"287"},"type":"Feature"},{"geometry":{"coordinates":[-118.35652,33.86592],"type":"Point"},"properties":{"kind":"stop","name":"Kingsdale Ave & 182nd St","stop_id":"289"},"type":"Feature"},{"geometry":{"coordinates":[-118.22695,33.89608],"type":"Point"},"properties":{"kind":"stop","name":"Compton Bl & Acacia Ave","stop_id":"29"},"type":"Feature"},{"geometry":{"coordinates":[-118.35281,33.8657],"type":"Point"},"properties":{"kind":"stop","name":"Hawthorne Bl & 182nd St","stop_id":"290"},"type":"Feature"},{"geometry":{"coordinates":[-118.35281,33.86829],"type":"Point"},"properties":{"kind":"stop","name":"Hawthorne Bl & 179th St","stop_id":"291"},"type":"Feature"},{"geometry":{"coordinates":[-118.35282,33.87208],"type":"Point"},"properties":{"kind":"stop","name":"Hawthorne Bl & Artesia Bl","stop_id":"292"},"type":"Feature"},{"geometry":{"coordinates":[-118.34868,33.87588],"type":"Point"},"properties":{"kind":"stop","name":"Redondo Beach Bl & Freeman Ave","stop_id":"293"},"type":"Feature"},{"geometry":{"coordinates":[-118.34494,33.87709],"type":"Point"},"properties":{"kind":"stop","name":"Redondo Beach Bl & Prarie Ave","stop_id":"294"},"type":"Feature"},{"geometry":{"coordinates":[-118.3397,33.87879],"type":"Point"},"properties":{"kind":"stop","name":"Redondo Beach Bl & Ainsworth Ave","stop_id":"295"},"type":"Feature"},{"geometry":{"coordinates":[-118.335,33.8803],"type":"Point"},"properties":{"kind":"stop","name":"Redondo Beach Bl & Yukon Ave","stop_id":"296"},"type":"Feature"},{"geometry":{"coordinates":[-118.32624,33.88314],"type":"Point"},"properties":{"kind":"stop","name":"Redondo Beach Bl & Crenshaw Bl","stop_id":"297"},"type":"Feature"},{"geometry":{"coordinates":[-118.32302,33.88417],"type":"Point"},"properties":{"kind":"stop","name":"Redondo Beach Bl & Arcturus Ave","stop_id":"298"},"type":"Feature"},{"geometry":{"coordinates":[-118.29176,33.88352],"type":"Point"},"properties":{"kind":"stop","name":"Vermont Ave & 163rd St","stop_id":"299"},"type":"Feature"},{"geometry":{"coordinates":[-118.30932,33.89104],"type":"Point"},"properties":{"kind":"stop","name":"Western Ave & 154th St","stop_id":"3"},"type":"Feature"},{"geometry":{"coordinates":[-118.28222,33.9163],"type":"Point"},"properties":{"kind":"stop","name":"El Segundo Bl & Figueroa St","stop_id":"30"},"type":"Feature"},{"geometry":{"coordinates":[-118.31825,33.88572],"type":"Point"},"properties":{"kind":"stop","name":"Redondo Beach Bl & Van Ness Ave","stop_id":"300"},"type":"Feature"},{"geometry":{"coordinates":[-118.30504,33.88999],"type":"Point"},"properties":{"kind":"stop","name":"Redondo Beach Bl & Denker Ave","stop_id":"302"},"type":"Feature"},{"geometry":{"coordinates":[-118.29857,33.89208],"type":"Point"},"properties":{"kind":"stop","name":"Redondo Beach Bl & Raymond Ave","stop_id":"303"},"type":"Feature"},{"geometry":{"coordinates":[-118.2965,33.89247],"type":"Point"},"properties":{"kind":"stop","name":"Redondo Beach Bl & Budlong Ave","stop_id":"304"},"type":"Feature"},{"geometry":{"coordinates":[-118.29533,33.89251],"type":"Point"},"properties":{"kind":"stop","name":"Redondo Beach Bl & Catalina Ave","stop_id":"305"},"type":"Feature"},{"geometry":{"coordinates":[-118.29252,33.89259],"type":"Point"},"properties":{"kind":"stop","name":"Redondo Beach Bl & Vermont Ave","stop_id":"306"},"type":"Feature"},{"geometry":{"coordinates":[-118.28728,33.8818],"type":"Point"},"properties":{"kind":"stop","name":"Gardena Bl & Hoover St","stop_id":"307"},"type":"Feature"},{"geometry":{"coordinates":[-118.28338,33.88192],"type":"Point"},"properties":{"kind":"stop","name":"Gardena Bl & Figueroa St","stop_id":"308"},"type":"Feature"},{"geometry":{"coordinates":[-118.29185,33.88497],"type":"Point"},"properties":{"kind":"stop","name":"Vermont Ave & 161st St","stop_id":"309"},"type":"Feature"},{"geometry":{"coordinates":[-118.28721,33.91631],"type":"Point"},"properties":{"kind":"stop","name":"El Segundo Bl & Hoover St","stop_id":"31"},"type":"Feature"},{"geometry":{"coordinates":[-118.27799,33.88205],"type":"Point"},"properties":{"kind":"stop","name":"Gardena Bl & Broadway","stop_id":"310"},"type":"Feature"},{"geometry":{"coordinates":[-118.27609,33.88523],"type":"Point"},"properties":{"kind":"stop","name":"Main St & Alondra Bl","stop_id":"311"},"type":"Feature"},{"geometry":{"coordinates":[-118.27072,33.88597],"type":"Point"},"properties":{"kind":"stop","name":"Alondra Bl & Maple Ave","stop_id":"312"},"type":"Feature"},{"geometry":{"coordinates":[-118.26177,33.88627],"type":"Point"},"properties":{"kind":"stop","name":"Alondra Bl & Haskins Ln","stop_id":"313"},"type":"Feature"},{"geometry":{"coordinates":[-118.2575,33.8864],"type":"Point"},"properties":{"kind":"stop","name":"Alondra Bl & Clymar Ave","stop_id":"314"},"type":"Feature"},{"geometry":{"coordinates":[-118.2544,33.88672],"type":"Point"},"properties":{"kind":"stop","name":"Alondra Bl & Aprilla Ave","stop_id":"315"},"type":"Feature"},{"geometry":{"coordinates":[-118.30895,33.92193],"type":"Point"},"properties":{"kind":"stop","name":"Western Ave & 122nd St","stop_id":"316"},"type":"Feature"},{"geometry":{"coordinates":[-118.30895,33.9191],"type":"Point"},"properties":{"kind":"stop","name":"Western Ave & 125th St","stop_id":"317"},"type":"Feature"},{"geometry":{"coordinates":[-118.30898,33.91611],"type":"Point"},"properties":{"kind":"stop","name":"Western Ave & El Segundo Bl","stop_id":"318"},"type":"Feature"},{"geometry":{"coordinates":[-118.29201,33.88896],"type":"Point"},"properties":{"kind":"stop","name":"Vermont Ave & Magnolia Ave","stop_id":"319"},"type":"Feature"},{"geometry":{"coordinates":[-118.29223,33.91631],"type":"Point"},"properties":{"kind":"stop","name":"El Segundo Bl & Vermont Ave","stop_id":"32"},"type":"Feature"},{"geometry":{"coordinates":[-118.30898,33.91245],"type":"Point"},"properties":{"kind":"stop","name":"Western Ave & 132nd St","stop_id":"320"},"type":"Feature"},{"geometry":{"coordinates":[-118.30899,33.90896],"type":"Point"},"properties":{"kind":"stop","name":"Western Ave & 135th St","stop_id":"321"},"type":"Feature"},{"geometry":{"coordinates":[-118.30901,33.90534],"type":"Point"},"properties":{"kind":"stop","name":"Western Ave & 139th St","stop_id":"322"},"type":"Feature"},{"geometry":{"coordinates":[-118.30902,33.90228],"type":"Point"},"properties":{"kind":"stop","name":"Western Ave & Rosecrans Ave","stop_id":"323"},"type":"Feature"},{"geometry":{"coordinates":[-118.30902,33.89918],"type":"Point"},"properties":{"kind":"stop","name":"Western Ave & 146th St","stop_id":"324"},"type":"Feature"},{"geometry":{"coordinates":[-118.309,33.89449],"type":"Point"},"properties":{"kind":"stop","name":"Western Ave & Marine Ave","stop_id":"325"},"type":"Feature"},{"geometry":{"coordinates":[-118.30902,33.87987],"type":"Point"},"properties":{"kind":"stop","name":"Western Ave & 166th St","stop_id":"326"},"type":"Feature"},{"geometry":{"coordinates":[-118.30902,33.87776],"type":"Point"},"properties":{"kind":"stop","name":"Western Ave & 169th St","stop_id":"327"},"type":"Feature"},{"geometry":{"coordinates":[-118.30901,33.87333],"type":"Point"},"properties":{"kind":"stop","name":"Western Ave & Artesia Bl","stop_id":"328"},"type":"Feature"},{"geometry":{"coordinates":[-118.29657,33.91632],"type":"Point"},"properties":{"kind":"stop","name":"El Segundo Bl & Budlong Ave","stop_id":"33"},"type":"Feature"},{"geometry":{"coordinates":[-118.29214,33.89213],"type":"Point"},"properties":{"kind":"stop","name":"Vermont Ave & Redondo Beach Bl","stop_id":"330"},"type":"Feature"},{"geometry":{"coordinates":[-118.3089,33.83198],"type":"Point"},"properties":{"kind":"stop","name":"Western Ave & Carson St","stop_id":"331"},"type":"Feature"},{"geometry":{"coordinates":[-118.30885,33.82781],"type":"Point"},"properties":{"kind":"stop","name":"Western Ave & 220th St","stop_id":"332"},"type":"Feature"},{"geometry":{"coordinates":[-118.30881,33.82426],"type":"Point"},"properties":{"kind":"stop","name":"Western Ave & 223rd St","stop_id":"333"},"type":"Feature"},{"geometry":{"coordinates":[-118.30878,33.82252],"type":"Point"},"properties":{"kind":"stop","name":"Western Ave & Plaza del Amo","stop_id":"334"},"type":"Feature"},{"geometry":{"coordinates":[-118.30873,33.81736],"type":"Point"},"properties":{"kind":"stop","name":"Western Ave & Sepulveda Bl","stop_id":"335"},"type":"Feature"},{"geometry":{"coordinates":[-118.30874,33.81258],"type":"Point"},"properties":{"kind":"stop","name":"Western Ave & 235th St","stop_id":"336"},"type":"Feature"},{"geometry":{"coordinates":[-118.30791,33.80859],"type":"Point"},"properties":{"kind":"stop","name":"Western Ave & 238th St","stop_id":"337"},"type":"Feature"},{"geometry":{"coordinates":[-118.30732,33.80482],"type":"Point"},"properties":{"kind":"stop","name":"Western Ave & 242nd Pl","stop_id":"338"},"type":"Feature"},{"geometry":{"coordinates":[-118.30735,33.8013],"type":"Point"},"properties":{"kind":"stop","name":"Western Ave & 247th St","stop_id":"339"},"type":"Feature"},{"geometry":{"coordinates":[-118.3008,33.91632],"type":"Point"},"properties":{"kind":"stop","name":"El Segundo Bl & Normandie Ave","stop_id":"34"},"type":"Feature"},{"geometry":{"coordinates":[-118.30744,33.79754],"type":"Point"},"properties":{"kind":"stop","name":"Western Ave & Lomita Bl","stop_id":"340"},"type":"Feature"},{"geometry":{"coordinates":[-118.29213,33.89432],"type":"Point"},"properties":{"kind":"stop","name":"Vermont Ave & Marine Ave","stop_id":"341"},"type":"Feature"},{"geometry":{"coordinates":[-118.30745,33.79456],"type":"Point"},"properties":{"kind":"stop","name":"Western Ave & 253rd St","stop_id":"342"},"type":"Feature"},{"geometry":{"coordinates":[-118.30746,33.79236],"type":"Point"},"properties":{"kind":"stop","name":"Western Ave & 255th St","stop_id":"343"},"type":"Feature"},{"geometry":{"coordinates":[-118.30747,33.78985],"type":"Point"},"properties":{"kind":"stop","name":"Western Ave & Pacific Coast Hwy","stop_id":"344"},"type":"Feature"},{"geometry":{"coordinates":[-118.30414,33.78959],"type":"Point"},"properties":{"kind":"stop","name":"Pacific Coast Hwy & President Ave","stop_id":"345"},"type":"Feature"},{"geometry":{"coordinates":[-118.30094,33.78958],"type":"Point"},"properties":{"kind":"stop","name":"Pacific Coast Hwy & Belle Porte Ave","stop_id":"346"},"type":"Feature"},{"geometry":{"coordinates":[-118.29786,33.78994],"type":"Point"},"properties":{"kind":"stop","name":"Pacific Coast Hwy & Normandie Ave","stop_id":"347"},"type":"Feature"},{"geometry":{"coordinates":[-118.29191,33.92342],"type":"Point"},"properties":{"kind":"stop","name":"Vermont Ave & 120th St","stop_id":"348"},"type":"Feature"},{"geometry":{"coordinates":[-118.29205,33.93062],"type":"Point"},"properties":{"kind":"stop","name":"Vermont Ave & Imperial Hwy","stop_id":"349"},"type":"Feature"},{"geometry":{"coordinates":[-118.30262,33.91632],"type":"Point"},"properties":{"kind":"stop","name":"El Segundo Bl & Halldale Ave","stop_id":"35"},"type":"Feature"},{"geometry":{"coordinates":[-118.29207,33.89627],"type":"Point"},"properties":{"kind":"stop","name":"Vermont Ave & 149th St","stop_id":"350"},"type":"Feature"},{"geometry":{"coordinates":[-118.22389,33.89587],"type":"Point"},"properties":{"kind":"stop","name":"Compton Bl & Willowbrook Ave","stop_id":"351"},"type":"Feature"},{"geometry":{"coordinates":[-118.30071,33.89139],"type":"Point"},"properties":{"kind":"stop","name":"Redondo Beach Bl & Normandie Ave","stop_id":"352"},"type":"Feature"},{"geometry":{"coordinates":[-118.24392,33.92439],"type":"Point"},"properties":{"kind":"stop","name":"120th St & Healthy Way","stop_id":"353"},"type":"Feature"},{"geometry":{"coordinates":[-118.2833,33.91655],"type":"Point"},"properties":{"kind":"stop","name":"El Segundo Bl & Figueroa St","stop_id":"354"},"type":"Feature"},{"geometry":{"coordinates":[-118.3783,33.92337],"type":"Point"},"properties":{"kind":"stop","name":"Aviation Bl & 120th St","stop_id":"355"},"type":"Feature"},{"geometry":{"coordinates":[-118.24641,33.92342],"type":"Point"},"properties":{"kind":"stop","name":"Compton Ave & 120th St","stop_id":"356"},"type":"Feature"},{"geometry":{"coordinates":[-118.29207,33.90151],"type":"Point"},"properties":{"kind":"stop","name":"Vermont Ave & Rosecrans Ave","stop_id":"357"},"type":"Feature"},{"geometry":{"coordinates":[-118.32684,33.89475],"type":"Point"},"properties":{"kind":"stop","name":"Marine ave & Crenshaw blvd","stop_id":"359"},"type":"Feature"},{"geometry":{"coordinates":[-118.30666,33.91633],"type":"Point"},"properties":{"kind":"stop","name":"El Segundo Bl & Harvard Bl","stop_id":"36"},"type":"Feature"},{"geometry":{"coordinates":[-118.30938,33.89458],"type":"Point"},"properties":{"kind":"stop","name":"Marine Ave & Western Ave","stop_id":"360"},"type":"Feature"},{"geometry":{"coordinates":[-118.29335,33.88163],"type":"Point"},"properties":{"kind":"stop","name":"Gardena Bl & Berendo Ave","stop_id":"361"},"type":"Feature"},{"geometry":{"coordinates":[-118.29196,33.90189],"type":"Point"},"properties":{"kind":"stop","name":"Vermont Ave & Rosecrans Ave","stop_id":"362"},"type":"Feature"},{"geometry":{"coordinates":[-118.36168,33.89454],"type":"Point"},"properties":{"kind":"stop","name":"Marine Ave and S Inglewood ave","stop_id":"366"},"type":"Feature"},{"geometry":{"coordinates":[-118.29738,33.7904],"type":"Point"},"properties":{"kind":"stop","name":"Normandie Ave & PCH","stop_id":"367"},"type":"Feature"},{"geometry":{"coordinates":[-118.29911,33.83128],"type":"Point"},"properties":{"kind":"stop","name":"Normandie Ave & Carson Street","stop_id":"368"},"type":"Feature"},{"geometry":{"coordinates":[-118.2872,33.86957],"type":"Point"},"properties":{"kind":"stop","name":"Harbor Gateway Transit Center","stop_id":"369"},"type":"Feature"},{"geometry":{"coordinates":[-118.31338,33.91633],"type":"Point"},"properties":{"kind":"stop","name":"El Segundo Bl & Wilton Pl","stop_id":"37"},"type":"Feature"},{"geometry":{"coordinates":[-118.24374,33.88861],"type":"Point"},"properties":{"kind":"stop","name":"Alondra Bl & Northwood Ave","stop_id":"370"},"type":"Feature"},{"geometry":{"coordinates":[-118.29205,33.9288],"type":"Point"},"properties":{"kind":"stop","name":"Vermont Ave Green Line Station","stop_id":"371"},"type":"Feature"},{"geometry":{"coordinates":[-118.30922,33.93038],"type":"Point"},"properties":{"kind":"stop","name":"Western Ave & Imperial Hwy","stop_id":"372"},"type":"Feature"},{"geometry":{"coordinates":[-118.30929,33.9013],"type":"Point"},"properties":{"kind":"stop","name":"Western Ave & Rosecrans Ave","stop_id":"373"},"type":"Feature"},{"geometry":{"coordinates":[-118.3092,33.83112],"type":"Point"},"properties":{"kind":"stop","name":"Western Ave & Carson Street","stop_id":"374"},"type":"Feature"},{"geometry":{"coordinates":[-118.35731,33.86808],"type":"Point"},"properties":{"kind":"stop","name":"Redondo Beach Transit Center","stop_id":"376"},"type":"Feature"},{"geometry":{"coordinates":[-118.32565,33.88306],"type":"Point"},"properties":{"kind":"stop","name":"Redondo Beach & Crenshaw Blvd","stop_id":"377"},"type":"Feature"},{"geometry":{"coordinates":[-118.30874,33.88852],"type":"Point"},"properties":{"kind":"stop","name":"Redondo Beach & Western Ave","stop_id":"378"},"type":"Feature"},{"geometry":{"coordinates":[-118.29137,33.88152],"type":"Point"},"properties":{"kind":"stop","name":"Gardena Blvd & Vermont ave","stop_id":"379"},"type":"Feature"},{"geometry":{"coordinates":[-118.31744,33.91634],"type":"Point"},"properties":{"kind":"stop","name":"El Segundo Bl & Van Ness Ave","stop_id":"38"},"type":"Feature"},{"geometry":{"coordinates":[-118.2648,33.88616],"type":"Point"},"properties":{"kind":"stop","name":"Alondra Blvd & Avalon Blvd","stop_id":"380"},"type":"Feature"},{"geometry":{"coordinates":[-118.22326,33.89811],"type":"Point"},"properties":{"kind":"stop","name":"MLK Transit Center","stop_id":"381"},"type":"Feature"},{"geometry":{"coordinates":[-118.35211,33.91635],"type":"Point"},"properties":{"kind":"stop","name":"El Segundo Blvd & Hawthorne Blvd","stop_id":"388"},"type":"Feature"},{"geometry":{"coordinates":[-118.3086,33.91637],"type":"Point"},"properties":{"kind":"stop","name":"El Segundo Blvd & Western Ave","stop_id":"389"},"type":"Feature"},{"geometry":{"coordinates":[-118.22601,33.8923],"type":"Point"},"properties":{"kind":"stop","name":"Myrrh St & Acacia Ave","stop_id":"39"},"type":"Feature"},{"geometry":{"coordinates":[-118.29134,33.91654],"type":"Point"},"properties":{"kind":"stop","name":"El Segundo Blvd & Vermont Ave","stop_id":"390"},"type":"Feature"},{"geometry":{"coordinates":[-118.26593,33.91654],"type":"Point"},"properties":{"kind":"stop","name":"El Segundo Blvd & Avalon Blvd","stop_id":"391"},"type":"Feature"},{"geometry":{"coordinates":[-118.23829,33.92861],"type":"Point"},"properties":{"kind":"stop","name":"Willowbrook / Rosa Park Station","stop_id":"392"},"type":"Feature"},{"geometry":{"coordinates":[-118.29717,33.86638],"type":"Point"},"properties":{"kind":"stop","name":"Gardena High School","stop_id":"393"},"type":"Feature"},{"geometry":{"coordinates":[-118.31384,33.88713],"type":"Point"},"properties":{"kind":"stop","name":"Redondo Beach & Gramercy","stop_id":"397"},"type":"Feature"},{"geometry":{"coordinates":[-118.29713,33.78994],"type":"Point"},"properties":{"kind":"stop","name":"PCH & Normandie","stop_id":"399"},"type":"Feature"},{"geometry":{"coordinates":[-118.30932,33.89295],"type":"Point"},"properties":{"kind":"stop","name":"Western Ave & 153rd St","stop_id":"4"},"type":"Feature"},{"geometry":{"coordinates":[-118.32011,33.91633],"type":"Point"},"properties":{"kind":"stop","name":"El Segundo Bl & Purche Ave","stop_id":"40"},"type":"Feature"},{"geometry":{"coordinates":[-118.29745,33.78872],"type":"Point"},"properties":{"kind":"stop","name":"Kaiser Hospital","stop_id":"402"},"type":"Feature"},{"geometry":{"coordinates":[-118.32272,33.91634],"type":"Point"},"properties":{"kind":"stop","name":"El Segundo Bl & Wilkie Ave","stop_id":"41"},"type":"Feature"},{"geometry":{"coordinates":[-118.24085,33.88862],"type":"Point"},"properties":{"kind":"stop","name":"Alondra Bl & Dwight Ave","stop_id":"415"},"type":"Feature"},{"geometry":{"coordinates":[-118.23725,33.88874],"type":"Point"},"properties":{"kind":"stop","name":"Wilmington Ave & Alondra Bl","stop_id":"416"},"type":"Feature"},{"geometry":{"coordinates":[-118.23754,33.89293],"type":"Point"},"properties":{"kind":"stop","name":"Wilmington Ave & Laurel St","stop_id":"417"},"type":"Feature"},{"geometry":{"coordinates":[-118.29153,33.90165],"type":"Point"},"properties":{"kind":"stop","name":"Vermont Ave & Rosecrans Ave","stop_id":"418"},"type":"Feature"},{"geometry":{"coordinates":[-118.29154,33.89679],"type":"Point"},"properties":{"kind":"stop","name":"Vermont Ave & 149th St","stop_id":"419"},"type":"Feature"},{"geometry":{"coordinates":[-118.32614,33.91634],"type":"Point"},"properties":{"kind":"stop","name":"El Segundo Bl & Crenshaw Bl","stop_id":"42"},"type":"Feature"},{"geometry":{"coordinates":[-118.29162,33.89284],"type":"Point"},"properties":{"kind":"stop","name":"Vermont Ave & Redondo Beach Bl","stop_id":"420"},"type":"Feature"},{"geometry":{"coordinates":[-118.29145,33.88871],"type":"Point"},"properties":{"kind":"stop","name":"Vermont Ave & 157th St","stop_id":"421"},"type":"Feature"},{"geometry":{"coordinates":[-118.23771,33.89553],"type":"Point"},"properties":{"kind":"stop","name":"Wilmington Ave & Compton Bl","stop_id":"422"},"type":"Feature"},{"geometry":{"coordinates":[-118.29134,33.885],"type":"Point"},"properties":{"kind":"stop","name":"Vermont Ave & Alondra Bl","stop_id":"423"},"type":"Feature"},{"geometry":{"coordinates":[-118.29359,33.88145],"type":"Point"},"properties":{"kind":"stop","name":"Gardena Bl & Berendo Ave","stop_id":"424"},"type":"Feature"},{"geometry":{"coordinates":[-118.29564,33.88139],"type":"Point"},"properties":{"kind":"stop","name":"Gardena Bl & Budlong Ave","stop_id":"425"},"type":"Feature"},{"geometry":{"coordinates":[-118.29931,33.88129],"type":"Point"},"properties":{"kind":"stop","name":"Gardena Bl & Normandie Ave","stop_id":"426"},"type":"Feature"},{"geometry":{"coordinates":[-118.30093,33.88009],"type":"Point"},"properties":{"kind":"stop","name":"166th St & Brighton Ave","stop_id":"427"},"type":"Feature"},{"geometry":{"coordinates":[-118.30496,33.88006],"type":"Point"},"properties":{"kind":"stop","name":"166th St & Denker Ave","stop_id":"428"},"type":"Feature"},{"geometry":{"coordinates":[-118.30876,33.88005],"type":"Point"},"properties":{"kind":"stop","name":"166th St & Western Ave","stop_id":"429"},"type":"Feature"},{"geometry":{"coordinates":[-118.32927,33.91634],"type":"Point"},"properties":{"kind":"stop","name":"El Segundo Bl & Chadron Ave","stop_id":"43"},"type":"Feature"},{"geometry":{"coordinates":[-118.30931,33.8817],"type":"Point"},"properties":{"kind":"stop","name":"Western Ave & Gardena Bl","stop_id":"430"},"type":"Feature"},{"geometry":{"coordinates":[-118.30932,33.88351],"type":"Point"},"properties":{"kind":"stop","name":"Western Ave & 162nd St","stop_id":"431"},"type":"Feature"},{"geometry":{"coordinates":[-118.33211,33.91634],"type":"Point"},"properties":{"kind":"stop","name":"El Segundo Bl & Cerise Ave","stop_id":"44"},"type":"Feature"},{"geometry":{"coordinates":[-118.33543,33.91633],"type":"Point"},"properties":{"kind":"stop","name":"El Segundo Bl & Yukon Ave","stop_id":"45"},"type":"Feature"},{"geometry":{"coordinates":[-118.30902,33.86546],"type":"Point"},"properties":{"kind":"stop","name":"Western Ave & 182nd St","stop_id":"459"},"type":"Feature"},{"geometry":{"coordinates":[-118.3393,33.91632],"type":"Point"},"properties":{"kind":"stop","name":"El Segundo Bl & Doty Ave","stop_id":"46"},"type":"Feature"},{"geometry":{"coordinates":[-118.30902,33.86228],"type":"Point"},"properties":{"kind":"stop","name":"Western Ave & 186th St","stop_id":"460"},"type":"Feature"},{"geometry":{"coordinates":[-118.30903,33.85876],"type":"Point"},"properties":{"kind":"stop","name":"Western Ave & 190th St","stop_id":"461"},"type":"Feature"},{"geometry":{"coordinates":[-118.30921,33.85399],"type":"Point"},"properties":{"kind":"stop","name":"Western Ave & 195th St","stop_id":"462"},"type":"Feature"},{"geometry":{"coordinates":[-118.30917,33.84985],"type":"Point"},"properties":{"kind":"stop","name":"Western Ave & Francisco St","stop_id":"463"},"type":"Feature"},{"geometry":{"coordinates":[-118.30915,33.84669],"type":"Point"},"properties":{"kind":"stop","name":"Western Ave & Del Amo Bl","stop_id":"464"},"type":"Feature"},{"geometry":{"coordinates":[-118.30914,33.84461],"type":"Point"},"properties":{"kind":"stop","name":"Western Ave & 205th St","stop_id":"465"},"type":"Feature"},{"geometry":{"coordinates":[-118.30912,33.84201],"type":"Point"},"properties":{"kind":"stop","name":"Western Ave & 208th St","stop_id":"466"},"type":"Feature"},{"geometry":{"coordinates":[-118.30909,33.8389],"type":"Point"},"properties":{"kind":"stop","name":"Western Ave & Torrance Bl","stop_id":"467"},"type":"Feature"},{"geometry":{"coordinates":[-118.30898,33.83517],"type":"Point"},"properties":{"kind":"stop","name":"Western Ave & 213th St","stop_id":"468"},"type":"Feature"},{"geometry":{"coordinates":[-118.34348,33.91631],"type":"Point"},"properties":{"kind":"stop","name":"El Segundo Bl & Prarie Ave","stop_id":"47"},"type":"Feature"},{"geometry":{"coordinates":[-118.2877,33.86904],"type":"Point"},"properties":{"kind":"stop","name":"Harbor Gateway Transit Depart","stop_id":"471"},"type":"Feature"},{"geometry":{"coordinates":[-118.34398,33.95246],"type":"Point"},"properties":{"kind":"stop","name":"PRAIRIE AND ARBOR VITAE","stop_id":"472"},"type":"Feature"},{"geometry":{"coordinates":[-118.34711,33.91631],"type":"Point"},"properties":{"kind":"stop","name":"El Segundo Bl & Jefferson Ave","stop_id":"48"},"type":"Feature"},{"geometry":{"coordinates":[-118.29713,33.78993],"type":"Point"},"properties":{"kind":"stop","name":"Pacific Coast Hwy & Normandie Ave","stop_id":"485"},"type":"Feature"},{"geometry":{"coordinates":[-118.24611,33.91972],"type":"Point"},"properties":{"kind":"stop","name":"Compton Ave & 124th St","stop_id":"488"},"type":"Feature"},{"geometry":{"coordinates":[-118.36697,33.91653],"type":"Point"},"properties":{"kind":"stop","name":"El Segundo Bl & Oceangate Ave","stop_id":"489"},"type":"Feature"},{"geometry":{"coordinates":[-118.34973,33.9163],"type":"Point"},"properties":{"kind":"stop","name":"El Segundo Bl & Washington Ave","stop_id":"49"},"type":"Feature"},{"geometry":{"coordinates":[-118.29146,33.92352],"type":"Point"},"properties":{"kind":"stop","name":"Vermont Ave & 120th St","stop_id":"490"},"type":"Feature"},{"geometry":{"coordinates":[-118.28673,33.90184],"type":"Point"},"properties":{"kind":"stop","name":"Rosecrans Station","stop_id":"498"},"type":"Feature"},{"geometry":{"coordinates":[-118.28673,33.90197],"type":"Point"},"properties":{"kind":"stop","name":"Rosecrans Station","stop_id":"499"},"type":"Feature"},{"geometry":{"coordinates":[-118.31364,33.89458],"type":"Point"},"properties":{"kind":"stop","name":"Marine Ave & Gramercy Pl","stop_id":"5"},"type":"Feature"},{"geometry":{"coordinates":[-118.35698,33.9163],"type":"Point"},"properties":{"kind":"stop","name":"El Segundo Bl & Ramona Ave","stop_id":"50"},"type":"Feature"},{"geometry":{"coordinates":[-118.24577,33.92396],"type":"Point"},"properties":{"kind":"stop","name":"120th St & S Healthy Way","stop_id":"500"},"type":"Feature"},{"geometry":{"coordinates":[-118.36085,33.91629],"type":"Point"},"properties":{"kind":"stop","name":"El Segundo Bl & Inglewood Ave","stop_id":"51"},"type":"Feature"},{"geometry":{"coordinates":[-118.36727,33.91628],"type":"Point"},"properties":{"kind":"stop","name":"El Segundo Bl & Oceangate Ave","stop_id":"52"},"type":"Feature"},{"geometry":{"coordinates":[-118.33986,33.91655],"type":"Point"},"properties":{"kind":"stop","name":"El Segundo & Doty WB","stop_id":"529"},"type":"Feature"},{"geometry":{"coordinates":[-118.37461,33.91621],"type":"Point"},"properties":{"kind":"stop","name":"El Segundo Bl & Isis Ave EB","stop_id":"53"},"type":"Feature"},{"geometry":{"coordinates":[-118.29122,33.88185],"type":"Point"},"properties":{"kind":"stop","name":"Vermont and Gardena Blvd","stop_id":"530"},"type":"Feature"},{"geometry":{"coordinates":[-118.35245,33.93365],"type":"Point"},"properties":{"kind":"stop","name":"Hawthorne/Lennox NB","stop_id":"532"},"type":"Feature"},{"geometry":{"coordinates":[-118.35276,33.9336],"type":"Point"},"properties":{"kind":"stop","name":"Hawthorne/Lennox SB","stop_id":"533"},"type":"Feature"},{"geometry":{"coordinates":[-118.30878,33.88876],"type":"Point"},"properties":{"kind":"stop","name":"Redondo Beach & Western WB","stop_id":"534"},"type":"Feature"},{"geometry":{"coordinates":[-118.37811,33.91621],"type":"Point"},"properties":{"kind":"stop","name":"El Segundo Bl & Aviation Bl EB","stop_id":"54"},"type":"Feature"},{"geometry":{"coordinates":[-118.22658,33.89585],"type":"Point"},"properties":{"kind":"stop","name":"Compton Bl & Acacia Ave","stop_id":"542"},"type":"Feature"},{"geometry":{"coordinates":[-118.22587,33.89206],"type":"Point"},"properties":{"kind":"stop","name":"Myrrh St & Acacia Ave","stop_id":"543"},"type":"Feature"},{"geometry":{"coordinates":[-118.30906,33.8695],"type":"Point"},"properties":{"kind":"stop","name":"Western Ave & 178th St","stop_id":"545"},"type":"Feature"},{"geometry":{"coordinates":[-118.37814,33.9512],"type":"Point"},"properties":{"kind":"stop","name":"LAX Transit Center","stop_id":"548"},"type":"Feature"},{"geometry":{"coordinates":[-118.37825,33.93141],"type":"Point"},"properties":{"kind":"stop","name":"Aviation Blvd and Imperial Hwy","stop_id":"549"},"type":"Feature"},{"geometry":{"coordinates":[-118.29873,33.86596],"type":"Point"},"properties":{"kind":"stop","name":"182nd St & Normandie Ave","stop_id":"55"},"type":"Feature"},{"geometry":{"coordinates":[-118.37853,33.93057],"type":"Point"},"properties":{"kind":"stop","name":"Aviation Blvd and Imperial Hwy","stop_id":"550"},"type":"Feature"},{"geometry":{"coordinates":[-118.30749,33.8838],"type":"Point"},"properties":{"kind":"stop","name":"162nd St & Harvard Pl","stop_id":"552"},"type":"Feature"},{"geometry":{"coordinates":[-118.31787,33.91207],"type":"Point"},"properties":{"kind":"stop","name":"Van Ness Ave & 132nd St","stop_id":"553"},"type":"Feature"},{"geometry":{"coordinates":[-118.41086,33.88719],"type":"Point"},"properties":{"kind":"stop","name":"Highland Ave & 14th Pl","stop_id":"554"},"type":"Feature"},{"geometry":{"coordinates":[-118.36993,33.89452],"type":"Point"},"properties":{"kind":"stop","name":"Redondo Beach K Line Station","stop_id":"556"},"type":"Feature"},{"geometry":{"coordinates":[-118.28187,33.92869],"type":"Point"},"properties":{"kind":"stop","name":"Harbor Fwy C & J Line Station","stop_id":"557"},"type":"Feature"},{"geometry":{"coordinates":[-118.29205,33.9288],"type":"Point"},"properties":{"kind":"stop","name":"Vermont C Line Station","stop_id":"558"},"type":"Feature"},{"geometry":{"coordinates":[-118.31807,33.89457],"type":"Point"},"properties":{"kind":"stop","name":"Marine Ave & Van Ness Ave","stop_id":"6"},"type":"Feature"},{"geometry":{"coordinates":[-118.32195,33.89458],"type":"Point"},"properties":{"kind":"stop","name":"Marine Ave & Casmir Ave","stop_id":"7"},"type":"Feature"},{"geometry":{"coordinates":[-118.35798,33.89474],"type":"Point"},"properties":{"kind":"stop","name":"Marine Ave & Firmona Av","stop_id":"75"},"type":"Feature"},{"geometry":{"coordinates":[-118.32688,33.89457],"type":"Point"},"properties":{"kind":"stop","name":"Marine Ave & Crenshaw Bl","stop_id":"8"},"type":"Feature"},{"geometry":{"coordinates":[-118.22835,33.89585],"type":"Point"},"properties":{"kind":"stop","name":"Compton Bl & Orleander Ave","stop_id":"81"},"type":"Feature"},{"geometry":{"coordinates":[-118.23196,33.89583],"type":"Point"},"properties":{"kind":"stop","name":"Compton Bl & Aranbe Ave","stop_id":"82"},"type":"Feature"},{"geometry":{"coordinates":[-118.35215,33.89474],"type":"Point"},"properties":{"kind":"stop","name":"Marine Ave & Hawthorne Bl","stop_id":"83"},"type":"Feature"},{"geometry":{"coordinates":[-118.23392,33.89582],"type":"Point"},"properties":{"kind":"stop","name":"Compton Bl & Matthisen Ave","stop_id":"84"},"type":"Feature"},{"geometry":{"coordinates":[-118.23743,33.8956],"type":"Point"},"properties":{"kind":"stop","name":"Wilmington Ave & Compton Bl","stop_id":"85"},"type":"Feature"},{"geometry":{"coordinates":[-118.23723,33.89266],"type":"Point"},"properties":{"kind":"stop","name":"Wilmington Ave & Laurel St","stop_id":"86"},"type":"Feature"},{"geometry":{"coordinates":[-118.23696,33.88895],"type":"Point"},"properties":{"kind":"stop","name":"Wilmington Ave & Alondra Bl","stop_id":"87"},"type":"Feature"},{"geometry":{"coordinates":[-118.24128,33.8884],"type":"Point"},"properties":{"kind":"stop","name":"Alondra Bl & Dwight Ave","stop_id":"88"},"type":"Feature"},{"geometry":{"coordinates":[-118.24383,33.88837],"type":"Point"},"properties":{"kind":"stop","name":"Alondra Bl & Northwood Ave","stop_id":"89"},"type":"Feature"},{"geometry":{"coordinates":[-118.33054,33.89458],"type":"Point"},"properties":{"kind":"stop","name":"Marine Ave & Lemoli Ave","stop_id":"9"},"type":"Feature"},{"geometry":{"coordinates":[-118.25035,33.88818],"type":"Point"},"properties":{"kind":"stop","name":"Alondra Bl & Central Ave","stop_id":"90"},"type":"Feature"},{"geometry":{"coordinates":[-118.25428,33.88652],"type":"Point"},"properties":{"kind":"stop","name":"Alondra Bl & Aprilla Ave","stop_id":"91"},"type":"Feature"},{"geometry":{"coordinates":[-118.25727,33.88616],"type":"Point"},"properties":{"kind":"stop","name":"Alondra Bl & Clymar Ave","stop_id":"92"},"type":"Feature"},{"geometry":{"coordinates":[-118.34875,33.89475],"type":"Point"},"properties":{"kind":"stop","name":"Marine Ave & Freeman Ave","stop_id":"94"},"type":"Feature"},{"geometry":{"coordinates":[-118.26165,33.88603],"type":"Point"},"properties":{"kind":"stop","name":"Alondra Bl & Haskins Ln","stop_id":"95"},"type":"Feature"},{"geometry":{"coordinates":[-118.26566,33.8859],"type":"Point"},"properties":{"kind":"stop","name":"Alondra Bl & Avalon Bl","stop_id":"96"},"type":"Feature"},{"geometry":{"coordinates":[-118.27105,33.88572],"type":"Point"},"properties":{"kind":"stop","name":"Alondra Bl & Maple Ave","stop_id":"97"},"type":"Feature"},{"geometry":{"coordinates":[-118.2758,33.88546],"type":"Point"},"properties":{"kind":"stop","name":"Main St & Alondra Bl","stop_id":"98"},"type":"Feature"},{"geometry":{"coordinates":[-118.27795,33.88185],"type":"Point"},"properties":{"kind":"stop","name":"Gardena Bl & Broadway","stop_id":"99"},"type":"Feature"}],"type":"FeatureCollection"}
