{"features":[{"geometry":{"coordinates":[[-77.79773,35.93765],[-77.79893,35.93802],[-77.79804,35.9402],[-77.79609,35.93965],[-77.79514,35.94225],[-77.79428,35.94216],[-77.79048,35.93883],[-77.78932,35.93948],[-77.78844,35.94026],[-77.77888,35.93219],[-77.7746,35.93215],[-77.77456,35.93016],[-77.77119,35.93018],[-77.7712,35.93219],[-77.7746,35.93215],[-77.77561,35.93469],[-77.77557,35.93787],[-77.77102,35.93784],[-77.77034,35.93761],[-77.76965,35.9381],[-77.76897,35.93763],[-77.76877,35.93725],[-77.76875,35.934],[-77.76133,35.93404],[-77.76144,35.94237],[-77.76467,35.94559],[-77.76483,35.94596],[-77.7713,35.94618],[-77.77291,35.94576],[-77.77552,35.94461],[-77.7788,35.94353],[-77.78258,35.94248],[-77.78599,35.94183],[-77.79467,35.94424],[-77.79727,35.93827],[-77.79871,35.9386],[-77.79938,35.93702],[-77.79856,35.93649],[-77.79822,35.93675],[-77.79773,35.93765]],"type":"LineString"},"properties":{"color":"#0070FF","color_name":"blue","kind":"route","label":"1","long":"Meadowbrook","route_id":"4685","text_color":"#FFFFFF","type_label":"Bus"},"type":"Feature"},{"geometry":{"coordinates":[[-77.79773,35.93765],[-77.79893,35.93802],[-77.79804,35.9402],[-77.7942,35.93903],[-77.79609,35.93475],[-77.79596,35.93199],[-77.79232,35.93211],[-77.79215,35.92845],[-77.79284,35.92286],[-77.78833,35.92248],[-77.78811,35.92805],[-77.79035,35.93051],[-77.79059,35.93126],[-77.78527,35.93136],[-77.78159,35.92829],[-77.77917,35.92814],[-77.77557,35.92817],[-77.7756,35.93015],[-77.77266,35.93016],[-77.77269,35.93129],[-77.77459,35.93128],[-77.77456,35.93016],[-77.7756,35.93015],[-77.77558,35.92915],[-77.78085,35.9292],[-77.79436,35.94057],[-77.796,35.94106],[-77.79727,35.93827],[-77.79871,35.93859],[-77.79933,35.93697],[-77.79849,35.93651],[-77.79773,35.93765]],"type":"LineString"},"properties":{"color":"#38A800","color_name":"green","kind":"route","label":"2","long":"Oakwood","route_id":"4686","text_color":"#FFFFFF","type_label":"Bus"},"type":"Feature"},{"geometry":{"coordinates":[[-77.79773,35.93765],[-77.79893,35.93802],[-77.7987,35.93859],[-77.80024,35.93902],[-77.80132,35.93638],[-77.80146,35.93524],[-77.80495,35.92672],[-77.80366,35.92669],[-77.80713,35.91832],[-77.81123,35.91945],[-77.81136,35.91814],[-77.81264,35.9176],[-77.81335,35.91698],[-77.81344,35.91656],[-77.82598,35.91878],[-77.82453,35.92124],[-77.8237,35.92219],[-77.82236,35.92313],[-77.81986,35.92425],[-77.81881,35.92495],[-77.81457,35.92975],[-77.81361,35.93053],[-77.81699,35.93348],[-77.81514,35.93489],[-77.81177,35.93196],[-77.80863,35.93461],[-77.80734,35.93512],[-77.80472,35.93555],[-77.80469,35.93694],[-77.80387,35.93812],[-77.80249,35.94145],[-77.80104,35.94103],[-77.79999,35.94355],[-77.79851,35.94316],[-77.80093,35.93734],[-77.79908,35.93686],[-77.79856,35.93649],[-77.7983,35.93662],[-77.79773,35.93765]],"type":"LineString"},"properties":{"color":"#E64C00","color_name":"orange","kind":"route","label":"3","long":"South Rocky Mount","route_id":"4687","text_color":"#FFFFFF","type_label":"Bus"},"type":"Feature"},{"geometry":{"coordinates":[[-77.79773,35.93765],[-77.79893,35.93802],[-77.79804,35.9402],[-77.79609,35.93965],[-77.79514,35.94225],[-77.79413,35.9421],[-77.7927,35.94083],[-77.79245,35.94141],[-77.79262,35.94202],[-77.79253,35.94243],[-77.79118,35.94553],[-77.78768,35.94459],[-77.78695,35.9463],[-77.78351,35.94535],[-77.78485,35.94206],[-77.78258,35.94248],[-77.7788,35.94353],[-77.77552,35.94461],[-77.77262,35.94586],[-77.77028,35.94624],[-77.77068,35.94971],[-77.77566,35.94934],[-77.77589,35.9495],[-77.77604,35.95091],[-77.77057,35.95132],[-77.76985,35.95123],[-77.76998,35.95216],[-77.77188,35.95652],[-77.77254,35.95764],[-77.77342,35.95822],[-77.77653,35.95497],[-77.78325,35.95221],[-77.78483,35.94837],[-77.78944,35.94963],[-77.79204,35.9435],[-77.79467,35.94424],[-77.79727,35.93827],[-77.79871,35.9386],[-77.79938,35.93702],[-77.79856,35.93649],[-77.79822,35.93675],[-77.79773,35.93765]],"type":"LineString"},"properties":{"color":"#E64C00","color_name":"orange","kind":"route","label":"4","long":"Hillsdale","route_id":"4688","text_color":"#FFFFFF","type_label":"Bus"},"type":"Feature"},{"geometry":{"coordinates":[[-77.79773,35.93765],[-77.79893,35.93802],[-77.79491,35.94772],[-77.79616,35.95026],[-77.80158,35.95728],[-77.80573,35.9623],[-77.80589,35.96314],[-77.80563,35.96387],[-77.80208,35.96845],[-77.80207,35.97243],[-77.80221,35.97326],[-77.80285,35.97462],[-77.80489,35.97673],[-77.80561,35.97634],[-77.80675,35.97697],[-77.80692,35.97651],[-77.80637,35.97565],[-77.80603,35.97553],[-77.80547,35.97568],[-77.8051,35.9753],[-77.80433,35.97575],[-77.80498,35.97607],[-77.80509,35.97633],[-77.80477,35.97661],[-77.80742,35.97921],[-77.80917,35.97816],[-77.81095,35.97638],[-77.81051,35.97556],[-77.8123,35.97371],[-77.81319,35.97322],[-77.81416,35.97317],[-77.81484,35.97335],[-77.8168,35.97487],[-77.81824,35.97564],[-77.81991,35.97565],[-77.81985,35.97438],[-77.81956,35.9733],[-77.82053,35.97199],[-77.82488,35.97427],[-77.82875,35.97679],[-77.8334,35.98171],[-77.83846,35.98462],[-77.83916,35.98303],[-77.83973,35.98237],[-77.84454,35.97878],[-77.8419,35.97758],[-77.84113,35.97631],[-77.84067,35.97596],[-77.8385,35.97518],[-77.83265,35.97238],[-77.83134,35.97199],[-77.83018,35.97198],[-77.82921,35.97239],[-77.82669,35.97542],[-77.82465,35.97414],[-77.81844,35.97082],[-77.81657,35.96947],[-77.81713,35.96891],[-77.81528,35.96768],[-77.81336,35.96883],[-77.81067,35.97],[-77.81262,35.97347],[-77.81089,35.97524],[-77.81051,35.97556],[-77.81012,35.97534],[-77.80909,35.97651],[-77.80851,35.97682],[-77.80791,35.97601],[-77.80694,35.9764],[-77.80633,35.97562],[-77.80547,35.97568],[-77.8051,35.9753],[-77.80433,35.97575],[-77.80504,35.97615],[-77.80505,35.9764],[-77.80477,35.97662],[-77.80293,35.97473],[-77.80221,35.97326],[-77.80203,35.96869],[-77.80224,35.96815],[-77.80559,35.96419],[-77.80602,35.96294],[-77.80518,35.9611],[-77.80422,35.95809],[-77.79637,35.94788],[-77.7967,35.94749],[-77.80093,35.93734],[-77.79908,35.93686],[-77.79856,35.93649],[-77.7983,35.93662],[-77.79773,35.93765]],"type":"LineString"},"properties":{"color":"#34AC00","color_name":"green","kind":"route","label":"5","long":"Golden East","route_id":"4689","text_color":"#FFFFFF","type_label":"Bus"},"type":"Feature"},{"geometry":{"coordinates":[[-77.79772,35.93765],[-77.79893,35.93804],[-77.79871,35.93859],[-77.80317,35.93984],[-77.80387,35.93812],[-77.80469,35.93694],[-77.80472,35.93555],[-77.80734,35.93512],[-77.80863,35.93461],[-77.81177,35.93196],[-77.81514,35.93489],[-77.81797,35.93273],[-77.81897,35.93223],[-77.82186,35.92817],[-77.81762,35.92619],[-77.81881,35.92495],[-77.82043,35.92398],[-77.82023,35.92371],[-77.81553,35.92158],[-77.81622,35.92075],[-77.81736,35.92022],[-77.8181,35.92027],[-77.81985,35.92117],[-77.82055,35.92027],[-77.81429,35.91744],[-77.81434,35.91669],[-77.80785,35.91658],[-77.80366,35.92669],[-77.80778,35.92672],[-77.80775,35.92878],[-77.80527,35.93478],[-77.8047,35.93504],[-77.80472,35.93555],[-77.80137,35.93582],[-77.80144,35.93479],[-77.80045,35.93444],[-77.7994,35.93693],[-77.7985,35.9365],[-77.79773,35.93765]],"type":"LineString"},"properties":{"color":"#0070FF","color_name":"blue","kind":"route","label":"6","long":"Ravenwood","route_id":"4690","text_color":"#FFFFFF","type_label":"Bus"},"type":"Feature"},{"geometry":{"coordinates":[[-77.79772,35.93765],[-77.79893,35.93802],[-77.79617,35.94463],[-77.8067,35.94758],[-77.80633,35.9485],[-77.81681,35.95141],[-77.81719,35.9505],[-77.81871,35.95097],[-77.82136,35.95466],[-77.82057,35.95506],[-77.82232,35.95711],[-77.82215,35.95882],[-77.82081,35.96064],[-77.82123,35.96103],[-77.82298,35.9589],[-77.82453,35.95853],[-77.82733,35.96145],[-77.82807,35.96185],[-77.83957,35.96309],[-77.83918,35.96588],[-77.83996,35.96599],[-77.84059,35.96584],[-77.84096,35.96542],[-77.84124,35.96324],[-77.84943,35.96365],[-77.8497,35.9675],[-77.8496,35.96943],[-77.84928,35.97117],[-77.84859,35.9732],[-77.84472,35.96995],[-77.84354,35.97121],[-77.84516,35.97252],[-77.84657,35.97287],[-77.84776,35.97251],[-77.84859,35.9732],[-77.8467,35.97636],[-77.8442,35.97898],[-77.84313,35.97982],[-77.84167,35.9792],[-77.84236,35.97782],[-77.84454,35.97878],[-77.84678,35.97641],[-77.84867,35.97326],[-77.85006,35.97454],[-77.84947,35.97571],[-77.84981,35.97665],[-77.85168,35.97807],[-77.85342,35.97902],[-77.85484,35.97933],[-77.85568,35.97896],[-77.85587,35.97845],[-77.85558,35.9765],[-77.85543,35.97612],[-77.85392,35.97634],[-77.85364,35.97489],[-77.85289,35.97417],[-77.85216,35.97407],[-77.85248,35.97558],[-77.85225,35.9757],[-77.85203,35.97406],[-77.85123,35.97408],[-77.8505,35.97447],[-77.85019,35.97444],[-77.84867,35.97326],[-77.8495,35.97071],[-77.84986,35.96831],[-77.84943,35.96365],[-77.83956,35.96309],[-77.83083,35.96213],[-77.8283,35.96177],[-77.82772,35.96153],[-77.8233,35.95683],[-77.82128,35.95437],[-77.81734,35.94837],[-77.7985,35.94316],[-77.80094,35.93735],[-77.79908,35.93686],[-77.79862,35.93649],[-77.79831,35.93663],[-77.79772,35.93765]],"type":"LineString"},"properties":{"color":"#8400A8","color_name":"purple","kind":"route","label":"7","long":"Sunset","route_id":"4691","text_color":"#FFFFFF","type_label":"Bus"},"type":"Feature"},{"geometry":{"coordinates":[[-77.89683,35.97674],[-77.89694,35.97567],[-77.89798,35.97564],[-77.89896,35.97514],[-77.89896,35.97346],[-77.89934,35.97254],[-77.89909,35.97238],[-77.89909,35.97208],[-77.8994,35.97194],[-77.89943,35.97128],[-77.89311,35.9713],[-77.89047,35.9708],[-77.88687,35.96953],[-77.88411,35.96917],[-77.87791,35.96791],[-77.87803,35.96747],[-77.87754,35.96459],[-77.87756,35.96424],[-77.87799,35.96381],[-77.87859,35.96371],[-77.88283,35.96447],[-77.88185,35.96647],[-77.87778,35.96594],[-77.87803,35.96747],[-77.87791,35.96791],[-77.87581,35.9674],[-77.867,35.96427],[-77.86376,35.96402],[-77.85836,35.96406],[-77.84943,35.96365],[-77.84916,35.96213],[-77.84846,35.95361],[-77.84804,35.95235],[-77.84768,35.94831],[-77.848,35.94703],[-77.84925,35.94526],[-77.84942,35.94411],[-77.84789,35.93824],[-77.84483,35.93849],[-77.83987,35.93853],[-77.83899,35.93835],[-77.83159,35.93539],[-77.83217,35.93405],[-77.83195,35.93252],[-77.83236,35.93246],[-77.83195,35.93252],[-77.83218,35.93337],[-77.83214,35.93421],[-77.83101,35.93659],[-77.83086,35.93817],[-77.82901,35.93805],[-77.8285,35.9377],[-77.82727,35.93503],[-77.8273,35.93455],[-77.82776,35.93381],[-77.82452,35.93285],[-77.8235,35.93547],[-77.82301,35.93622],[-77.82116,35.93773],[-77.81785,35.93979],[-77.81698,35.94009],[-77.81027,35.94096],[-77.80745,35.94078],[-77.80577,35.94056],[-77.79871,35.93859],[-77.79939,35.93698],[-77.79862,35.93649],[-77.79829,35.93665],[-77.79773,35.93765]],"type":"LineString"},"properties":{"color":"#FF00C5","color_name":"pink","kind":"route","label":"8","long":"Nash Community College","route_id":"4692","text_color":"#FFFFFF","type_label":"Bus"},"type":"Feature"},{"geometry":{"coordinates":[[-77.79773,35.93765],[-77.79893,35.93802],[-77.79364,35.95076],[-77.78944,35.94963],[-77.78608,35.95762],[-77.78296,35.9634],[-77.77897,35.97307],[-77.77875,35.97405],[-77.77885,35.97482],[-77.77927,35.97485],[-77.7851,35.97323],[-77.78859,35.97162],[-77.78942,35.9715],[-77.79174,35.97208],[-77.79539,35.97356],[-77.79782,35.97405],[-77.79847,35.97478],[-77.79917,35.97627],[-77.79976,35.9767],[-77.80257,35.97699],[-77.80483,35.97667],[-77.80765,35.97944],[-77.80772,35.97912],[-77.80912,35.9782],[-77.811,35.97632],[-77.81043,35.97547],[-77.81011,35.97533],[-77.80906,35.97652],[-77.80825,35.97692],[-77.80672,35.97704],[-77.80528,35.97619],[-77.80477,35.97662],[-77.80181,35.97686],[-77.8,35.97665],[-77.79945,35.9764],[-77.79865,35.97509],[-77.79238,35.97776],[-77.78935,35.97946],[-77.78646,35.9819],[-77.78505,35.98361],[-77.78384,35.98562],[-77.78218,35.98503],[-77.78152,35.98778],[-77.77964,35.99313],[-77.77702,35.99751],[-77.77501,36.00202],[-77.76598,36.03307],[-77.7606,36.04213],[-77.75951,36.04318],[-77.75539,36.04629],[-77.75143,36.05059],[-77.74873,36.0488],[-77.74522,36.04404],[-77.74186,36.04577],[-77.74176,36.04749],[-77.74207,36.04781],[-77.7458,36.04915],[-77.7455,36.04965],[-77.74768,36.05044],[-77.74866,36.04871],[-77.75143,36.05059],[-77.75762,36.05256],[-77.76996,36.0531],[-77.77238,36.05256],[-77.7755,36.05068],[-77.77787,36.05099],[-77.78301,36.05087],[-77.79758,36.05192],[-77.79939,36.05255],[-77.80889,36.05853],[-77.81944,36.06267]],"type":"LineString"},"properties":{"color":"#A80000","color_name":"red","kind":"route","label":"9","long":"Battleboro/Goldrock","route_id":"4693","text_color":"#FFFFFF","type_label":"Bus"},"type":"Feature"},{"geometry":{"coordinates":[[-77.79773,35.93765],[-77.79893,35.93802],[-77.79795,35.94018],[-77.7944,35.93919],[-77.79071,35.93587],[-77.79108,35.93368],[-77.7905,35.93086],[-77.78811,35.92805],[-77.78836,35.92284],[-77.78762,35.92021],[-77.78766,35.91974],[-77.78911,35.91981],[-77.78923,35.91947],[-77.78965,35.91941],[-77.78973,35.91826],[-77.78994,35.9182],[-77.78987,35.91939],[-77.78933,35.91941],[-77.78905,35.91981],[-77.78766,35.91974],[-77.78766,35.9204],[-77.78836,35.92284],[-77.7882,35.92677],[-77.78725,35.92713],[-77.78664,35.92652],[-77.78331,35.92419],[-77.77881,35.92263],[-77.77534,35.9209],[-77.76889,35.91926],[-77.76883,35.92668],[-77.77461,35.92729],[-77.77461,35.92594],[-77.77406,35.92603],[-77.77408,35.92646],[-77.77463,35.92653],[-77.77456,35.93016],[-77.77267,35.93016],[-77.77272,35.93133],[-77.77459,35.93128],[-77.77456,35.93016],[-77.7756,35.93015],[-77.77558,35.92915],[-77.78051,35.92913],[-77.78112,35.92932],[-77.79449,35.94063],[-77.796,35.94106],[-77.79727,35.93827],[-77.79871,35.93859],[-77.79933,35.93697],[-77.79849,35.93651],[-77.79773,35.93765]],"type":"LineString"},"properties":{"color":"#8400A8","color_name":"purple","kind":"route","label":"10","long":"Rocky Mount East","route_id":"4694","text_color":"#FFFFFF","type_label":"Bus"},"type":"Feature"},{"geometry":{"coordinates":[-77.80603,35.97673],"type":"Point"},"properties":{"kind":"stop","name":"Aldi's","stop_id":"834535"},"type":"Feature"},{"geometry":{"coordinates":[-77.80625,35.97547],"type":"Point"},"properties":{"kind":"stop","name":"Golden East Mall Food Court","stop_id":"834536"},"type":"Feature"},{"geometry":{"coordinates":[-77.84578,35.96346],"type":"Point"},"properties":{"kind":"stop","name":"Sunset & Jones - Eastbound","stop_id":"834542"},"type":"Feature"},{"geometry":{"coordinates":[-77.77265,35.93066],"type":"Point"},"properties":{"kind":"stop","name":"Fairview Road (Oakwood Shopping Center)","stop_id":"834548"},"type":"Feature"},{"geometry":{"coordinates":[-77.8498,35.96975],"type":"Point"},"properties":{"kind":"stop","name":"Winstead Ave. & Triangle Bank - Southbound","stop_id":"834549"},"type":"Feature"},{"geometry":{"coordinates":[-77.77403,35.92603],"type":"Point"},"properties":{"kind":"stop","name":"Fairview & Edgecombe County Social Services - Northbound","stop_id":"834550"},"type":"Feature"},{"geometry":{"coordinates":[-77.77329,35.92715],"type":"Point"},"properties":{"kind":"stop","name":"Denton St. Pool - Westbound","stop_id":"834551"},"type":"Feature"},{"geometry":{"coordinates":[-77.76875,35.92632],"type":"Point"},"properties":{"kind":"stop","name":"S Glendale Ave Near Denton St","stop_id":"834552"},"type":"Feature"},{"geometry":{"coordinates":[-77.76885,35.92338],"type":"Point"},"properties":{"kind":"stop","name":"Glendale Dr. & Rollinwood Manor - Northbound","stop_id":"834553"},"type":"Feature"},{"geometry":{"coordinates":[-77.77615,35.92118],"type":"Point"},"properties":{"kind":"stop","name":"Cokey Rd Near S Fairview Rd","stop_id":"834554"},"type":"Feature"},{"geometry":{"coordinates":[-77.78189,35.92366],"type":"Point"},"properties":{"kind":"stop","name":"Cokey Rd & Eden Ct","stop_id":"834556"},"type":"Feature"},{"geometry":{"coordinates":[-77.83934,35.96303],"type":"Point"},"properties":{"kind":"stop","name":"Sunset & Hammer Chiropractic - Eastbound","stop_id":"834557"},"type":"Feature"},{"geometry":{"coordinates":[-77.84302,35.96332],"type":"Point"},"properties":{"kind":"stop","name":"Sunset & Timberlane","stop_id":"834559"},"type":"Feature"},{"geometry":{"coordinates":[-77.7884,35.92268],"type":"Point"},"properties":{"kind":"stop","name":"Od Wilson Rd & Lancaster St","stop_id":"834562"},"type":"Feature"},{"geometry":{"coordinates":[-77.83113,35.96197],"type":"Point"},"properties":{"kind":"stop","name":"Sunset & Crescent - Eastbound","stop_id":"834563"},"type":"Feature"},{"geometry":{"coordinates":[-77.78811,35.92667],"type":"Point"},"properties":{"kind":"stop","name":"Old Wilson Rd & Rex St - Northbound","stop_id":"834564"},"type":"Feature"},{"geometry":{"coordinates":[-77.79084,35.93237],"type":"Point"},"properties":{"kind":"stop","name":"Cokey Rd & Redgate Ave","stop_id":"834568"},"type":"Feature"},{"geometry":{"coordinates":[-77.84795,35.95158],"type":"Point"},"properties":{"kind":"stop","name":"Winstead Elementary School","stop_id":"834571"},"type":"Feature"},{"geometry":{"coordinates":[-77.81832,35.95083],"type":"Point"},"properties":{"kind":"stop","name":"Thomas St. & Bp - Westbound","stop_id":"834573"},"type":"Feature"},{"geometry":{"coordinates":[-77.82731,35.93482],"type":"Point"},"properties":{"kind":"stop","name":"Harbour West Dr. (Food Lion)","stop_id":"834575"},"type":"Feature"},{"geometry":{"coordinates":[-77.82089,35.95416],"type":"Point"},"properties":{"kind":"stop","name":"Sunset Ave. & Dominick - Northbound","stop_id":"834576"},"type":"Feature"},{"geometry":{"coordinates":[-77.81843,35.9499],"type":"Point"},"properties":{"kind":"stop","name":"Sunset @ City Lake","stop_id":"834580"},"type":"Feature"},{"geometry":{"coordinates":[-77.79614,35.93408],"type":"Point"},"properties":{"kind":"stop","name":"Arlington & Ambler","stop_id":"834592"},"type":"Feature"},{"geometry":{"coordinates":[-77.79604,35.93202],"type":"Point"},"properties":{"kind":"stop","name":"Arlington & Redgate","stop_id":"834593"},"type":"Feature"},{"geometry":{"coordinates":[-77.79003,35.94856],"type":"Point"},"properties":{"kind":"stop","name":"Atlantic & Highland - Southbound","stop_id":"834595"},"type":"Feature"},{"geometry":{"coordinates":[-77.79171,35.94454],"type":"Point"},"properties":{"kind":"stop","name":"Atlantic & Ivey - Southbound","stop_id":"834596"},"type":"Feature"},{"geometry":{"coordinates":[-77.77053,35.95373],"type":"Point"},"properties":{"kind":"stop","name":"Barnes & Cherry","stop_id":"834597"},"type":"Feature"},{"geometry":{"coordinates":[-77.77157,35.95602],"type":"Point"},"properties":{"kind":"stop","name":"Barnes & Fountain","stop_id":"834598"},"type":"Feature"},{"geometry":{"coordinates":[-77.77306,35.95811],"type":"Point"},"properties":{"kind":"stop","name":"Barnes & Legget","stop_id":"834599"},"type":"Feature"},{"geometry":{"coordinates":[-77.76986,35.95193],"type":"Point"},"properties":{"kind":"stop","name":"Barnes & Virginia","stop_id":"834600"},"type":"Feature"},{"geometry":{"coordinates":[-77.8028,35.9673],"type":"Point"},"properties":{"kind":"stop","name":"Benvenue At Merita Bakery - Northbound","stop_id":"834602"},"type":"Feature"},{"geometry":{"coordinates":[-77.84135,35.97657],"type":"Point"},"properties":{"kind":"stop","name":"English Rd. & Bojangles","stop_id":"834608"},"type":"Feature"},{"geometry":{"coordinates":[-77.79248,35.92616],"type":"Point"},"properties":{"kind":"stop","name":"Branch & Mitchell","stop_id":"834609"},"type":"Feature"},{"geometry":{"coordinates":[-77.79229,35.92974],"type":"Point"},"properties":{"kind":"stop","name":"Branch & Short","stop_id":"834610"},"type":"Feature"},{"geometry":{"coordinates":[-77.81769,35.93306],"type":"Point"},"properties":{"kind":"stop","name":"Burton & Edwards - Westbound","stop_id":"834613"},"type":"Feature"},{"geometry":{"coordinates":[-77.82038,35.93043],"type":"Point"},"properties":{"kind":"stop","name":"Burton & Nashville - Southbound","stop_id":"834614"},"type":"Feature"},{"geometry":{"coordinates":[-77.81595,35.93433],"type":"Point"},"properties":{"kind":"stop","name":"Burton & Parham - Westbound","stop_id":"834615"},"type":"Feature"},{"geometry":{"coordinates":[-77.82179,35.92831],"type":"Point"},"properties":{"kind":"stop","name":"Burton & Wilkins - Southbound","stop_id":"834616"},"type":"Feature"},{"geometry":{"coordinates":[-77.81538,35.93462],"type":"Point"},"properties":{"kind":"stop","name":"Burton St & Winston Walk","stop_id":"834617"},"type":"Feature"},{"geometry":{"coordinates":[-77.7846,35.94298],"type":"Point"},"properties":{"kind":"stop","name":"Coleman & Raleigh Blvd (O.R. Pope Elementary School)","stop_id":"834621"},"type":"Feature"},{"geometry":{"coordinates":[-77.78462,35.94219],"type":"Point"},"properties":{"kind":"stop","name":"E Raleigh Blvd & Coleman Ave","stop_id":"834628"},"type":"Feature"},{"geometry":{"coordinates":[-77.78061,35.94292],"type":"Point"},"properties":{"kind":"stop","name":"Raleigh Blvd & Matthews St - Eastbound","stop_id":"834629"},"type":"Feature"},{"geometry":{"coordinates":[-77.77772,35.94378],"type":"Point"},"properties":{"kind":"stop","name":"Raleigh Blvd & Orange St - Eastbound","stop_id":"834630"},"type":"Feature"},{"geometry":{"coordinates":[-77.78819,35.94931],"type":"Point"},"properties":{"kind":"stop","name":"E. Grand & Pennsylvania - Westbound","stop_id":"834632"},"type":"Feature"},{"geometry":{"coordinates":[-77.78626,35.93833],"type":"Point"},"properties":{"kind":"stop","name":"Eastern & Daughtry","stop_id":"834633"},"type":"Feature"},{"geometry":{"coordinates":[-77.77471,35.93208],"type":"Point"},"properties":{"kind":"stop","name":"Eastern Ave. & N. Fairview Rd. - Southbound","stop_id":"834634"},"type":"Feature"},{"geometry":{"coordinates":[-77.77934,35.93243],"type":"Point"},"properties":{"kind":"stop","name":"Eastern & Holder","stop_id":"834635"},"type":"Feature"},{"geometry":{"coordinates":[-77.78296,35.93551],"type":"Point"},"properties":{"kind":"stop","name":"Eastern & Pineview","stop_id":"834636"},"type":"Feature"},{"geometry":{"coordinates":[-77.85557,35.97911],"type":"Point"},"properties":{"kind":"stop","name":"Edgecombe-Nash Mental Health","stop_id":"834640"},"type":"Feature"},{"geometry":{"coordinates":[-77.82061,35.9204],"type":"Point"},"properties":{"kind":"stop","name":"Ellen Dr. & Powell Dr. - Southbound","stop_id":"834641"},"type":"Feature"},{"geometry":{"coordinates":[-77.77498,35.94469],"type":"Point"},"properties":{"kind":"stop","name":"Ep Mart #2","stop_id":"834643"},"type":"Feature"},{"geometry":{"coordinates":[-77.81669,35.93332],"type":"Point"},"properties":{"kind":"stop","name":"Evergreen & Burton","stop_id":"834644"},"type":"Feature"},{"geometry":{"coordinates":[-77.81387,35.93089],"type":"Point"},"properties":{"kind":"stop","name":"Evergreen & W Raleigh Blvd.","stop_id":"834645"},"type":"Feature"},{"geometry":{"coordinates":[-77.79524,35.94851],"type":"Point"},"properties":{"kind":"stop","name":"Falls & Franklin - Northbound","stop_id":"834649"},"type":"Feature"},{"geometry":{"coordinates":[-77.80028,35.93913],"type":"Point"},"properties":{"kind":"stop","name":"Franklin & Hammond","stop_id":"834652"},"type":"Feature"},{"geometry":{"coordinates":[-77.80331,35.93076],"type":"Point"},"properties":{"kind":"stop","name":"Franklin & Henry","stop_id":"834653"},"type":"Feature"},{"geometry":{"coordinates":[-77.80496,35.9268],"type":"Point"},"properties":{"kind":"stop","name":"Franklin & Nashville","stop_id":"834654"},"type":"Feature"},{"geometry":{"coordinates":[-77.80403,35.92908],"type":"Point"},"properties":{"kind":"stop","name":"Franklin & Paul","stop_id":"834655"},"type":"Feature"},{"geometry":{"coordinates":[-77.80152,35.93548],"type":"Point"},"properties":{"kind":"stop","name":"Franklin & W Raleigh Blvd","stop_id":"834656"},"type":"Feature"},{"geometry":{"coordinates":[-77.84494,35.97245],"type":"Point"},"properties":{"kind":"stop","name":"Gateway Blvd. & Residence Inn / Outback - Westbound","stop_id":"834659"},"type":"Feature"},{"geometry":{"coordinates":[-77.8464,35.97295],"type":"Point"},"properties":{"kind":"stop","name":"Gateway & Holiday Inn - Southbound","stop_id":"834660"},"type":"Feature"},{"geometry":{"coordinates":[-77.81636,35.95135],"type":"Point"},"properties":{"kind":"stop","name":"Gay & Bryant","stop_id":"834661"},"type":"Feature"},{"geometry":{"coordinates":[-77.80822,35.94909],"type":"Point"},"properties":{"kind":"stop","name":"Gay & Harris","stop_id":"834662"},"type":"Feature"},{"geometry":{"coordinates":[-77.81201,35.95014],"type":"Point"},"properties":{"kind":"stop","name":"Gay & Lee","stop_id":"834663"},"type":"Feature"},{"geometry":{"coordinates":[-77.81503,35.95097],"type":"Point"},"properties":{"kind":"stop","name":"Gay & Taylor","stop_id":"834664"},"type":"Feature"},{"geometry":{"coordinates":[-77.78931,35.93946],"type":"Point"},"properties":{"kind":"stop","name":"Raleigh & Sycamore","stop_id":"834665"},"type":"Feature"},{"geometry":{"coordinates":[-77.76878,35.93439],"type":"Point"},"properties":{"kind":"stop","name":"Glendale & Rosewood","stop_id":"834666"},"type":"Feature"},{"geometry":{"coordinates":[-77.79112,35.94545],"type":"Point"},"properties":{"kind":"stop","name":"Goldleaf & Carolina","stop_id":"834668"},"type":"Feature"},{"geometry":{"coordinates":[-77.80317,35.93967],"type":"Point"},"properties":{"kind":"stop","name":"Grace & Hammond","stop_id":"834670"},"type":"Feature"},{"geometry":{"coordinates":[-77.80647,35.93174],"type":"Point"},"properties":{"kind":"stop","name":"Grace & Henry","stop_id":"834671"},"type":"Feature"},{"geometry":{"coordinates":[-77.80757,35.92908],"type":"Point"},"properties":{"kind":"stop","name":"Grace & Paul","stop_id":"834672"},"type":"Feature"},{"geometry":{"coordinates":[-77.80191,35.93946],"type":"Point"},"properties":{"kind":"stop","name":"Hammond & Pearl - Eastbound","stop_id":"834673"},"type":"Feature"},{"geometry":{"coordinates":[-77.80209,35.93958],"type":"Point"},"properties":{"kind":"stop","name":"Hammond & Pearl - Westbound","stop_id":"834674"},"type":"Feature"},{"geometry":{"coordinates":[-77.79946,35.93882],"type":"Point"},"properties":{"kind":"stop","name":"Hammond & City Hall - Westbound","stop_id":"834675"},"type":"Feature"},{"geometry":{"coordinates":[-77.79955,35.9388],"type":"Point"},"properties":{"kind":"stop","name":"Hammond & City Hall - Eastbound","stop_id":"834676"},"type":"Feature"},{"geometry":{"coordinates":[-77.77907,35.92917],"type":"Point"},"properties":{"kind":"stop","name":"Hill & Holder - Westbound","stop_id":"834677"},"type":"Feature"},{"geometry":{"coordinates":[-77.78281,35.9308],"type":"Point"},"properties":{"kind":"stop","name":"Hill & Oakwood","stop_id":"834680"},"type":"Feature"},{"geometry":{"coordinates":[-77.79014,35.93704],"type":"Point"},"properties":{"kind":"stop","name":"Hill & Parker","stop_id":"834681"},"type":"Feature"},{"geometry":{"coordinates":[-77.78364,35.94535],"type":"Point"},"properties":{"kind":"stop","name":"Holly & Coleman","stop_id":"834682"},"type":"Feature"},{"geometry":{"coordinates":[-77.77057,35.94964],"type":"Point"},"properties":{"kind":"stop","name":"Hunter & Stokes","stop_id":"834683"},"type":"Feature"},{"geometry":{"coordinates":[-77.77466,35.94948],"type":"Point"},"properties":{"kind":"stop","name":"Hunter & Whitehead - Westbound","stop_id":"834684"},"type":"Feature"},{"geometry":{"coordinates":[-77.83374,35.98195],"type":"Point"},"properties":{"kind":"stop","name":"Hunter Hill Rd. & Deerchase Dr. - Northbound","stop_id":"834687"},"type":"Feature"},{"geometry":{"coordinates":[-77.83618,35.98343],"type":"Point"},"properties":{"kind":"stop","name":"Hunter Hill R. & Devon Lane","stop_id":"834688"},"type":"Feature"},{"geometry":{"coordinates":[-77.84355,35.9712],"type":"Point"},"properties":{"kind":"stop","name":"Jones & Gateway","stop_id":"834691"},"type":"Feature"},{"geometry":{"coordinates":[-77.81698,35.91717],"type":"Point"},"properties":{"kind":"stop","name":"Kingston & Hannah","stop_id":"834692"},"type":"Feature"},{"geometry":{"coordinates":[-77.79292,35.92292],"type":"Point"},"properties":{"kind":"stop","name":"Lancaster & Branch - Southbound","stop_id":"834694"},"type":"Feature"},{"geometry":{"coordinates":[-77.78848,35.92242],"type":"Point"},"properties":{"kind":"stop","name":"Lancaster & Old Wilson","stop_id":"834695"},"type":"Feature"},{"geometry":{"coordinates":[-77.77823,35.95435],"type":"Point"},"properties":{"kind":"stop","name":"Leggett & Carver","stop_id":"834696"},"type":"Feature"},{"geometry":{"coordinates":[-77.77913,35.954],"type":"Point"},"properties":{"kind":"stop","name":"Leggett & Corbett - Westbound","stop_id":"834697"},"type":"Feature"},{"geometry":{"coordinates":[-77.78188,35.95291],"type":"Point"},"properties":{"kind":"stop","name":"Leggett & Ellison","stop_id":"834698"},"type":"Feature"},{"geometry":{"coordinates":[-77.77553,35.95603],"type":"Point"},"properties":{"kind":"stop","name":"Leggett & Robert","stop_id":"834699"},"type":"Feature"},{"geometry":{"coordinates":[-77.79002,35.93123],"type":"Point"},"properties":{"kind":"stop","name":"Long & Cokey","stop_id":"834700"},"type":"Feature"},{"geometry":{"coordinates":[-77.78418,35.93042],"type":"Point"},"properties":{"kind":"stop","name":"Long & Oakwood","stop_id":"834701"},"type":"Feature"},{"geometry":{"coordinates":[-77.78179,35.9284],"type":"Point"},"properties":{"kind":"stop","name":"Long & Planters - Eastbound","stop_id":"834702"},"type":"Feature"},{"geometry":{"coordinates":[-77.76995,35.93786],"type":"Point"},"properties":{"kind":"stop","name":"Marlee & Glendale","stop_id":"834703"},"type":"Feature"},{"geometry":{"coordinates":[-77.79495,35.93785],"type":"Point"},"properties":{"kind":"stop","name":"Marigold & Battle","stop_id":"834704"},"type":"Feature"},{"geometry":{"coordinates":[-77.87,35.96017],"type":"Point"},"properties":{"kind":"stop","name":"Mcintyre Lane - Northbound","stop_id":"834706"},"type":"Feature"},{"geometry":{"coordinates":[-77.87123,35.95848],"type":"Point"},"properties":{"kind":"stop","name":"McIntyre Lane (McIntyre Acres) - Southbound","stop_id":"834707"},"type":"Feature"},{"geometry":{"coordinates":[-77.77556,35.93576],"type":"Point"},"properties":{"kind":"stop","name":"N Fairfield Rd & Bedford Rd","stop_id":"834710"},"type":"Feature"},{"geometry":{"coordinates":[-77.80466,35.93627],"type":"Point"},"properties":{"kind":"stop","name":"Grace St. & Raleigh Blvd. - Northbound","stop_id":"834712"},"type":"Feature"},{"geometry":{"coordinates":[-77.80119,35.94103],"type":"Point"},"properties":{"kind":"stop","name":"Nash & Pearl","stop_id":"834714"},"type":"Feature"},{"geometry":{"coordinates":[-77.8495,35.97569],"type":"Point"},"properties":{"kind":"stop","name":"Nash General Hospital","stop_id":"834716"},"type":"Feature"},{"geometry":{"coordinates":[-77.85395,35.97594],"type":"Point"},"properties":{"kind":"stop","name":"Nash General Hospital Emergency Room","stop_id":"834717"},"type":"Feature"},{"geometry":{"coordinates":[-77.85294,35.97876],"type":"Point"},"properties":{"kind":"stop","name":"Nash Medical Arts Mall & Watson Eye - Westbound","stop_id":"834718"},"type":"Feature"},{"geometry":{"coordinates":[-77.80756,35.92678],"type":"Point"},"properties":{"kind":"stop","name":"Nashville & Grace","stop_id":"834720"},"type":"Feature"},{"geometry":{"coordinates":[-77.7952,35.94212],"type":"Point"},"properties":{"kind":"stop","name":"Main St. & Taboro - Northbound","stop_id":"834722"},"type":"Feature"},{"geometry":{"coordinates":[-77.78827,35.92397],"type":"Point"},"properties":{"kind":"stop","name":"Old Wilson & Aqua","stop_id":"834725"},"type":"Feature"},{"geometry":{"coordinates":[-77.78827,35.92615],"type":"Point"},"properties":{"kind":"stop","name":"Old Wilson & Rex - Southbound","stop_id":"834726"},"type":"Feature"},{"geometry":{"coordinates":[-77.7848,35.94862],"type":"Point"},"properties":{"kind":"stop","name":"Park & E. Grand","stop_id":"834727"},"type":"Feature"},{"geometry":{"coordinates":[-77.78412,35.95023],"type":"Point"},"properties":{"kind":"stop","name":"Park & Virginia","stop_id":"834728"},"type":"Feature"},{"geometry":{"coordinates":[-77.7793,35.92809],"type":"Point"},"properties":{"kind":"stop","name":"Planters & Holder","stop_id":"834735"},"type":"Feature"},{"geometry":{"coordinates":[-77.81437,35.91689],"type":"Point"},"properties":{"kind":"stop","name":"Powell & Kingston","stop_id":"834740"},"type":"Feature"},{"geometry":{"coordinates":[-77.8201,35.92352],"type":"Point"},"properties":{"kind":"stop","name":"Ravenwood Dr. & Mailboxes - Eastbound","stop_id":"834742"},"type":"Feature"},{"geometry":{"coordinates":[-77.842,35.97868],"type":"Point"},"properties":{"kind":"stop","name":"Rocky Mount Medical Park - Southbound","stop_id":"834746"},"type":"Feature"},{"geometry":{"coordinates":[-77.81134,35.91843],"type":"Point"},"properties":{"kind":"stop","name":"Rolling Meadows Apts / Baber","stop_id":"834748"},"type":"Feature"},{"geometry":{"coordinates":[-77.80658,35.91937],"type":"Point"},"properties":{"kind":"stop","name":"S. Church & Renfrow","stop_id":"834758"},"type":"Feature"},{"geometry":{"coordinates":[-77.81982,35.9177],"type":"Point"},"properties":{"kind":"stop","name":"Shady Grove Mhp / Kingston","stop_id":"834761"},"type":"Feature"},{"geometry":{"coordinates":[-77.81854,35.92052],"type":"Point"},"properties":{"kind":"stop","name":"Starling Way & Lark Way - Southbound","stop_id":"834762"},"type":"Feature"},{"geometry":{"coordinates":[-77.8158,35.92122],"type":"Point"},"properties":{"kind":"stop","name":"Starling Wa & Ravenwood Dr. - Eastbound","stop_id":"834763"},"type":"Feature"},{"geometry":{"coordinates":[-77.83018,35.96218],"type":"Point"},"properties":{"kind":"stop","name":"Sunset & Crescent - Westbound","stop_id":"834766"},"type":"Feature"},{"geometry":{"coordinates":[-77.79864,35.9431],"type":"Point"},"properties":{"kind":"stop","name":"Sunset & Franlkin","stop_id":"834768"},"type":"Feature"},{"geometry":{"coordinates":[-77.84586,35.96351],"type":"Point"},"properties":{"kind":"stop","name":"Sunset & Jones - Westbound","stop_id":"834769"},"type":"Feature"},{"geometry":{"coordinates":[-77.81388,35.94736],"type":"Point"},"properties":{"kind":"stop","name":"Sunset & Lee","stop_id":"834770"},"type":"Feature"},{"geometry":{"coordinates":[-77.80298,35.94433],"type":"Point"},"properties":{"kind":"stop","name":"Sunset & Middle","stop_id":"834771"},"type":"Feature"},{"geometry":{"coordinates":[-77.87765,35.96528],"type":"Point"},"properties":{"kind":"stop","name":"Sunset West MHP","stop_id":"834772"},"type":"Feature"},{"geometry":{"coordinates":[-77.77567,35.92939],"type":"Point"},"properties":{"kind":"stop","name":"Swift & Hill - Southbound","stop_id":"834775"},"type":"Feature"},{"geometry":{"coordinates":[-77.77471,35.9302],"type":"Point"},"properties":{"kind":"stop","name":"Tarboro & Fairview - Westbound","stop_id":"834776"},"type":"Feature"},{"geometry":{"coordinates":[-77.7741,35.93006],"type":"Point"},"properties":{"kind":"stop","name":"Tarboro St & Oakwood Shopping Center","stop_id":"834777"},"type":"Feature"},{"geometry":{"coordinates":[-77.80359,35.9468],"type":"Point"},"properties":{"kind":"stop","name":"Thomas & Howell","stop_id":"834778"},"type":"Feature"},{"geometry":{"coordinates":[-77.80658,35.94767],"type":"Point"},"properties":{"kind":"stop","name":"Thomas & Pine","stop_id":"834779"},"type":"Feature"},{"geometry":{"coordinates":[-77.78179,35.96609],"type":"Point"},"properties":{"kind":"stop","name":"Tri-Country Industries - Northbound","stop_id":"834781"},"type":"Feature"},{"geometry":{"coordinates":[-77.77532,35.95088],"type":"Point"},"properties":{"kind":"stop","name":"Virginia & Whitehead Dr. - Eastbound","stop_id":"834783"},"type":"Feature"},{"geometry":{"coordinates":[-77.81683,35.92693],"type":"Point"},"properties":{"kind":"stop","name":"W Raleigh Blvd & Cascade Ave","stop_id":"834784"},"type":"Feature"},{"geometry":{"coordinates":[-77.82504,35.92028],"type":"Point"},"properties":{"kind":"stop","name":"W Raleigh Blvd & Gregg Ct","stop_id":"834785"},"type":"Feature"},{"geometry":{"coordinates":[-77.82182,35.92334],"type":"Point"},"properties":{"kind":"stop","name":"W Raleigh Blvd & Hazelwood Dr","stop_id":"834786"},"type":"Feature"},{"geometry":{"coordinates":[-77.81508,35.92913],"type":"Point"},"properties":{"kind":"stop","name":"W Raleigh Blvd & Paul St","stop_id":"834787"},"type":"Feature"},{"geometry":{"coordinates":[-77.80727,35.9351],"type":"Point"},"properties":{"kind":"stop","name":"W Raleigh Blvd & Peter St","stop_id":"834788"},"type":"Feature"},{"geometry":{"coordinates":[-77.77041,36.01778],"type":"Point"},"properties":{"kind":"stop","name":"Wesleyan Blvd. & Wesleyan College - Northbound","stop_id":"834790"},"type":"Feature"},{"geometry":{"coordinates":[-77.81361,35.93363],"type":"Point"},"properties":{"kind":"stop","name":"Westwood & Russell","stop_id":"834791"},"type":"Feature"},{"geometry":{"coordinates":[-77.81969,35.92701],"type":"Point"},"properties":{"kind":"stop","name":"Wilkins & Curtis - Eastbound","stop_id":"834793"},"type":"Feature"},{"geometry":{"coordinates":[-77.7733,35.93781],"type":"Point"},"properties":{"kind":"stop","name":"Windsor & Salisbury","stop_id":"834794"},"type":"Feature"},{"geometry":{"coordinates":[-77.77092,36.01807],"type":"Point"},"properties":{"kind":"stop","name":"Wesleyan Blvd & Wesleyan College - Southbound","stop_id":"834797"},"type":"Feature"},{"geometry":{"coordinates":[-77.79866,35.93851],"type":"Point"},"properties":{"kind":"stop","name":"Church & Hammond","stop_id":"834800"},"type":"Feature"},{"geometry":{"coordinates":[-77.79244,35.93204],"type":"Point"},"properties":{"kind":"stop","name":"Redgate Ave. & Branch St.","stop_id":"834805"},"type":"Feature"},{"geometry":{"coordinates":[-77.77113,35.93081],"type":"Point"},"properties":{"kind":"stop","name":"Oakwood Shopping Center","stop_id":"834807"},"type":"Feature"},{"geometry":{"coordinates":[-77.76547,35.9339],"type":"Point"},"properties":{"kind":"stop","name":"Rosewood & Dreaver","stop_id":"834811"},"type":"Feature"},{"geometry":{"coordinates":[-77.76125,35.935],"type":"Point"},"properties":{"kind":"stop","name":"Courtland Ave. & Beverly Rd.","stop_id":"834812"},"type":"Feature"},{"geometry":{"coordinates":[-77.76127,35.93604],"type":"Point"},"properties":{"kind":"stop","name":"Courtland Ave. & Bedford Rd.","stop_id":"834813"},"type":"Feature"},{"geometry":{"coordinates":[-77.76131,35.93877],"type":"Point"},"properties":{"kind":"stop","name":"Courtland Ave. & Fletcher Dr.","stop_id":"834814"},"type":"Feature"},{"geometry":{"coordinates":[-77.76416,35.94516],"type":"Point"},"properties":{"kind":"stop","name":"Meadowbrook Rd. & Raleigh Blvd.","stop_id":"834816"},"type":"Feature"},{"geometry":{"coordinates":[-77.76982,35.94633],"type":"Point"},"properties":{"kind":"stop","name":"E Raleigh Blvd. & Stokes St.","stop_id":"834817"},"type":"Feature"},{"geometry":{"coordinates":[-77.77234,35.94597],"type":"Point"},"properties":{"kind":"stop","name":"E Raleigh Blvd. & Pinehurst Dr. (Weeks Armstrong Apts)","stop_id":"834818"},"type":"Feature"},{"geometry":{"coordinates":[-77.77512,35.94488],"type":"Point"},"properties":{"kind":"stop","name":"Raleigh Blvd. & E. Grand - Westbound","stop_id":"834819"},"type":"Feature"},{"geometry":{"coordinates":[-77.7905,35.9431],"type":"Point"},"properties":{"kind":"stop","name":"E. Thomas St. & Lexington St.","stop_id":"834820"},"type":"Feature"},{"geometry":{"coordinates":[-77.79409,35.94411],"type":"Point"},"properties":{"kind":"stop","name":"E. Thomas St. & N. Washington St.","stop_id":"834821"},"type":"Feature"},{"geometry":{"coordinates":[-77.79271,35.92431],"type":"Point"},"properties":{"kind":"stop","name":"Branch St. & Daughtridge St.","stop_id":"834825"},"type":"Feature"},{"geometry":{"coordinates":[-77.78913,35.92927],"type":"Point"},"properties":{"kind":"stop","name":"Cokey Rd. & Donovan Ct.","stop_id":"834826"},"type":"Feature"},{"geometry":{"coordinates":[-77.78758,35.93129],"type":"Point"},"properties":{"kind":"stop","name":"Long Ave. & Nugent St.","stop_id":"834827"},"type":"Feature"},{"geometry":{"coordinates":[-77.79329,35.93974],"type":"Point"},"properties":{"kind":"stop","name":"Hill & Arlington","stop_id":"834828"},"type":"Feature"},{"geometry":{"coordinates":[-77.79247,35.93904],"type":"Point"},"properties":{"kind":"stop","name":"Hill St. & Discovery St.","stop_id":"834829"},"type":"Feature"},{"geometry":{"coordinates":[-77.8022,35.93353],"type":"Point"},"properties":{"kind":"stop","name":"Franklin St. & Davenport St. - Southbound","stop_id":"834832"},"type":"Feature"},{"geometry":{"coordinates":[-77.80441,35.92518],"type":"Point"},"properties":{"kind":"stop","name":"Church & Anderson","stop_id":"834833"},"type":"Feature"},{"geometry":{"coordinates":[-77.8081,35.91863],"type":"Point"},"properties":{"kind":"stop","name":"Cedar St. & Franklin St.","stop_id":"834834"},"type":"Feature"},{"geometry":{"coordinates":[-77.82392,35.92179],"type":"Point"},"properties":{"kind":"stop","name":"Raleigh & Powell","stop_id":"834835"},"type":"Feature"},{"geometry":{"coordinates":[-77.81046,35.93302],"type":"Point"},"properties":{"kind":"stop","name":"Raleigh Blvd. & West Haven Blvd. - Southbound","stop_id":"834836"},"type":"Feature"},{"geometry":{"coordinates":[-77.80575,35.92183],"type":"Point"},"properties":{"kind":"stop","name":"Church & Dowdy","stop_id":"834837"},"type":"Feature"},{"geometry":{"coordinates":[-77.80666,35.91976],"type":"Point"},"properties":{"kind":"stop","name":"Church & Renfrow","stop_id":"834838"},"type":"Feature"},{"geometry":{"coordinates":[-77.7924,35.94259],"type":"Point"},"properties":{"kind":"stop","name":"Atlantic & Rose","stop_id":"834839"},"type":"Feature"},{"geometry":{"coordinates":[-77.78702,35.946],"type":"Point"},"properties":{"kind":"stop","name":"Myrtle & Holly - Northbound","stop_id":"834840"},"type":"Feature"},{"geometry":{"coordinates":[-77.78347,35.94213],"type":"Point"},"properties":{"kind":"stop","name":"Raleigh & Mercer","stop_id":"834842"},"type":"Feature"},{"geometry":{"coordinates":[-77.77221,35.95111],"type":"Point"},"properties":{"kind":"stop","name":"Virginia (Baskerville School)","stop_id":"834843"},"type":"Feature"},{"geometry":{"coordinates":[-77.79749,35.95209],"type":"Point"},"properties":{"kind":"stop","name":"Falls & Braswell St. - Northbound","stop_id":"834845"},"type":"Feature"},{"geometry":{"coordinates":[-77.79981,35.95513],"type":"Point"},"properties":{"kind":"stop","name":"Falls & W Ridge St. - Northbound","stop_id":"834846"},"type":"Feature"},{"geometry":{"coordinates":[-77.80233,35.95827],"type":"Point"},"properties":{"kind":"stop","name":"Falls & River Dr. - Northbound","stop_id":"834847"},"type":"Feature"},{"geometry":{"coordinates":[-77.80196,35.96922],"type":"Point"},"properties":{"kind":"stop","name":"Benvenue & Fred's Food Club - Northbound","stop_id":"834849"},"type":"Feature"},{"geometry":{"coordinates":[-77.80342,35.97554],"type":"Point"},"properties":{"kind":"stop","name":"Benvenue & Quality Inn - Northbound","stop_id":"834850"},"type":"Feature"},{"geometry":{"coordinates":[-77.81043,35.97688],"type":"Point"},"properties":{"kind":"stop","name":"Jeffreys & Walmart - Southbound","stop_id":"834851"},"type":"Feature"},{"geometry":{"coordinates":[-77.81232,35.97397],"type":"Point"},"properties":{"kind":"stop","name":"Jeffreys & Tj Maxx - Southbound","stop_id":"834852"},"type":"Feature"},{"geometry":{"coordinates":[-77.81981,35.97324],"type":"Point"},"properties":{"kind":"stop","name":"Jeffreys & Country Club Rd.","stop_id":"834854"},"type":"Feature"},{"geometry":{"coordinates":[-77.83973,35.98241],"type":"Point"},"properties":{"kind":"stop","name":"Winstead & Comprehensive Dental","stop_id":"834855"},"type":"Feature"},{"geometry":{"coordinates":[-77.84251,35.97778],"type":"Point"},"properties":{"kind":"stop","name":"English Rd. & Boice-Willis Clinic","stop_id":"834856"},"type":"Feature"},{"geometry":{"coordinates":[-77.83887,35.97526],"type":"Point"},"properties":{"kind":"stop","name":"Nicodemus Mile Rd. & Benvenue El. School - Southbound","stop_id":"834857"},"type":"Feature"},{"geometry":{"coordinates":[-77.81698,35.9687],"type":"Point"},"properties":{"kind":"stop","name":"Hunter Hill & Arby's - Eastbound","stop_id":"834858"},"type":"Feature"},{"geometry":{"coordinates":[-77.81313,35.96883],"type":"Point"},"properties":{"kind":"stop","name":"Wesleyan Blvd. & Golden Corral - Eastbound","stop_id":"834859"},"type":"Feature"},{"geometry":{"coordinates":[-77.81075,35.96985],"type":"Point"},"properties":{"kind":"stop","name":"N. Wesleyan Blvd. & Big Lots","stop_id":"834860"},"type":"Feature"},{"geometry":{"coordinates":[-77.81109,35.97103],"type":"Point"},"properties":{"kind":"stop","name":"Sutters Creek Blvd. & Red Lobster","stop_id":"834861"},"type":"Feature"},{"geometry":{"coordinates":[-77.81217,35.97308],"type":"Point"},"properties":{"kind":"stop","name":"Sutters Creek Blvd. & Hobby Lobby","stop_id":"834862"},"type":"Feature"},{"geometry":{"coordinates":[-77.81095,35.97501],"type":"Point"},"properties":{"kind":"stop","name":"Jeffreys & Zaxbys - Northbound","stop_id":"834863"},"type":"Feature"},{"geometry":{"coordinates":[-77.80216,35.9698],"type":"Point"},"properties":{"kind":"stop","name":"Benvenue & Fred's Food Club - Southbound","stop_id":"834864"},"type":"Feature"},{"geometry":{"coordinates":[-77.80319,35.95664],"type":"Point"},"properties":{"kind":"stop","name":"Peachtree And Elm - Southbound","stop_id":"834865"},"type":"Feature"},{"geometry":{"coordinates":[-77.80228,35.95541],"type":"Point"},"properties":{"kind":"stop","name":"Peachtree And Spring - Southbound","stop_id":"834866"},"type":"Feature"},{"geometry":{"coordinates":[-77.80163,35.95457],"type":"Point"},"properties":{"kind":"stop","name":"Peachtree And Ridge - Southbound","stop_id":"834868"},"type":"Feature"},{"geometry":{"coordinates":[-77.7966,35.94812],"type":"Point"},"properties":{"kind":"stop","name":"Peachtree & Franklin - Southbound","stop_id":"834869"},"type":"Feature"},{"geometry":{"coordinates":[-77.79811,35.94427],"type":"Point"},"properties":{"kind":"stop","name":"Franklin & Thomas 2 - Southbound","stop_id":"834870"},"type":"Feature"},{"geometry":{"coordinates":[-77.80737,35.93517],"type":"Point"},"properties":{"kind":"stop","name":"Raleigh Blvd. & Walnut St. - Westbound","stop_id":"834873"},"type":"Feature"},{"geometry":{"coordinates":[-77.81179,35.93206],"type":"Point"},"properties":{"kind":"stop","name":"Raleigh Blvd. & Westwood Dr. - Southbound","stop_id":"834874"},"type":"Feature"},{"geometry":{"coordinates":[-77.79567,35.94089],"type":"Point"},"properties":{"kind":"stop","name":"Main St. & Hill St. - Northbound","stop_id":"834876"},"type":"Feature"},{"geometry":{"coordinates":[-77.79306,35.94105],"type":"Point"},"properties":{"kind":"stop","name":"Taboro & Atlantic Ave. - Eastbound","stop_id":"834877"},"type":"Feature"},{"geometry":{"coordinates":[-77.7925,35.94119],"type":"Point"},"properties":{"kind":"stop","name":"Atlantic & Eastern Ave. - Northbound","stop_id":"834878"},"type":"Feature"},{"geometry":{"coordinates":[-77.80486,35.93622],"type":"Point"},"properties":{"kind":"stop","name":"Grace And Raleigh Blvd. Westbound","stop_id":"834880"},"type":"Feature"},{"geometry":{"coordinates":[-77.81847,35.91928],"type":"Point"},"properties":{"kind":"stop","name":"Mid-Block Powell Dr. Eastbound","stop_id":"834881"},"type":"Feature"},{"geometry":{"coordinates":[-77.81686,35.91851],"type":"Point"},"properties":{"kind":"stop","name":"Powell Dr. / Melissa Dr. Eastbound","stop_id":"834882"},"type":"Feature"},{"geometry":{"coordinates":[-77.80842,35.91651],"type":"Point"},"properties":{"kind":"stop","name":"Kingston Ave. / Church St. Northbound","stop_id":"834883"},"type":"Feature"},{"geometry":{"coordinates":[-77.80527,35.92262],"type":"Point"},"properties":{"kind":"stop","name":"Church St. / Burnett St. Northbound","stop_id":"834884"},"type":"Feature"},{"geometry":{"coordinates":[-77.80403,35.92568],"type":"Point"},"properties":{"kind":"stop","name":"Church St. / Ward St. Northbound","stop_id":"834885"},"type":"Feature"},{"geometry":{"coordinates":[-77.80492,35.93494],"type":"Point"},"properties":{"kind":"stop","name":"Grace St. At Buck Leonard Park Eastbound","stop_id":"834886"},"type":"Feature"},{"geometry":{"coordinates":[-77.80318,35.93566],"type":"Point"},"properties":{"kind":"stop","name":"Raleigh Rd. @ Boy\u2019S And Girl\u2019S Club Eastbound","stop_id":"834887"},"type":"Feature"},{"geometry":{"coordinates":[-77.79752,35.94122],"type":"Point"},"properties":{"kind":"stop","name":"Church St / Western Ave. Northbound","stop_id":"834888"},"type":"Feature"},{"geometry":{"coordinates":[-77.79659,35.94361],"type":"Point"},"properties":{"kind":"stop","name":"Church St. & Pnc Bank - Northbound","stop_id":"834889"},"type":"Feature"},{"geometry":{"coordinates":[-77.79978,35.94569],"type":"Point"},"properties":{"kind":"stop","name":"Thomas St. / Grace St. (Piggly Wiggly) Westbound","stop_id":"834890"},"type":"Feature"},{"geometry":{"coordinates":[-77.82131,35.95588],"type":"Point"},"properties":{"kind":"stop","name":"Stone Rose Dr. & Funeral Home - Northbound","stop_id":"834892"},"type":"Feature"},{"geometry":{"coordinates":[-77.84964,35.96713],"type":"Point"},"properties":{"kind":"stop","name":"Woodridge / Winstead Northbound","stop_id":"834894"},"type":"Feature"},{"geometry":{"coordinates":[-77.84858,35.97306],"type":"Point"},"properties":{"kind":"stop","name":"Winstead Ave. / Curtis Ellis","stop_id":"834895"},"type":"Feature"},{"geometry":{"coordinates":[-77.8491,35.97261],"type":"Point"},"properties":{"kind":"stop","name":"Winstead Avenue (Carolina Urgent Care)","stop_id":"834896"},"type":"Feature"},{"geometry":{"coordinates":[-77.84818,35.96353],"type":"Point"},"properties":{"kind":"stop","name":"Sunset Ave. / Winstead Ave. At Hardee's","stop_id":"834897"},"type":"Feature"},{"geometry":{"coordinates":[-77.82863,35.96173],"type":"Point"},"properties":{"kind":"stop","name":"Sunset Ave. / Forest Hill Ave. (Cvs Pharmacy) Southbound","stop_id":"834898"},"type":"Feature"},{"geometry":{"coordinates":[-77.81,35.94628],"type":"Point"},"properties":{"kind":"stop","name":"Sunset Ave. / Harris St. Eastbound","stop_id":"834899"},"type":"Feature"},{"geometry":{"coordinates":[-77.80698,35.94074],"type":"Point"},"properties":{"kind":"stop","name":"Hammond St./ Tillery S. Westbound","stop_id":"834902"},"type":"Feature"},{"geometry":{"coordinates":[-77.84203,35.93849],"type":"Point"},"properties":{"kind":"stop","name":"Bethlehem Rd. / Hycliff Rd. Eastbound","stop_id":"834905"},"type":"Feature"},{"geometry":{"coordinates":[-77.82396,35.93413],"type":"Point"},"properties":{"kind":"stop","name":"Hammond St. /Paul St. (Edwards Middle School) Northbound","stop_id":"834906"},"type":"Feature"},{"geometry":{"coordinates":[-77.76616,36.03234],"type":"Point"},"properties":{"kind":"stop","name":"Hospira Northbound","stop_id":"834908"},"type":"Feature"},{"geometry":{"coordinates":[-77.74502,36.04407],"type":"Point"},"properties":{"kind":"stop","name":"Battleboro Ave. / Daniels Ave.","stop_id":"834909"},"type":"Feature"},{"geometry":{"coordinates":[-77.7452,36.04898],"type":"Point"},"properties":{"kind":"stop","name":"Daniel St. /Gainor Ave. Westbound","stop_id":"834910"},"type":"Feature"},{"geometry":{"coordinates":[-77.75071,36.05016],"type":"Point"},"properties":{"kind":"stop","name":"Marriott St. /Battleboro Rd. Westbound","stop_id":"834911"},"type":"Feature"},{"geometry":{"coordinates":[-77.81916,36.0627],"type":"Point"},"properties":{"kind":"stop","name":"Hwy 48 & Shell Station (Goldrock Community) - Westbound","stop_id":"834912"},"type":"Feature"},{"geometry":{"coordinates":[-77.81695,36.0615],"type":"Point"},"properties":{"kind":"stop","name":"Hwy 4 & Hardees - Eastbound","stop_id":"834913"},"type":"Feature"},{"geometry":{"coordinates":[-77.81414,36.06039],"type":"Point"},"properties":{"kind":"stop","name":"Abc/4 Southbound","stop_id":"834914"},"type":"Feature"},{"geometry":{"coordinates":[-77.76521,36.03552],"type":"Point"},"properties":{"kind":"stop","name":"Hospira Southbound","stop_id":"834915"},"type":"Feature"},{"geometry":{"coordinates":[-77.78211,35.96563],"type":"Point"},"properties":{"kind":"stop","name":"Tci/Atlantic Ave. Southbound","stop_id":"834916"},"type":"Feature"},{"geometry":{"coordinates":[-77.79089,35.9352],"type":"Point"},"properties":{"kind":"stop","name":"Cokey Rd./Buena Vista Ave. Southbound","stop_id":"834921"},"type":"Feature"},{"geometry":{"coordinates":[-77.78337,35.92412],"type":"Point"},"properties":{"kind":"stop","name":"Cokey Rd. At Parrish Court Southbound","stop_id":"834922"},"type":"Feature"},{"geometry":{"coordinates":[-77.78923,35.92922],"type":"Point"},"properties":{"kind":"stop","name":"Cokey Rd. Across From Roscoe A. Batts Apartment Southbound","stop_id":"834923"},"type":"Feature"},{"geometry":{"coordinates":[-77.79112,35.93788],"type":"Point"},"properties":{"kind":"stop","name":"Hill St. @ Post Office - Northbound","stop_id":"834924"},"type":"Feature"},{"geometry":{"coordinates":[-77.83678,35.96271],"type":"Point"},"properties":{"kind":"stop","name":"Sunset Ave. At Armed Forces Recruiting Offices Eastbound","stop_id":"834925"},"type":"Feature"},{"geometry":{"coordinates":[-77.82395,35.9575],"type":"Point"},"properties":{"kind":"stop","name":"Sunset Ave. & Wesleyan Blvd. - Southbound","stop_id":"834926"},"type":"Feature"},{"geometry":{"coordinates":[-77.7962,35.93964],"type":"Point"},"properties":{"kind":"stop","name":"Marigold & Main - Eastbound","stop_id":"834927"},"type":"Feature"},{"geometry":{"coordinates":[-77.79507,35.94342],"type":"Point"},"properties":{"kind":"stop","name":"Main & PNC Bank - Southbound","stop_id":"834928"},"type":"Feature"},{"geometry":{"coordinates":[-77.796,35.94121],"type":"Point"},"properties":{"kind":"stop","name":"Main & Western Ave. - Southbound","stop_id":"834929"},"type":"Feature"},{"geometry":{"coordinates":[-77.79747,35.94138],"type":"Point"},"properties":{"kind":"stop","name":"Church & Hill (Pnc Bank) - Northbound","stop_id":"834930"},"type":"Feature"},{"geometry":{"coordinates":[-77.80852,35.97861],"type":"Point"},"properties":{"kind":"stop","name":"Jeffery's Rd. & Sprint - Southbound","stop_id":"834931"},"type":"Feature"},{"geometry":{"coordinates":[-77.81948,35.97571],"type":"Point"},"properties":{"kind":"stop","name":"Jeffery's Rd. & Old Community Hospital - Westbound","stop_id":"834932"},"type":"Feature"},{"geometry":{"coordinates":[-77.79857,35.94325],"type":"Point"},"properties":{"kind":"stop","name":"Franklin & Sunset Ave. - Southbound","stop_id":"834933"},"type":"Feature"},{"geometry":{"coordinates":[-77.7996,35.94073],"type":"Point"},"properties":{"kind":"stop","name":"Franklin St. @ Nash Health Department","stop_id":"834934"},"type":"Feature"},{"geometry":{"coordinates":[-77.82121,35.96011],"type":"Point"},"properties":{"kind":"stop","name":"Stone Rose Dr. & Kfc - Northbound","stop_id":"834935"},"type":"Feature"},{"geometry":{"coordinates":[-77.82134,35.96091],"type":"Point"},"properties":{"kind":"stop","name":"Stone Rose Dr. & Bojangles - Southbound","stop_id":"834936"},"type":"Feature"},{"geometry":{"coordinates":[-77.82525,35.95925],"type":"Point"},"properties":{"kind":"stop","name":"Sunset Ave. & Sam\u2019S Club - Northbound","stop_id":"834937"},"type":"Feature"},{"geometry":{"coordinates":[-77.83676,35.96286],"type":"Point"},"properties":{"kind":"stop","name":"Sunset Ave & Roses - Westbound","stop_id":"834938"},"type":"Feature"},{"geometry":{"coordinates":[-77.82658,35.96067],"type":"Point"},"properties":{"kind":"stop","name":"Sunset Ave. / Pinewood Ave.","stop_id":"834939"},"type":"Feature"},{"geometry":{"coordinates":[-77.83916,35.96318],"type":"Point"},"properties":{"kind":"stop","name":"Sunset Ave. / Foy Dr.Westbound","stop_id":"834940"},"type":"Feature"},{"geometry":{"coordinates":[-77.83918,35.96589],"type":"Point"},"properties":{"kind":"stop","name":"Foy Dr. & Zebulon Rd. - Westbound","stop_id":"834941"},"type":"Feature"},{"geometry":{"coordinates":[-77.84125,35.96336],"type":"Point"},"properties":{"kind":"stop","name":"Englewood Ave. / Sunset Ave. Westbound","stop_id":"834942"},"type":"Feature"},{"geometry":{"coordinates":[-77.84935,35.96375],"type":"Point"},"properties":{"kind":"stop","name":"Sunset Ave. / Winstead Ave. - Northbound","stop_id":"834943"},"type":"Feature"},{"geometry":{"coordinates":[-77.84949,35.96682],"type":"Point"},"properties":{"kind":"stop","name":"Winstead Ave. & Woodridge Ct. - Northbound","stop_id":"834944"},"type":"Feature"},{"geometry":{"coordinates":[-77.84938,35.97019],"type":"Point"},"properties":{"kind":"stop","name":"Winstead Ave / Professional Dr. (Across From Triangle Bank)","stop_id":"834945"},"type":"Feature"},{"geometry":{"coordinates":[-77.84575,35.97077],"type":"Point"},"properties":{"kind":"stop","name":"Curtis Ellis / Jones Rd. Northbound","stop_id":"834946"},"type":"Feature"},{"geometry":{"coordinates":[-77.85215,35.97558],"type":"Point"},"properties":{"kind":"stop","name":"Curtis Ellis Drive (Nash General Hospital Emergency Room) - Eastbound","stop_id":"834947"},"type":"Feature"},{"geometry":{"coordinates":[-77.80663,35.94534],"type":"Point"},"properties":{"kind":"stop","name":"Sunset Ave/Tillery St. Eastbound","stop_id":"834948"},"type":"Feature"},{"geometry":{"coordinates":[-77.83662,35.93754],"type":"Point"},"properties":{"kind":"stop","name":"Bethlehem & Weather Vane Hill (RMHS) - Westbound","stop_id":"834949"},"type":"Feature"},{"geometry":{"coordinates":[-77.8093,35.94093],"type":"Point"},"properties":{"kind":"stop","name":"Hammond St & Vyne St - Westbound","stop_id":"834950"},"type":"Feature"},{"geometry":{"coordinates":[-77.82411,35.93419],"type":"Point"},"properties":{"kind":"stop","name":"Hammond St & Paul St (Edwards Middle School) - Southbound","stop_id":"834951"},"type":"Feature"},{"geometry":{"coordinates":[-77.87196,35.95631],"type":"Point"},"properties":{"kind":"stop","name":"Halifax Rd & King James Court - Southbound","stop_id":"834952"},"type":"Feature"},{"geometry":{"coordinates":[-77.87144,35.96486],"type":"Point"},"properties":{"kind":"stop","name":"Layola Avenue (In)","stop_id":"834953"},"type":"Feature"},{"geometry":{"coordinates":[-77.87529,35.96624],"type":"Point"},"properties":{"kind":"stop","name":"Layola Ave/Pope St","stop_id":"834954"},"type":"Feature"},{"geometry":{"coordinates":[-77.87506,35.96701],"type":"Point"},"properties":{"kind":"stop","name":"Layola Avenue (Out)","stop_id":"834955"},"type":"Feature"},{"geometry":{"coordinates":[-77.89637,35.97634],"type":"Point"},"properties":{"kind":"stop","name":"Old Carriage Road (Nash Community College #1) - Northbound","stop_id":"834956"},"type":"Feature"},{"geometry":{"coordinates":[-77.89189,35.97105],"type":"Point"},"properties":{"kind":"stop","name":"Sunset Ave (Carriage Court Apartments) - Eastbound","stop_id":"834958"},"type":"Feature"},{"geometry":{"coordinates":[-77.83765,35.93775],"type":"Point"},"properties":{"kind":"stop","name":"Bethlehem Rd & Weather Vane Hill Dr - Eastbound","stop_id":"834959"},"type":"Feature"},{"geometry":{"coordinates":[-77.8327,35.93253],"type":"Point"},"properties":{"kind":"stop","name":"Arcenia Hines Drive (Bullock McLeod Apts)","stop_id":"834960"},"type":"Feature"},{"geometry":{"coordinates":[-77.82831,35.93715],"type":"Point"},"properties":{"kind":"stop","name":"Harbour West Dr. (Mcdonalds) - Southbound","stop_id":"834961"},"type":"Feature"},{"geometry":{"coordinates":[-77.79666,35.94331],"type":"Point"},"properties":{"kind":"stop","name":"Church St. (Pnc Bank) Northbound","stop_id":"834963"},"type":"Feature"},{"geometry":{"coordinates":[-77.80048,35.97682],"type":"Point"},"properties":{"kind":"stop","name":"Tiffany Blvd (Tiffany Square Apartments) - Westbound","stop_id":"834964"},"type":"Feature"},{"geometry":{"coordinates":[-77.80844,35.9786],"type":"Point"},"properties":{"kind":"stop","name":"Benvenue Rd (Sprint) - Westbound","stop_id":"834965"},"type":"Feature"},{"geometry":{"coordinates":[-77.81035,35.97687],"type":"Point"},"properties":{"kind":"stop","name":"Benvenue Rd (Walmart) - Westbound","stop_id":"834966"},"type":"Feature"},{"geometry":{"coordinates":[-77.80958,35.97604],"type":"Point"},"properties":{"kind":"stop","name":"Wesleyan Blvd (Golden East Mall #1) - Northbound","stop_id":"834967"},"type":"Feature"},{"geometry":{"coordinates":[-77.80762,35.97692],"type":"Point"},"properties":{"kind":"stop","name":"Wesleyan Blvd (Golden East Mall #2) - Eastbound","stop_id":"834968"},"type":"Feature"},{"geometry":{"coordinates":[-77.78182,35.98635],"type":"Point"},"properties":{"kind":"stop","name":"Wesleyan Blvd (Rocky Mount Inn) - Northbound","stop_id":"834969"},"type":"Feature"},{"geometry":{"coordinates":[-77.77612,35.9991],"type":"Point"},"properties":{"kind":"stop","name":"Fountain Park Drive (Nc Works Career Center) - Northbound","stop_id":"834970"},"type":"Feature"},{"geometry":{"coordinates":[-77.76891,36.02296],"type":"Point"},"properties":{"kind":"stop","name":"Wesleyan Blvd & Food Lion - Northbound","stop_id":"834971"},"type":"Feature"},{"geometry":{"coordinates":[-77.76901,36.02371],"type":"Point"},"properties":{"kind":"stop","name":"Wesleyan Blvd (Food Lion) - Southbound","stop_id":"834972"},"type":"Feature"},{"geometry":{"coordinates":[-77.79663,35.97621],"type":"Point"},"properties":{"kind":"stop","name":"Wesleyan Blvd. (Days Inn) - Southbound","stop_id":"834973"},"type":"Feature"},{"geometry":{"coordinates":[-77.79314,35.93801],"type":"Point"},"properties":{"kind":"stop","name":"Marigold St./George St. Southbound","stop_id":"834975"},"type":"Feature"},{"geometry":{"coordinates":[-77.79199,35.93692],"type":"Point"},"properties":{"kind":"stop","name":"Marigold St. (Post Office) - Southbound","stop_id":"834976"},"type":"Feature"},{"geometry":{"coordinates":[-77.78981,35.91927],"type":"Point"},"properties":{"kind":"stop","name":"Eaglecrest Circle (Woodhawk Apartments)","stop_id":"834977"},"type":"Feature"},{"geometry":{"coordinates":[-77.78774,35.93499],"type":"Point"},"properties":{"kind":"stop","name":"Hill St. / Mercer St.","stop_id":"834983"},"type":"Feature"},{"geometry":{"coordinates":[-77.79275,35.9393],"type":"Point"},"properties":{"kind":"stop","name":"Hill St @ RM Wilson Apartments","stop_id":"834985"},"type":"Feature"},{"geometry":{"coordinates":[-77.79341,35.93978],"type":"Point"},"properties":{"kind":"stop","name":"Hill St. / Arlington St.","stop_id":"834986"},"type":"Feature"},{"geometry":{"coordinates":[-77.7946,35.9407],"type":"Point"},"properties":{"kind":"stop","name":"Hill St./Washington St.","stop_id":"834987"},"type":"Feature"},{"geometry":{"coordinates":[-77.78348,35.98556],"type":"Point"},"properties":{"kind":"stop","name":"Jeffries Rd. (Hardee's)","stop_id":"834988"},"type":"Feature"},{"geometry":{"coordinates":[-77.76209,35.9431],"type":"Point"},"properties":{"kind":"stop","name":"Meadowbrook Road And Dreaver","stop_id":"834992"},"type":"Feature"},{"geometry":{"coordinates":[-77.84972,35.96533],"type":"Point"},"properties":{"kind":"stop","name":"Winstead Avenue (Rocky Mount Rehab)","stop_id":"834994"},"type":"Feature"},{"geometry":{"coordinates":[-77.79767,35.93771],"type":"Point"},"properties":{"kind":"stop","name":"Downtown Transfer Center","stop_id":"834996"},"type":"Feature"},{"geometry":{"coordinates":[-77.80463,35.97539],"type":"Point"},"properties":{"kind":"stop","name":"Golden East Mall - Ross","stop_id":"834998"},"type":"Feature"},{"geometry":{"coordinates":[-77.82123,35.95422],"type":"Point"},"properties":{"kind":"stop","name":"Sunset @ Aaron's Rental","stop_id":"834999"},"type":"Feature"},{"geometry":{"coordinates":[-77.77779,35.94391],"type":"Point"},"properties":{"kind":"stop","name":"Raleigh Blvd & Orange St - Westbound","stop_id":"836581"},"type":"Feature"},{"geometry":{"coordinates":[-77.78127,35.94291],"type":"Point"},"properties":{"kind":"stop","name":"Raleigh Blvd & Matthews St - Westbound","stop_id":"836583"},"type":"Feature"},{"geometry":{"coordinates":[-77.77647,35.99932],"type":"Point"},"properties":{"kind":"stop","name":"NC Works Career Center - Southbound","stop_id":"849475"},"type":"Feature"},{"geometry":{"coordinates":[-77.89688,35.97674],"type":"Point"},"properties":{"kind":"stop","name":"NCC - Brown Auditorium","stop_id":"849836"},"type":"Feature"},{"geometry":{"coordinates":[-77.8991,35.97236],"type":"Point"},"properties":{"kind":"stop","name":"NCC - Continuing Education Building","stop_id":"849837"},"type":"Feature"}],"type":"FeatureCollection"}
