{"features":[{"geometry":{"coordinates":[[-118.41355,33.92083],[-118.41353,33.9236],[-118.40485,33.92361],[-118.40488,33.93087],[-118.41597,33.93085],[-118.41597,33.92359],[-118.41718,33.9236],[-118.41717,33.91906],[-118.42274,33.91883],[-118.42419,33.91772],[-118.42762,33.91646],[-118.42548,33.91249],[-118.42365,33.91092],[-118.42162,33.90692],[-118.42059,33.90584],[-118.42216,33.90516],[-118.42071,33.90222],[-118.41872,33.9029],[-118.4196,33.90473],[-118.41998,33.90533],[-118.42148,33.9067],[-118.42365,33.91092],[-118.42548,33.91249],[-118.42762,33.91646],[-118.42419,33.91772],[-118.42302,33.91869],[-118.42245,33.9189],[-118.41596,33.91894],[-118.41355,33.91943],[-118.41355,33.92083]],"type":"LineString"},"properties":{"color":"#0C286D","color_name":"green","kind":"route","label":"Beach Shuttle","long":"Beach Shuttle","route_id":"BeachShuttle","text_color":"#FFFFFF","type_label":"Bus"},"type":"Feature"},{"geometry":{"coordinates":[[-118.39545,33.91939],[-118.39045,33.91937],[-118.38739,33.91976],[-118.3874,33.91626],[-118.37845,33.9163],[-118.37843,33.91646],[-118.38317,33.91644],[-118.3832,33.92709],[-118.38747,33.92693],[-118.38741,33.92362],[-118.3927,33.92361],[-118.39255,33.92292],[-118.39106,33.92158],[-118.39096,33.91951],[-118.41412,33.91945],[-118.41595,33.91907],[-118.41596,33.9236],[-118.41718,33.9236],[-118.41717,33.91895],[-118.41562,33.91897],[-118.41395,33.91943],[-118.39545,33.91939]],"type":"LineString"},"properties":{"color":"#730E11","color_name":"brown","kind":"route","label":"Lunchtime Shuttle","long":"Lunchtime Shuttle","route_id":"LunchtimeShuttle","text_color":"#FFFFFF","type_label":"Bus"},"type":"Feature"},{"geometry":{"coordinates":[-118.41348,33.92083],"type":"Point"},"properties":{"kind":"stop","name":"Eucalyptus Dr & E Holly Ave","stop_id":"2735352"},"type":"Feature"},{"geometry":{"coordinates":[-118.41113,33.93093],"type":"Point"},"properties":{"kind":"stop","name":"Sheldon St & E Imperial Ave","stop_id":"2735358"},"type":"Feature"},{"geometry":{"coordinates":[-118.4161,33.93056],"type":"Point"},"properties":{"kind":"stop","name":"Main St & W Imperial Ave","stop_id":"2735359"},"type":"Feature"},{"geometry":{"coordinates":[-118.41708,33.92365],"type":"Point"},"properties":{"kind":"stop","name":"Richmond St & W Mariposa Ave","stop_id":"2735360"},"type":"Feature"},{"geometry":{"coordinates":[-118.40479,33.9238],"type":"Point"},"properties":{"kind":"stop","name":"Center St & E Mariposa Ave","stop_id":"2735361"},"type":"Feature"},{"geometry":{"coordinates":[-118.41939,33.91901],"type":"Point"},"properties":{"kind":"stop","name":"Virginia St & W Grand Ave","stop_id":"2735363"},"type":"Feature"},{"geometry":{"coordinates":[-118.42199,33.90464],"type":"Point"},"properties":{"kind":"stop","name":"El Porto Beach","stop_id":"2735364"},"type":"Feature"},{"geometry":{"coordinates":[-118.39544,33.91933],"type":"Point"},"properties":{"kind":"stop","name":"Grand & Sepulveda","stop_id":"2750329"},"type":"Feature"},{"geometry":{"coordinates":[-118.38926,33.91946],"type":"Point"},"properties":{"kind":"stop","name":"Grand & Continental","stop_id":"2750330"},"type":"Feature"},{"geometry":{"coordinates":[-118.38698,33.9162],"type":"Point"},"properties":{"kind":"stop","name":"Nash & El Segundo","stop_id":"2750331"},"type":"Feature"},{"geometry":{"coordinates":[-118.38082,33.91622],"type":"Point"},"properties":{"kind":"stop","name":"El Segundo & Douglas","stop_id":"2750332"},"type":"Feature"},{"geometry":{"coordinates":[-118.38305,33.92424],"type":"Point"},"properties":{"kind":"stop","name":"Douglas & Mariposa","stop_id":"2750333"},"type":"Feature"},{"geometry":{"coordinates":[-118.38798,33.92374],"type":"Point"},"properties":{"kind":"stop","name":"Nash & Mariposa","stop_id":"2750334"},"type":"Feature"},{"geometry":{"coordinates":[-118.39281,33.92328],"type":"Point"},"properties":{"kind":"stop","name":"Mariposa & Continental","stop_id":"2750335"},"type":"Feature"},{"geometry":{"coordinates":[-118.39104,33.92],"type":"Point"},"properties":{"kind":"stop","name":"Continental & Grand","stop_id":"2750336"},"type":"Feature"},{"geometry":{"coordinates":[-118.40035,33.91952],"type":"Point"},"properties":{"kind":"stop","name":"Grand & Kansas","stop_id":"2750337"},"type":"Feature"},{"geometry":{"coordinates":[-118.41337,33.91951],"type":"Point"},"properties":{"kind":"stop","name":"Grand & Eucalyptus","stop_id":"2750338"},"type":"Feature"},{"geometry":{"coordinates":[-118.41584,33.9207],"type":"Point"},"properties":{"kind":"stop","name":"Main & E. Holly","stop_id":"2750339"},"type":"Feature"},{"geometry":{"coordinates":[-118.41563,33.91917],"type":"Point"},"properties":{"kind":"stop","name":"Grand & Main","stop_id":"2750340"},"type":"Feature"},{"geometry":{"coordinates":[-118.41587,33.92212],"type":"Point"},"properties":{"kind":"stop","name":"Main & E. Pine","stop_id":"2750341"},"type":"Feature"},{"geometry":{"coordinates":[-118.41726,33.9235],"type":"Point"},"properties":{"kind":"stop","name":"E. Mariposa & Richmond","stop_id":"2750342"},"type":"Feature"},{"geometry":{"coordinates":[-118.41726,33.91921],"type":"Point"},"properties":{"kind":"stop","name":"Richmond & Grand","stop_id":"2750343"},"type":"Feature"},{"geometry":{"coordinates":[-118.41451,33.91919],"type":"Point"},"properties":{"kind":"stop","name":"Grand & Standard","stop_id":"2750344"},"type":"Feature"},{"geometry":{"coordinates":[-118.3875,33.92468],"type":"Point"},"properties":{"kind":"stop","name":"Maple & Campus El Segundo","stop_id":"2750345"},"type":"Feature"},{"geometry":{"coordinates":[-118.39652,33.91954],"type":"Point"},"properties":{"kind":"stop","name":"Grand & Sepulveda","stop_id":"2750346"},"type":"Feature"}],"type":"FeatureCollection"}
