{"features":[{"geometry":{"coordinates":[[-105.92838,40.06334],[-105.92615,40.0632],[-105.9353,40.04561],[-105.93554,40.04458],[-105.93569,40.03965],[-105.93596,40.03802],[-105.93654,40.03667],[-105.93949,40.0323],[-105.9401,40.03072],[-105.94197,40.01983],[-105.94149,40.01755],[-105.93974,40.0148],[-105.93848,40.01376],[-105.937,40.01317],[-105.93387,40.01279],[-105.9305,40.01274],[-105.92344,40.01092],[-105.92152,40.00976],[-105.91781,40.00577],[-105.91608,40.00458],[-105.91474,40.0039],[-105.91277,40.00316],[-105.90282,40.00026],[-105.89893,39.99866],[-105.89656,39.9979],[-105.87557,39.9955],[-105.86698,39.995],[-105.85199,39.99468],[-105.84676,39.99304],[-105.8338,39.99066],[-105.83254,39.99025],[-105.83122,39.98951],[-105.83029,39.98847],[-105.83,39.98761],[-105.82946,39.98373],[-105.81892,39.95285],[-105.81826,39.95103],[-105.81691,39.94877],[-105.81694,39.94856],[-105.8168,39.94862],[-105.81485,39.94594],[-105.81045,39.94295],[-105.80959,39.94247],[-105.80308,39.94016],[-105.79679,39.93697],[-105.79077,39.93179],[-105.78934,39.9296],[-105.78463,39.91848],[-105.7828,39.91548],[-105.78229,39.91373],[-105.78182,39.91044],[-105.78055,39.90693],[-105.78051,39.90521],[-105.78029,39.90421],[-105.77965,39.90283],[-105.77749,39.89971],[-105.77709,39.89858],[-105.77527,39.89745],[-105.77199,39.89602],[-105.76976,39.89446],[-105.7672,39.89357],[-105.76599,39.89256],[-105.76309,39.89085],[-105.76288,39.89049],[-105.76296,39.88976],[-105.76273,39.88883],[-105.76181,39.88756],[-105.76155,39.88643]],"type":"LineString"},"properties":{"color":"#00ACC4","color_name":"teal","kind":"route","label":"GR","long":"Granby Regional Commuter/Teal Line","route_id":"10103","text_color":"#FFFFFF","type_label":"Bus"},"type":"Feature"},{"geometry":{"coordinates":[[-105.78394,39.91738],[-105.78459,39.91857],[-105.78928,39.92962],[-105.79242,39.92895],[-105.79325,39.92857],[-105.79323,39.92828],[-105.79292,39.92831],[-105.79295,39.92858],[-105.79412,39.92896],[-105.79667,39.93048],[-105.796,39.93123],[-105.79583,39.93174],[-105.79706,39.93194],[-105.79811,39.93278],[-105.80033,39.93324],[-105.8016,39.93398],[-105.80316,39.93559],[-105.80589,39.93711],[-105.80647,39.93811],[-105.80654,39.94003],[-105.80772,39.94109],[-105.80859,39.94117],[-105.81051,39.94194],[-105.81253,39.94198],[-105.81256,39.94386],[-105.81221,39.9445],[-105.81255,39.94535],[-105.81242,39.94581],[-105.81178,39.94647],[-105.81083,39.94667],[-105.8087,39.94541],[-105.80675,39.94458],[-105.80371,39.94358],[-105.80336,39.94358],[-105.80282,39.94404],[-105.8007,39.94304],[-105.80004,39.94381],[-105.79983,39.94525],[-105.79912,39.94615],[-105.79905,39.94654],[-105.79935,39.94673],[-105.80136,39.94653],[-105.80143,39.94582],[-105.80201,39.9451],[-105.8027,39.94536],[-105.80311,39.94561],[-105.80308,39.94605],[-105.80331,39.94612],[-105.80325,39.94655],[-105.80399,39.94673],[-105.80607,39.94865],[-105.80693,39.94877],[-105.80725,39.94824],[-105.8077,39.94822],[-105.81021,39.94924],[-105.81058,39.95047],[-105.81042,39.95114],[-105.80989,39.95147],[-105.81002,39.95183],[-105.81092,39.95174],[-105.81156,39.9509],[-105.81178,39.94985],[-105.812,39.94983],[-105.81258,39.95005],[-105.81289,39.95187],[-105.81857,39.95188],[-105.81761,39.9498],[-105.81611,39.94764],[-105.81736,39.94763],[-105.81705,39.94667],[-105.81775,39.94667],[-105.81844,39.94861],[-105.82002,39.9486],[-105.82002,39.94668],[-105.81551,39.94673],[-105.81485,39.94594],[-105.81267,39.94431],[-105.81253,39.94198],[-105.81051,39.94194],[-105.80859,39.94117],[-105.80772,39.94109],[-105.80692,39.9404],[-105.80744,39.94009],[-105.80683,39.94034],[-105.80654,39.94003],[-105.80647,39.93811],[-105.80589,39.93711],[-105.80316,39.93559],[-105.8016,39.93398],[-105.80033,39.93324],[-105.79811,39.93278],[-105.79706,39.93194],[-105.79583,39.93174],[-105.796,39.93123],[-105.79667,39.93048],[-105.79358,39.92871],[-105.79323,39.92828],[-105.79297,39.92828],[-105.79225,39.9289],[-105.78991,39.92945],[-105.78932,39.92941],[-105.78494,39.91941],[-105.78512,39.91927],[-105.78491,39.91932],[-105.784,39.91749],[-105.78493,39.91749],[-105.78493,39.9172],[-105.78494,39.91749],[-105.784,39.91749],[-105.78491,39.91933],[-105.78351,39.91941],[-105.78379,39.92096],[-105.78352,39.91941],[-105.78491,39.91932],[-105.78724,39.92464],[-105.78566,39.92464],[-105.7852,39.9252],[-105.78514,39.92616],[-105.78554,39.92753],[-105.78494,39.92751],[-105.78483,39.92767],[-105.78519,39.92909],[-105.78569,39.92974],[-105.78519,39.92909],[-105.78483,39.92767],[-105.78494,39.92751],[-105.78745,39.92748],[-105.78828,39.92719],[-105.78459,39.91857],[-105.78379,39.91714],[-105.78434,39.91698],[-105.78697,39.91702],[-105.78872,39.91569],[-105.78964,39.91573],[-105.79032,39.91553],[-105.79081,39.91436],[-105.7915,39.91454],[-105.79221,39.91626],[-105.79123,39.91704],[-105.7904,39.91729],[-105.79037,39.91841],[-105.78974,39.91887],[-105.78978,39.92219],[-105.79018,39.92366],[-105.79254,39.92461],[-105.79252,39.92372],[-105.793,39.92287],[-105.79307,39.92224],[-105.79181,39.92047],[-105.79161,39.91928],[-105.79168,39.91779],[-105.7935,39.91785],[-105.79411,39.91851],[-105.79601,39.91864],[-105.79676,39.91826],[-105.79757,39.91654],[-105.79739,39.91611],[-105.79698,39.91593],[-105.79578,39.91609],[-105.79568,39.91472],[-105.79352,39.91469],[-105.79359,39.91385],[-105.79311,39.91349],[-105.79276,39.91279],[-105.79262,39.91177],[-105.79309,39.91125],[-105.79379,39.91167],[-105.79619,39.91137],[-105.79668,39.91093],[-105.79758,39.90944],[-105.79679,39.90935],[-105.79609,39.90952],[-105.79346,39.91094],[-105.79262,39.91177],[-105.79216,39.91335],[-105.79095,39.91246],[-105.79091,39.9113],[-105.79292,39.90925],[-105.79142,39.90921],[-105.79292,39.90925],[-105.79091,39.9113],[-105.79095,39.91246],[-105.79216,39.91335],[-105.79085,39.91429],[-105.79043,39.91543],[-105.78989,39.91569],[-105.78872,39.91569],[-105.78688,39.91705],[-105.78355,39.91683],[-105.78243,39.91442],[-105.78182,39.91044],[-105.78055,39.90693],[-105.78051,39.90521],[-105.78029,39.90421],[-105.77965,39.90283],[-105.77749,39.89971],[-105.77709,39.89858],[-105.77527,39.89745],[-105.77199,39.89602],[-105.76976,39.89446],[-105.7672,39.89357],[-105.76599,39.89256],[-105.76284,39.89069],[-105.76285,39.88924],[-105.76181,39.88755],[-105.76098,39.88309],[-105.7606,39.8822],[-105.75876,39.88058],[-105.75769,39.88019],[-105.75653,39.88032],[-105.75589,39.88082],[-105.75812,39.8809],[-105.75826,39.88139],[-105.75801,39.88168],[-105.7583,39.88115],[-105.75789,39.8808],[-105.7559,39.88083],[-105.7553,39.8815],[-105.75935,39.88441],[-105.7597,39.88482],[-105.7593,39.88502],[-105.75958,39.88551],[-105.7593,39.88502],[-105.7597,39.88482],[-105.75935,39.88441],[-105.7553,39.8815],[-105.75614,39.8805],[-105.75695,39.8802],[-105.7584,39.88036],[-105.76047,39.88203],[-105.76095,39.88302],[-105.7611,39.88393],[-105.76167,39.88378],[-105.76178,39.88311],[-105.76095,39.88302],[-105.76009,39.88162],[-105.75868,39.88052],[-105.75805,39.88026],[-105.75651,39.88032],[-105.75614,39.8805],[-105.7553,39.8815],[-105.75906,39.88416],[-105.75996,39.8852],[-105.7606,39.88688],[-105.76041,39.88982],[-105.76074,39.89102],[-105.76432,39.89481],[-105.76864,39.89726],[-105.77678,39.89972],[-105.77804,39.90055],[-105.77865,39.90127],[-105.78029,39.90421],[-105.78051,39.90521],[-105.78055,39.90693],[-105.78182,39.91044],[-105.78243,39.91442],[-105.78303,39.91599],[-105.78396,39.91736]],"type":"LineString"},"properties":{"color":"#2A2A2A","color_name":"black","kind":"route","label":"FRA","long":"Fraser/Black Line - Summer","route_id":"10104","text_color":"#FFFFFF","type_label":"Bus"},"type":"Feature"},{"geometry":{"coordinates":[[-105.81887,40.25151],[-105.82847,40.25319],[-105.82968,40.25314],[-105.83473,40.25126],[-105.83524,40.25127],[-105.83616,40.25017],[-105.84213,40.24499],[-105.84282,40.24421],[-105.84431,40.24168],[-105.84632,40.23941],[-105.84777,40.23515],[-105.85166,40.22706],[-105.85254,40.22594],[-105.85543,40.22322],[-105.86133,40.21619],[-105.86197,40.21522],[-105.86237,40.2138],[-105.86229,40.21251],[-105.86187,40.21136],[-105.86052,40.20933],[-105.86018,40.20768],[-105.86034,40.20657],[-105.86086,40.20505],[-105.86174,40.20358],[-105.86863,40.19839],[-105.86831,40.1981],[-105.86895,40.19787],[-105.86915,40.19804],[-105.87098,40.19714],[-105.87631,40.19521],[-105.87787,40.19436],[-105.87921,40.19305],[-105.88547,40.18453],[-105.88628,40.18403],[-105.88926,40.1831],[-105.8907,40.18236],[-105.8988,40.17603],[-105.89999,40.17473],[-105.90056,40.17347],[-105.90066,40.17165],[-105.89783,40.16372],[-105.89661,40.1621],[-105.89167,40.15864],[-105.89084,40.1578],[-105.89028,40.1569],[-105.8896,40.155],[-105.88858,40.15121],[-105.88874,40.15024],[-105.89025,40.1472],[-105.89051,40.14388],[-105.89083,40.143],[-105.89166,40.14213],[-105.895,40.13981],[-105.89579,40.13887],[-105.89646,40.13762],[-105.89746,40.1275],[-105.89797,40.12592],[-105.89882,40.12462],[-105.90158,40.1223],[-105.90757,40.11777],[-105.90953,40.11656],[-105.91138,40.11571],[-105.94805,40.10087],[-105.94909,40.10192],[-105.95091,40.10088],[-105.95327,40.10058],[-105.95548,40.10057],[-105.95915,40.09898],[-105.95992,40.09825],[-105.9601,40.09732],[-105.96097,40.09593],[-105.96076,40.09529],[-105.95985,40.09467],[-105.95889,40.09449],[-105.95768,40.09454],[-105.95639,40.09412],[-105.9578,40.09016],[-105.95168,40.0873],[-105.95013,40.08674],[-105.94798,40.08633],[-105.93404,40.08486],[-105.93425,40.08421],[-105.9353,40.08418]],"type":"LineString"},"properties":{"color":"#FFC000","color_name":"yellow","kind":"route","label":"ROC","long":"Rocky Express/Gold Line","route_id":"77841","text_color":"#FFFFFF","type_label":"Bus"},"type":"Feature"},{"geometry":{"coordinates":[-105.76186,39.88363],"type":"Point"},"properties":{"kind":"stop","name":"Winter Park Resort","stop_id":"2436192"},"type":"Feature"},{"geometry":{"coordinates":[-105.76138,39.88523],"type":"Point"},"properties":{"kind":"stop","name":"Zephyr Lodge","stop_id":"2436193"},"type":"Feature"},{"geometry":{"coordinates":[-105.76042,39.88061],"type":"Point"},"properties":{"kind":"stop","name":"Iron Horse","stop_id":"2436194"},"type":"Feature"},{"geometry":{"coordinates":[-105.75813,39.88176],"type":"Point"},"properties":{"kind":"stop","name":"The Vintage","stop_id":"2436195"},"type":"Feature"},{"geometry":{"coordinates":[-105.75954,39.88552],"type":"Point"},"properties":{"kind":"stop","name":"Winter Park Mountain Lodge","stop_id":"2436196"},"type":"Feature"},{"geometry":{"coordinates":[-105.78203,39.91336],"type":"Point"},"properties":{"kind":"stop","name":"Beaver Village Northbound","stop_id":"2436197"},"type":"Feature"},{"geometry":{"coordinates":[-105.78382,39.91742],"type":"Point"},"properties":{"kind":"stop","name":"Vasquez Northbound","stop_id":"2436198"},"type":"Feature"},{"geometry":{"coordinates":[-105.78492,39.91965],"type":"Point"},"properties":{"kind":"stop","name":"Hideaway Park Northbound","stop_id":"2436199"},"type":"Feature"},{"geometry":{"coordinates":[-105.78557,39.92113],"type":"Point"},"properties":{"kind":"stop","name":"Miller Road Northbound","stop_id":"2436200"},"type":"Feature"},{"geometry":{"coordinates":[-105.78643,39.92317],"type":"Point"},"properties":{"kind":"stop","name":"Rosie's Way Northbound","stop_id":"2436201"},"type":"Feature"},{"geometry":{"coordinates":[-105.7871,39.92486],"type":"Point"},"properties":{"kind":"stop","name":"Hi Country Drive Northbound","stop_id":"2436202"},"type":"Feature"},{"geometry":{"coordinates":[-105.78823,39.92736],"type":"Point"},"properties":{"kind":"stop","name":"Telemark Northbound","stop_id":"2436203"},"type":"Feature"},{"geometry":{"coordinates":[-105.81266,39.94296],"type":"Point"},"properties":{"kind":"stop","name":"CR 72 & Elk Creek (Southbound)","stop_id":"2436204"},"type":"Feature"},{"geometry":{"coordinates":[-105.81194,39.94467],"type":"Point"},"properties":{"kind":"stop","name":"Safeway Main","stop_id":"2436205"},"type":"Feature"},{"geometry":{"coordinates":[-105.81063,39.94187],"type":"Point"},"properties":{"kind":"stop","name":"Fraser Valley Center (Southbound)","stop_id":"2436206"},"type":"Feature"},{"geometry":{"coordinates":[-105.81221,39.9459],"type":"Point"},"properties":{"kind":"stop","name":"Safeway @ CR 804","stop_id":"2436207"},"type":"Feature"},{"geometry":{"coordinates":[-105.80301,39.9458],"type":"Point"},"properties":{"kind":"stop","name":"The Pines","stop_id":"2436208"},"type":"Feature"},{"geometry":{"coordinates":[-105.80093,39.94652],"type":"Point"},"properties":{"kind":"stop","name":"Meadow Ridge Court #26","stop_id":"2436209"},"type":"Feature"},{"geometry":{"coordinates":[-105.79957,39.94553],"type":"Point"},"properties":{"kind":"stop","name":"MeadowRidge Clubhouse","stop_id":"2436210"},"type":"Feature"},{"geometry":{"coordinates":[-105.80013,39.94357],"type":"Point"},"properties":{"kind":"stop","name":"MeadowRidge Court #22","stop_id":"2436211"},"type":"Feature"},{"geometry":{"coordinates":[-105.79935,39.94676],"type":"Point"},"properties":{"kind":"stop","name":"Meadow Ridge Court #29","stop_id":"2436212"},"type":"Feature"},{"geometry":{"coordinates":[-105.79354,39.94583],"type":"Point"},"properties":{"kind":"stop","name":"Spinner & Cranmer - The Timbers","stop_id":"2436213"},"type":"Feature"},{"geometry":{"coordinates":[-105.79614,39.94278],"type":"Point"},"properties":{"kind":"stop","name":"Lookout Village","stop_id":"2436214"},"type":"Feature"},{"geometry":{"coordinates":[-105.79694,39.94222],"type":"Point"},"properties":{"kind":"stop","name":"Indian Peaks","stop_id":"2436215"},"type":"Feature"},{"geometry":{"coordinates":[-105.79987,39.94271],"type":"Point"},"properties":{"kind":"stop","name":"Tennis Club/Acadia","stop_id":"2436216"},"type":"Feature"},{"geometry":{"coordinates":[-105.79882,39.94819],"type":"Point"},"properties":{"kind":"stop","name":"Balsh Boulevard & Hughes Avenue","stop_id":"2436217"},"type":"Feature"},{"geometry":{"coordinates":[-105.80206,39.94364],"type":"Point"},"properties":{"kind":"stop","name":"The Ridge @ MeadowRidge","stop_id":"2436218"},"type":"Feature"},{"geometry":{"coordinates":[-105.80401,39.94787],"type":"Point"},"properties":{"kind":"stop","name":"Winter Star","stop_id":"2436219"},"type":"Feature"},{"geometry":{"coordinates":[-105.80386,39.94662],"type":"Point"},"properties":{"kind":"stop","name":"Bavarian Village","stop_id":"2436220"},"type":"Feature"},{"geometry":{"coordinates":[-105.8037,39.94952],"type":"Point"},"properties":{"kind":"stop","name":"Silvercrest","stop_id":"2436221"},"type":"Feature"},{"geometry":{"coordinates":[-105.80708,39.94862],"type":"Point"},"properties":{"kind":"stop","name":"Sun Song","stop_id":"2436222"},"type":"Feature"},{"geometry":{"coordinates":[-105.81036,39.95192],"type":"Point"},"properties":{"kind":"stop","name":"Fox Run","stop_id":"2436223"},"type":"Feature"},{"geometry":{"coordinates":[-105.81491,39.952],"type":"Point"},"properties":{"kind":"stop","name":"Twin Rivers","stop_id":"2436224"},"type":"Feature"},{"geometry":{"coordinates":[-105.81694,39.94856],"type":"Point"},"properties":{"kind":"stop","name":"Eastom Southbound","stop_id":"2436225"},"type":"Feature"},{"geometry":{"coordinates":[-105.81745,39.94762],"type":"Point"},"properties":{"kind":"stop","name":"Amtrak - Fraser","stop_id":"2436226"},"type":"Feature"},{"geometry":{"coordinates":[-105.81518,39.94607],"type":"Point"},"properties":{"kind":"stop","name":"Goranson Station","stop_id":"2436227"},"type":"Feature"},{"geometry":{"coordinates":[-105.79548,39.94312],"type":"Point"},"properties":{"kind":"stop","name":"Elk Court Cabins","stop_id":"2436228"},"type":"Feature"},{"geometry":{"coordinates":[-105.79096,39.92929],"type":"Point"},"properties":{"kind":"stop","name":"Grand Park Community Rec Center (Northbound)","stop_id":"2436229"},"type":"Feature"},{"geometry":{"coordinates":[-105.78831,39.92677],"type":"Point"},"properties":{"kind":"stop","name":"Telemark Southbound","stop_id":"2436230"},"type":"Feature"},{"geometry":{"coordinates":[-105.79434,39.94738],"type":"Point"},"properties":{"kind":"stop","name":"Hughes Avenue & Spinner Street","stop_id":"2436231"},"type":"Feature"},{"geometry":{"coordinates":[-105.78696,39.92351],"type":"Point"},"properties":{"kind":"stop","name":"Rosie's Way Southbound","stop_id":"2436232"},"type":"Feature"},{"geometry":{"coordinates":[-105.78587,39.92089],"type":"Point"},"properties":{"kind":"stop","name":"Miller Road Southbound","stop_id":"2436233"},"type":"Feature"},{"geometry":{"coordinates":[-105.78505,39.91912],"type":"Point"},"properties":{"kind":"stop","name":"Hideaway Park Southbound","stop_id":"2436234"},"type":"Feature"},{"geometry":{"coordinates":[-105.78355,39.91646],"type":"Point"},"properties":{"kind":"stop","name":"Vasquez Southbound","stop_id":"2436235"},"type":"Feature"},{"geometry":{"coordinates":[-105.78248,39.91346],"type":"Point"},"properties":{"kind":"stop","name":"Beaver Village Southbound","stop_id":"2436236"},"type":"Feature"},{"geometry":{"coordinates":[-105.81052,39.95047],"type":"Point"},"properties":{"kind":"stop","name":"Wapiti - Ermine Lane","stop_id":"2436237"},"type":"Feature"},{"geometry":{"coordinates":[-105.81255,39.95024],"type":"Point"},"properties":{"kind":"stop","name":"Lower Waipiti","stop_id":"2436238"},"type":"Feature"},{"geometry":{"coordinates":[-105.76461,39.89166],"type":"Point"},"properties":{"kind":"stop","name":"Old Town Winter Park","stop_id":"2436239"},"type":"Feature"},{"geometry":{"coordinates":[-105.81991,39.9487],"type":"Point"},"properties":{"kind":"stop","name":"Fraser Valley Elementary","stop_id":"2436240"},"type":"Feature"},{"geometry":{"coordinates":[-105.78452,39.917],"type":"Point"},"properties":{"kind":"stop","name":"Cooper Creek Gate 3","stop_id":"2436241"},"type":"Feature"},{"geometry":{"coordinates":[-105.79123,39.93355],"type":"Point"},"properties":{"kind":"stop","name":"Rendezvous Road @ Cozens Museum","stop_id":"2436242"},"type":"Feature"},{"geometry":{"coordinates":[-105.79203,39.91643],"type":"Point"},"properties":{"kind":"stop","name":"Timber Run","stop_id":"2436243"},"type":"Feature"},{"geometry":{"coordinates":[-105.79048,39.91717],"type":"Point"},"properties":{"kind":"stop","name":"Silverado I","stop_id":"2436244"},"type":"Feature"},{"geometry":{"coordinates":[-105.78956,39.91915],"type":"Point"},"properties":{"kind":"stop","name":"Silverado II","stop_id":"2436245"},"type":"Feature"},{"geometry":{"coordinates":[-105.79415,39.92598],"type":"Point"},"properties":{"kind":"stop","name":"Leland Creek @ King's Crossing","stop_id":"2436246"},"type":"Feature"},{"geometry":{"coordinates":[-105.78993,39.92571],"type":"Point"},"properties":{"kind":"stop","name":"Trestle Drive","stop_id":"2436247"},"type":"Feature"},{"geometry":{"coordinates":[-105.79287,39.91783],"type":"Point"},"properties":{"kind":"stop","name":"Pine Cone Lane","stop_id":"2436248"},"type":"Feature"},{"geometry":{"coordinates":[-105.79121,39.90927],"type":"Point"},"properties":{"kind":"stop","name":"Vasquez Run","stop_id":"2436249"},"type":"Feature"},{"geometry":{"coordinates":[-105.79107,39.91165],"type":"Point"},"properties":{"kind":"stop","name":"Creekside","stop_id":"2436250"},"type":"Feature"},{"geometry":{"coordinates":[-105.79355,39.91174],"type":"Point"},"properties":{"kind":"stop","name":"Van Anderson @ Vasquez","stop_id":"2436251"},"type":"Feature"},{"geometry":{"coordinates":[-105.79674,39.91087],"type":"Point"},"properties":{"kind":"stop","name":"Woodspur","stop_id":"2436252"},"type":"Feature"},{"geometry":{"coordinates":[-105.79452,39.91021],"type":"Point"},"properties":{"kind":"stop","name":"Hideaway Village","stop_id":"2436253"},"type":"Feature"},{"geometry":{"coordinates":[-105.79348,39.91402],"type":"Point"},"properties":{"kind":"stop","name":"Timber Lake Condos","stop_id":"2436254"},"type":"Feature"},{"geometry":{"coordinates":[-105.79371,39.91485],"type":"Point"},"properties":{"kind":"stop","name":"Lake Trail @ Sundance","stop_id":"2436255"},"type":"Feature"},{"geometry":{"coordinates":[-105.79451,39.91853],"type":"Point"},"properties":{"kind":"stop","name":"Elk Trail @ Moose Trail","stop_id":"2436256"},"type":"Feature"},{"geometry":{"coordinates":[-105.79707,39.91714],"type":"Point"},"properties":{"kind":"stop","name":"Moose Trail @ Foxtail","stop_id":"2436257"},"type":"Feature"},{"geometry":{"coordinates":[-105.79566,39.91568],"type":"Point"},"properties":{"kind":"stop","name":"Elk Run","stop_id":"2436258"},"type":"Feature"},{"geometry":{"coordinates":[-105.79149,39.91927],"type":"Point"},"properties":{"kind":"stop","name":"Tall Pines","stop_id":"2436259"},"type":"Feature"},{"geometry":{"coordinates":[-105.78767,39.91663],"type":"Point"},"properties":{"kind":"stop","name":"Miller's Inn","stop_id":"2436260"},"type":"Feature"},{"geometry":{"coordinates":[-105.78372,39.92096],"type":"Point"},"properties":{"kind":"stop","name":"Ski Idlewild Road","stop_id":"2436261"},"type":"Feature"},{"geometry":{"coordinates":[-105.78516,39.92544],"type":"Point"},"properties":{"kind":"stop","name":"Hi Country Haus 15 & 19","stop_id":"2436262"},"type":"Feature"},{"geometry":{"coordinates":[-105.78532,39.92703],"type":"Point"},"properties":{"kind":"stop","name":"Hi Country Haus 11-33, 22","stop_id":"2436263"},"type":"Feature"},{"geometry":{"coordinates":[-105.78481,39.92794],"type":"Point"},"properties":{"kind":"stop","name":"Hi Country Haus Clubhouse","stop_id":"2436264"},"type":"Feature"},{"geometry":{"coordinates":[-105.78561,39.92977],"type":"Point"},"properties":{"kind":"stop","name":"Hi Country Haus 14","stop_id":"2436265"},"type":"Feature"},{"geometry":{"coordinates":[-105.78501,39.9172],"type":"Point"},"properties":{"kind":"stop","name":"Cooper Creek Transit Center","stop_id":"2436266"},"type":"Feature"},{"geometry":{"coordinates":[-105.78513,39.91468],"type":"Point"},"properties":{"kind":"stop","name":"Beaver Condos 5-9","stop_id":"2436267"},"type":"Feature"},{"geometry":{"coordinates":[-105.78597,39.91335],"type":"Point"},"properties":{"kind":"stop","name":"Beaver Condos 10-11","stop_id":"2436268"},"type":"Feature"},{"geometry":{"coordinates":[-105.78457,39.91239],"type":"Point"},"properties":{"kind":"stop","name":"Beaver Condos 15-20","stop_id":"2436269"},"type":"Feature"},{"geometry":{"coordinates":[-105.78458,39.91398],"type":"Point"},"properties":{"kind":"stop","name":"Beaver Condos 3-4","stop_id":"2436270"},"type":"Feature"},{"geometry":{"coordinates":[-105.78319,39.91375],"type":"Point"},"properties":{"kind":"stop","name":"Beaver Condos 1-2","stop_id":"2436271"},"type":"Feature"},{"geometry":{"coordinates":[-105.81634,39.94833],"type":"Point"},"properties":{"kind":"stop","name":"Eastom Northbound","stop_id":"2436272"},"type":"Feature"},{"geometry":{"coordinates":[-105.77997,39.92701],"type":"Point"},"properties":{"kind":"stop","name":"Upper Rendezvous Road","stop_id":"2436273"},"type":"Feature"},{"geometry":{"coordinates":[-105.78643,39.9314],"type":"Point"},"properties":{"kind":"stop","name":"Rendezvous Road @ Riverwalk Place","stop_id":"2436274"},"type":"Feature"},{"geometry":{"coordinates":[-105.76165,39.88642],"type":"Point"},"properties":{"kind":"stop","name":"Winter Park Resort - Lower Circle","stop_id":"2436275"},"type":"Feature"},{"geometry":{"coordinates":[-105.79015,39.92361],"type":"Point"},"properties":{"kind":"stop","name":"Wolf Park","stop_id":"2436276"},"type":"Feature"},{"geometry":{"coordinates":[-105.7929,39.92214],"type":"Point"},"properties":{"kind":"stop","name":"Forest Trail","stop_id":"2436277"},"type":"Feature"},{"geometry":{"coordinates":[-105.76032,39.89263],"type":"Point"},"properties":{"kind":"stop","name":"Arrow Trail @ Lakota Trail","stop_id":"2436278"},"type":"Feature"},{"geometry":{"coordinates":[-105.76061,39.89623],"type":"Point"},"properties":{"kind":"stop","name":"Lakota Trail @ Lakota Park Drive","stop_id":"2436279"},"type":"Feature"},{"geometry":{"coordinates":[-105.93421,40.08475],"type":"Point"},"properties":{"kind":"stop","name":"Agate Avenue & 5th Street","stop_id":"2436280"},"type":"Feature"},{"geometry":{"coordinates":[-105.94066,40.08665],"type":"Point"},"properties":{"kind":"stop","name":"Granby Ball Fields","stop_id":"2436281"},"type":"Feature"},{"geometry":{"coordinates":[-105.93319,40.08764],"type":"Point"},"properties":{"kind":"stop","name":"6th Street & Garnett Avenue (Grand Meadows)","stop_id":"2436282"},"type":"Feature"},{"geometry":{"coordinates":[-105.9393,40.09211],"type":"Point"},"properties":{"kind":"stop","name":"Middle Park High School","stop_id":"2436283"},"type":"Feature"},{"geometry":{"coordinates":[-105.92788,40.077],"type":"Point"},"properties":{"kind":"stop","name":"Middle Park Medical Center","stop_id":"2436284"},"type":"Feature"},{"geometry":{"coordinates":[-105.94676,40.09158],"type":"Point"},"properties":{"kind":"stop","name":"Middle Park Middle School","stop_id":"2436285"},"type":"Feature"},{"geometry":{"coordinates":[-105.92521,40.06107],"type":"Point"},"properties":{"kind":"stop","name":"Silver Creek Inn - Door Q","stop_id":"2436286"},"type":"Feature"},{"geometry":{"coordinates":[-105.9368,40.08503],"type":"Point"},"properties":{"kind":"stop","name":"Granby Town Parking Lot & Agate Ave","stop_id":"2436287"},"type":"Feature"},{"geometry":{"coordinates":[-105.91744,40.00541],"type":"Point"},"properties":{"kind":"stop","name":"Snow Mountain Ranch - YMCA - Southbound","stop_id":"2436298"},"type":"Feature"},{"geometry":{"coordinates":[-105.84676,39.99304],"type":"Point"},"properties":{"kind":"stop","name":"Tabernash Southbound","stop_id":"2436299"},"type":"Feature"},{"geometry":{"coordinates":[-105.84675,39.99326],"type":"Point"},"properties":{"kind":"stop","name":"Tabernash Northbound","stop_id":"2436300"},"type":"Feature"},{"geometry":{"coordinates":[-105.9399,40.01524],"type":"Point"},"properties":{"kind":"stop","name":"Winter Park Olympic Village @ US 40","stop_id":"2436312"},"type":"Feature"},{"geometry":{"coordinates":[-105.76064,39.87522],"type":"Point"},"properties":{"kind":"stop","name":"Mary Jane Base Complex","stop_id":"2436314"},"type":"Feature"},{"geometry":{"coordinates":[-105.80489,39.93649],"type":"Point"},"properties":{"kind":"stop","name":"Old Victory Rd & Meadow Trail (Southbound)","stop_id":"2448633"},"type":"Feature"},{"geometry":{"coordinates":[-105.79781,39.93275],"type":"Point"},"properties":{"kind":"stop","name":"Mtn Willow - Northbound","stop_id":"2448635"},"type":"Feature"},{"geometry":{"coordinates":[-105.80696,39.94053],"type":"Point"},"properties":{"kind":"stop","name":"Old Victory Rd & Elk Ranch Rd (Northbound)","stop_id":"2448636"},"type":"Feature"},{"geometry":{"coordinates":[-105.78964,39.92093],"type":"Point"},"properties":{"kind":"stop","name":"Timber Ridge","stop_id":"2484516"},"type":"Feature"},{"geometry":{"coordinates":[-105.75583,39.89201],"type":"Point"},"properties":{"kind":"stop","name":"Arrow Trail & Reserve Way","stop_id":"2487161"},"type":"Feature"},{"geometry":{"coordinates":[-105.8127,39.94496],"type":"Point"},"properties":{"kind":"stop","name":"Holiday Inn Express","stop_id":"2501906"},"type":"Feature"},{"geometry":{"coordinates":[-105.93567,40.07264],"type":"Point"},"properties":{"kind":"stop","name":"Worldmark by Wyndam","stop_id":"2502259"},"type":"Feature"},{"geometry":{"coordinates":[-105.92839,40.06329],"type":"Point"},"properties":{"kind":"stop","name":"City Market","stop_id":"2502260"},"type":"Feature"},{"geometry":{"coordinates":[-105.78751,39.92227],"type":"Point"},"properties":{"kind":"stop","name":"Lion's Gate Drive","stop_id":"2502543"},"type":"Feature"},{"geometry":{"coordinates":[-105.91732,40.00549],"type":"Point"},"properties":{"kind":"stop","name":"Snow Mountain Ranch - YMCA - Northbound","stop_id":"2517688"},"type":"Feature"},{"geometry":{"coordinates":[-105.81585,39.93997],"type":"Point"},"properties":{"kind":"stop","name":"Colorado Adventure Park","stop_id":"2561416"},"type":"Feature"},{"geometry":{"coordinates":[-105.81969,39.9468],"type":"Point"},"properties":{"kind":"stop","name":"Eisenhower & Norgren","stop_id":"2561417"},"type":"Feature"},{"geometry":{"coordinates":[-105.81679,39.94677],"type":"Point"},"properties":{"kind":"stop","name":"Eisenhower & Railroad","stop_id":"2561418"},"type":"Feature"},{"geometry":{"coordinates":[-105.80912,39.93747],"type":"Point"},"properties":{"kind":"stop","name":"Elk Ranch Rd & Beaver Brook","stop_id":"2561420"},"type":"Feature"},{"geometry":{"coordinates":[-105.79795,39.93266],"type":"Point"},"properties":{"kind":"stop","name":"Mtn Willow - Southbound","stop_id":"2577961"},"type":"Feature"},{"geometry":{"coordinates":[-105.80471,39.93654],"type":"Point"},"properties":{"kind":"stop","name":"Old Victory Rd & Meadow Trail (Northbound)","stop_id":"2584679"},"type":"Feature"},{"geometry":{"coordinates":[-105.80706,39.94013],"type":"Point"},"properties":{"kind":"stop","name":"Old Victory Rd & Elk Ranch Rd (Southbound)","stop_id":"2584680"},"type":"Feature"},{"geometry":{"coordinates":[-105.81052,39.94201],"type":"Point"},"properties":{"kind":"stop","name":"Fraser Valley Center (Northbound)","stop_id":"2584681"},"type":"Feature"},{"geometry":{"coordinates":[-105.81246,39.94301],"type":"Point"},"properties":{"kind":"stop","name":"CR 72 & Elk Creek (Northbound)","stop_id":"2584682"},"type":"Feature"},{"geometry":{"coordinates":[-105.79072,39.91498],"type":"Point"},"properties":{"kind":"stop","name":"Arapahoe Townhomes Northbound","stop_id":"2618982"},"type":"Feature"},{"geometry":{"coordinates":[-105.7905,39.91497],"type":"Point"},"properties":{"kind":"stop","name":"Arapahoe Townhomes Southbound","stop_id":"2618983"},"type":"Feature"},{"geometry":{"coordinates":[-105.79238,39.90987],"type":"Point"},"properties":{"kind":"stop","name":"Arapahoe Rd & Alpine Way","stop_id":"2619288"},"type":"Feature"},{"geometry":{"coordinates":[-105.90147,39.9996],"type":"Point"},"properties":{"kind":"stop","name":"US 40 & CR 5","stop_id":"4161134"},"type":"Feature"},{"geometry":{"coordinates":[-105.9066,40.00145],"type":"Point"},"properties":{"kind":"stop","name":"US 40 & CR 5 85/87","stop_id":"4161135"},"type":"Feature"},{"geometry":{"coordinates":[-105.78188,39.91767],"type":"Point"},"properties":{"kind":"stop","name":"Ski Idlewild at Vasquez","stop_id":"4230295"},"type":"Feature"},{"geometry":{"coordinates":[-105.78339,39.91924],"type":"Point"},"properties":{"kind":"stop","name":"Timber Fox","stop_id":"4230296"},"type":"Feature"},{"geometry":{"coordinates":[-105.75585,39.88085],"type":"Point"},"properties":{"kind":"stop","name":"Conifer Commons","stop_id":"4245224"},"type":"Feature"},{"geometry":{"coordinates":[-105.79089,39.92917],"type":"Point"},"properties":{"kind":"stop","name":"Grand Park Community Rec Center (Southbound)","stop_id":"4251961"},"type":"Feature"},{"geometry":{"coordinates":[-105.934,40.08491],"type":"Point"},"properties":{"kind":"stop","name":"5th & Agate","stop_id":"4260036"},"type":"Feature"},{"geometry":{"coordinates":[-105.93531,40.08414],"type":"Point"},"properties":{"kind":"stop","name":"Granby Train Depot","stop_id":"4262078"},"type":"Feature"},{"geometry":{"coordinates":[-105.93403,40.08452],"type":"Point"},"properties":{"kind":"stop","name":"5th & Agate","stop_id":"4262079"},"type":"Feature"},{"geometry":{"coordinates":[-105.96056,40.09715],"type":"Point"},"properties":{"kind":"stop","name":"Granby Trails","stop_id":"4262080"},"type":"Feature"},{"geometry":{"coordinates":[-105.8687,40.19792],"type":"Point"},"properties":{"kind":"stop","name":"Stillwater","stop_id":"4262081"},"type":"Feature"},{"geometry":{"coordinates":[-105.82962,40.25304],"type":"Point"},"properties":{"kind":"stop","name":"Portal Road & Grand Ave","stop_id":"4262082"},"type":"Feature"},{"geometry":{"coordinates":[-105.81884,40.25161],"type":"Point"},"properties":{"kind":"stop","name":"Town Square Park","stop_id":"4262083"},"type":"Feature"}],"type":"FeatureCollection"}
