{"features":[{"geometry":{"coordinates":[[-73.6659,40.58941],[-73.66591,40.5896],[-73.66528,40.5896],[-73.66522,40.58862],[-73.667,40.58861],[-73.66693,40.58455],[-73.65253,40.58471],[-73.65252,40.584],[-73.64092,40.5841],[-73.64092,40.58479],[-73.63812,40.58481],[-73.63811,40.585],[-73.63818,40.58881],[-73.6659,40.58861],[-73.6659,40.5894]],"type":"LineString"},"properties":{"color":"#1A7A46","color_name":"green","kind":"route","label":"East Loop","long":"East Loop","route_id":"EL","text_color":"#FFFFFF","type_label":"Bus"},"type":"Feature"},{"geometry":{"coordinates":[[-73.6659,40.58941],[-73.66591,40.5896],[-73.66528,40.5896],[-73.66522,40.58862],[-73.68432,40.58852],[-73.68426,40.58603],[-73.70055,40.586],[-73.70054,40.58614],[-73.70113,40.58622],[-73.70112,40.586],[-73.68804,40.58597],[-73.66697,40.58615],[-73.66694,40.5843],[-73.66677,40.5843],[-73.6668,40.5883],[-73.66589,40.58831],[-73.6659,40.58939]],"type":"LineString"},"properties":{"color":"#1A7A46","color_name":"green","kind":"route","label":"Express","long":"Late Night Express","route_id":"LNE","text_color":"#FFFFFF","type_label":"Bus"},"type":"Feature"},{"geometry":{"coordinates":[[-73.6659,40.58941],[-73.66591,40.5896],[-73.66528,40.5896],[-73.66522,40.58832],[-73.63817,40.58848],[-73.63667,40.58894],[-73.63593,40.58898],[-73.63495,40.58886],[-73.63106,40.5877],[-73.62987,40.58755],[-73.62799,40.58789],[-73.62595,40.58879],[-73.6242,40.58928],[-73.61782,40.58952],[-73.61618,40.58976],[-73.61184,40.59148],[-73.60971,40.59187],[-73.59672,40.59199],[-73.59673,40.59096],[-73.59721,40.59044],[-73.59724,40.5888],[-73.59674,40.58845],[-73.59607,40.58844],[-73.59563,40.58874],[-73.59552,40.592],[-73.5792,40.59209],[-73.59672,40.59199],[-73.59673,40.59096],[-73.59721,40.59044],[-73.59724,40.5888],[-73.59674,40.58845],[-73.59607,40.58844],[-73.59563,40.58874],[-73.59552,40.592],[-73.60971,40.59187],[-73.61184,40.59148],[-73.61492,40.59014],[-73.61647,40.5897],[-73.6163,40.58875],[-73.61639,40.58972],[-73.61782,40.58952],[-73.62301,40.58954],[-73.62484,40.58927],[-73.62806,40.58801],[-73.62988,40.58768],[-73.63101,40.58782],[-73.63489,40.58899],[-73.63593,40.5891],[-73.63798,40.58881],[-73.6659,40.58861],[-73.6659,40.58941]],"type":"LineString"},"properties":{"color":"#1A7A46","color_name":"green","kind":"route","label":"Point","long":"Pt. Lookout","route_id":"PL","text_color":"#FFFFFF","type_label":"Bus"},"type":"Feature"},{"geometry":{"coordinates":[[-73.6659,40.58941],[-73.66591,40.5896],[-73.66528,40.5896],[-73.66522,40.58832],[-73.63817,40.58856],[-73.63811,40.585],[-73.66388,40.58478],[-73.66394,40.58834],[-73.66114,40.58837],[-73.66116,40.58922],[-73.6626,40.58919],[-73.66269,40.58865],[-73.6659,40.58861],[-73.6659,40.58939]],"type":"LineString"},"properties":{"color":"#1A7A46","color_name":"green","kind":"route","label":"Special","long":"Shoppers Special East","route_id":"SSE","text_color":"#FFFFFF","type_label":"Bus"},"type":"Feature"},{"geometry":{"coordinates":[[-73.6659,40.58941],[-73.66592,40.59034],[-73.66685,40.59033],[-73.66688,40.59242],[-73.66993,40.59236],[-73.66991,40.59094],[-73.68142,40.59085],[-73.6814,40.58853],[-73.68432,40.58852],[-73.68426,40.58603],[-73.70055,40.586],[-73.70054,40.58614],[-73.70098,40.58628],[-73.70112,40.586],[-73.68424,40.58603],[-73.68424,40.58442],[-73.66388,40.58458],[-73.66394,40.58834],[-73.66114,40.58837],[-73.66116,40.58922],[-73.6626,40.58919],[-73.66269,40.58865],[-73.6659,40.58861],[-73.6659,40.58941]],"type":"LineString"},"properties":{"color":"#1A7A46","color_name":"green","kind":"route","label":"Special","long":"Shoppers Special West","route_id":"SSW","text_color":"#FFFFFF","type_label":"Bus"},"type":"Feature"},{"geometry":{"coordinates":[[-73.6659,40.58941],[-73.66591,40.5896],[-73.66528,40.5896],[-73.66522,40.58862],[-73.68432,40.58852],[-73.68426,40.58603],[-73.70055,40.586],[-73.70054,40.58614],[-73.70113,40.58622],[-73.70112,40.586],[-73.68407,40.58603],[-73.68411,40.58818],[-73.66589,40.58831],[-73.6659,40.5894]],"type":"LineString"},"properties":{"color":"#1A7A46","color_name":"green","kind":"route","label":"West Loop","long":"West Loop","route_id":"WL","text_color":"#FFFFFF","type_label":"Bus"},"type":"Feature"},{"geometry":{"coordinates":[-73.66709,40.58823],"type":"Point"},"properties":{"kind":"stop","name":"National Blvd & W Park Ave","stop_id":"2vk6"},"type":"Feature"},{"geometry":{"coordinates":[-73.68397,40.58809],"type":"Point"},"properties":{"kind":"stop","name":"Grand Blvd & W Park Ave","stop_id":"3yfw"},"type":"Feature"},{"geometry":{"coordinates":[-73.68423,40.58602],"type":"Point"},"properties":{"kind":"stop","name":"W Beech St & Grand Blvd","stop_id":"47jb"},"type":"Feature"},{"geometry":{"coordinates":[-73.66921,40.59247],"type":"Point"},"properties":{"kind":"stop","name":"Senior Home","stop_id":"4qmq"},"type":"Feature"},{"geometry":{"coordinates":[-73.66999,40.59104],"type":"Point"},"properties":{"kind":"stop","name":"W Hudson St & Magnolia Blvd","stop_id":"562x"},"type":"Feature"},{"geometry":{"coordinates":[-73.66297,40.585],"type":"Point"},"properties":{"kind":"stop","name":"35 Broadway","stop_id":"66nn"},"type":"Feature"},{"geometry":{"coordinates":[-73.66665,40.58451],"type":"Point"},"properties":{"kind":"stop","name":"W Broadway & National Blvd","stop_id":"7p2x"},"type":"Feature"},{"geometry":{"coordinates":[-73.63825,40.58515],"type":"Point"},"properties":{"kind":"stop","name":"E Broadway & Maple Blvd","stop_id":"8dc7"},"type":"Feature"},{"geometry":{"coordinates":[-73.63818,40.58892],"type":"Point"},"properties":{"kind":"stop","name":"Maple Blvd & E Park Ave","stop_id":"9hij"},"type":"Feature"},{"geometry":{"coordinates":[-73.66587,40.58941],"type":"Point"},"properties":{"kind":"stop","name":"LIRR Station","stop_id":"LB01"},"type":"Feature"},{"geometry":{"coordinates":[-73.66381,40.58838],"type":"Point"},"properties":{"kind":"stop","name":"E Park Ave & Edwards Blvd","stop_id":"LB02"},"type":"Feature"},{"geometry":{"coordinates":[-73.66144,40.58828],"type":"Point"},"properties":{"kind":"stop","name":"E Park Ave & Riverside Blvd","stop_id":"LB03"},"type":"Feature"},{"geometry":{"coordinates":[-73.65793,40.58835],"type":"Point"},"properties":{"kind":"stop","name":"E Park Ave & Long Beach Blvd","stop_id":"LB04"},"type":"Feature"},{"geometry":{"coordinates":[-73.65509,40.58837],"type":"Point"},"properties":{"kind":"stop","name":"E Park Ave & Monroe Blvd","stop_id":"LB05"},"type":"Feature"},{"geometry":{"coordinates":[-73.65277,40.5884],"type":"Point"},"properties":{"kind":"stop","name":"E Park Ave & Lincoln Blvd","stop_id":"LB06"},"type":"Feature"},{"geometry":{"coordinates":[-73.64943,40.58842],"type":"Point"},"properties":{"kind":"stop","name":"E Park Ave & Franklin Blvd","stop_id":"LB07"},"type":"Feature"},{"geometry":{"coordinates":[-73.64656,40.58844],"type":"Point"},"properties":{"kind":"stop","name":"E Park Ave & Neptune Blvd","stop_id":"LB08"},"type":"Feature"},{"geometry":{"coordinates":[-73.64409,40.58844],"type":"Point"},"properties":{"kind":"stop","name":"E Park Ave & Roosevelt Blvd","stop_id":"LB09"},"type":"Feature"},{"geometry":{"coordinates":[-73.64117,40.58847],"type":"Point"},"properties":{"kind":"stop","name":"E Park Ave & Pacific Blvd","stop_id":"LB10"},"type":"Feature"},{"geometry":{"coordinates":[-73.58391,40.59209],"type":"Point"},"properties":{"kind":"stop","name":"Parkside Road Drive & Lido Blvd","stop_id":"LB100"},"type":"Feature"},{"geometry":{"coordinates":[-73.58071,40.59208],"type":"Point"},"properties":{"kind":"stop","name":"Garden City Ave & Lido Blvd","stop_id":"LB101"},"type":"Feature"},{"geometry":{"coordinates":[-73.57775,40.59206],"type":"Point"},"properties":{"kind":"stop","name":"Mineola Ave & Lido Blvd","stop_id":"LB102"},"type":"Feature"},{"geometry":{"coordinates":[-73.57919,40.59211],"type":"Point"},"properties":{"kind":"stop","name":"PT Lookout Post Office","stop_id":"LB103"},"type":"Feature"},{"geometry":{"coordinates":[-73.57995,40.59236],"type":"Point"},"properties":{"kind":"stop","name":"PT Lookout Fire House","stop_id":"LB104"},"type":"Feature"},{"geometry":{"coordinates":[-73.58038,40.59209],"type":"Point"},"properties":{"kind":"stop","name":"Glenwood Ave & Lido Blvd","stop_id":"LB105"},"type":"Feature"},{"geometry":{"coordinates":[-73.58387,40.59214],"type":"Point"},"properties":{"kind":"stop","name":"Parkside Road Drive & Lido Blvd","stop_id":"LB106"},"type":"Feature"},{"geometry":{"coordinates":[-73.60151,40.59209],"type":"Point"},"properties":{"kind":"stop","name":"Donna Lane & Lido Blvd","stop_id":"LB107"},"type":"Feature"},{"geometry":{"coordinates":[-73.61089,40.59184],"type":"Point"},"properties":{"kind":"stop","name":"750 Town Houses - Lido Blvd","stop_id":"LB108"},"type":"Feature"},{"geometry":{"coordinates":[-73.6339,40.58874],"type":"Point"},"properties":{"kind":"stop","name":"Greenway Road & Lido Blvd","stop_id":"LB109"},"type":"Feature"},{"geometry":{"coordinates":[-73.63819,40.58849],"type":"Point"},"properties":{"kind":"stop","name":"Maple Blvd & E Park Ave","stop_id":"LB11"},"type":"Feature"},{"geometry":{"coordinates":[-73.63733,40.58897],"type":"Point"},"properties":{"kind":"stop","name":"Blackheath Road & Lido Blvd","stop_id":"LB110"},"type":"Feature"},{"geometry":{"coordinates":[-73.6383,40.58859],"type":"Point"},"properties":{"kind":"stop","name":"E Park Ave & Maple Blvd","stop_id":"LB111"},"type":"Feature"},{"geometry":{"coordinates":[-73.63822,40.5879],"type":"Point"},"properties":{"kind":"stop","name":"Maple Blvd & E Walnut Street","stop_id":"LB12"},"type":"Feature"},{"geometry":{"coordinates":[-73.64354,40.58496],"type":"Point"},"properties":{"kind":"stop","name":"E Broadway & Roosevelt Blvd","stop_id":"LB13"},"type":"Feature"},{"geometry":{"coordinates":[-73.64634,40.585],"type":"Point"},"properties":{"kind":"stop","name":"E Broadway & Neptune Blvd","stop_id":"LB14"},"type":"Feature"},{"geometry":{"coordinates":[-73.64928,40.58503],"type":"Point"},"properties":{"kind":"stop","name":"E Broadway & Franklin Blvd","stop_id":"LB15"},"type":"Feature"},{"geometry":{"coordinates":[-73.65215,40.58489],"type":"Point"},"properties":{"kind":"stop","name":"E Broadway & Lincoln Blvd","stop_id":"LB16"},"type":"Feature"},{"geometry":{"coordinates":[-73.65509,40.58487],"type":"Point"},"properties":{"kind":"stop","name":"E Broadway & Monroe Blvd","stop_id":"LB17"},"type":"Feature"},{"geometry":{"coordinates":[-73.65797,40.58486],"type":"Point"},"properties":{"kind":"stop","name":"E Broadway & Long Beach Blvd","stop_id":"LB18"},"type":"Feature"},{"geometry":{"coordinates":[-73.6607,40.58483],"type":"Point"},"properties":{"kind":"stop","name":"E Broadway & Riverside Blvd","stop_id":"LB19"},"type":"Feature"},{"geometry":{"coordinates":[-73.66368,40.58479],"type":"Point"},"properties":{"kind":"stop","name":"E Broadway & Edwards Blvd","stop_id":"LB20"},"type":"Feature"},{"geometry":{"coordinates":[-73.66945,40.58491],"type":"Point"},"properties":{"kind":"stop","name":"W Broadway & Magnolia Blvd","stop_id":"LB21"},"type":"Feature"},{"geometry":{"coordinates":[-73.67525,40.58479],"type":"Point"},"properties":{"kind":"stop","name":"W Broadway & Laurelton Blvd","stop_id":"LB22"},"type":"Feature"},{"geometry":{"coordinates":[-73.67524,40.58472],"type":"Point"},"properties":{"kind":"stop","name":"W Broadway & Lafayette Blvd","stop_id":"LB23"},"type":"Feature"},{"geometry":{"coordinates":[-73.67816,40.58474],"type":"Point"},"properties":{"kind":"stop","name":"W Broadway & Washington Blvd","stop_id":"LB24"},"type":"Feature"},{"geometry":{"coordinates":[-73.68106,40.5847],"type":"Point"},"properties":{"kind":"stop","name":"W Broadway & Lindel Blvd","stop_id":"LB25"},"type":"Feature"},{"geometry":{"coordinates":[-73.68434,40.5861],"type":"Point"},"properties":{"kind":"stop","name":"W Beech Street & Grand Blvd","stop_id":"LB26"},"type":"Feature"},{"geometry":{"coordinates":[-73.68681,40.58602],"type":"Point"},"properties":{"kind":"stop","name":"W Beech Street & New York Ave","stop_id":"LB27"},"type":"Feature"},{"geometry":{"coordinates":[-73.68909,40.58602],"type":"Point"},"properties":{"kind":"stop","name":"W Beech Street & Arizona Ave","stop_id":"LB28"},"type":"Feature"},{"geometry":{"coordinates":[-73.69133,40.58602],"type":"Point"},"properties":{"kind":"stop","name":"W Beech Street & Wyoming Ave (WB)","stop_id":"LB29"},"type":"Feature"},{"geometry":{"coordinates":[-73.69361,40.58602],"type":"Point"},"properties":{"kind":"stop","name":"W Beech Street & Tennessee Ave (WB)","stop_id":"LB30"},"type":"Feature"},{"geometry":{"coordinates":[-73.69589,40.58605],"type":"Point"},"properties":{"kind":"stop","name":"W Beech Street & Maryland Ave","stop_id":"LB31"},"type":"Feature"},{"geometry":{"coordinates":[-73.6981,40.58604],"type":"Point"},"properties":{"kind":"stop","name":"W Beech Street & Georgia Ave","stop_id":"LB32"},"type":"Feature"},{"geometry":{"coordinates":[-73.69979,40.58601],"type":"Point"},"properties":{"kind":"stop","name":"W Beech Street & Illinois Ave","stop_id":"LB33"},"type":"Feature"},{"geometry":{"coordinates":[-73.70119,40.58611],"type":"Point"},"properties":{"kind":"stop","name":"Nevada Ave","stop_id":"LB34"},"type":"Feature"},{"geometry":{"coordinates":[-73.69938,40.586],"type":"Point"},"properties":{"kind":"stop","name":"W Beech Street & Connecticut Ave","stop_id":"LB35"},"type":"Feature"},{"geometry":{"coordinates":[-73.69718,40.58599],"type":"Point"},"properties":{"kind":"stop","name":"W Beech Street & Indiana Ave","stop_id":"LB36"},"type":"Feature"},{"geometry":{"coordinates":[-73.69548,40.586],"type":"Point"},"properties":{"kind":"stop","name":"W Beech Street & Michigan Street","stop_id":"LB37"},"type":"Feature"},{"geometry":{"coordinates":[-73.69264,40.58599],"type":"Point"},"properties":{"kind":"stop","name":"W Beech Steet & Virginia Ave","stop_id":"LB38"},"type":"Feature"},{"geometry":{"coordinates":[-73.69039,40.58598],"type":"Point"},"properties":{"kind":"stop","name":"W Beech Street & Deleware Ave","stop_id":"LB39"},"type":"Feature"},{"geometry":{"coordinates":[-73.68923,40.58598],"type":"Point"},"properties":{"kind":"stop","name":"W Beech Street & Arizona Ave","stop_id":"LB40"},"type":"Feature"},{"geometry":{"coordinates":[-73.687,40.58599],"type":"Point"},"properties":{"kind":"stop","name":"W Beech Street & New York Ave","stop_id":"LB41"},"type":"Feature"},{"geometry":{"coordinates":[-73.68146,40.58821],"type":"Point"},"properties":{"kind":"stop","name":"W Park Ave & Lindell Blvd","stop_id":"LB42"},"type":"Feature"},{"geometry":{"coordinates":[-73.67865,40.58823],"type":"Point"},"properties":{"kind":"stop","name":"W Park Ave & Washington Blvd","stop_id":"LB43"},"type":"Feature"},{"geometry":{"coordinates":[-73.67576,40.58826],"type":"Point"},"properties":{"kind":"stop","name":"W Park Ave & Lafayette Blvd","stop_id":"LB44"},"type":"Feature"},{"geometry":{"coordinates":[-73.67291,40.58827],"type":"Point"},"properties":{"kind":"stop","name":"W Park Ave & Laurelton Blvd","stop_id":"LB45"},"type":"Feature"},{"geometry":{"coordinates":[-73.67002,40.5883],"type":"Point"},"properties":{"kind":"stop","name":"W Park Ave & Magnolia Blvd","stop_id":"LB46"},"type":"Feature"},{"geometry":{"coordinates":[-73.66671,40.58863],"type":"Point"},"properties":{"kind":"stop","name":"W Park Ave & National Blvd","stop_id":"LB47"},"type":"Feature"},{"geometry":{"coordinates":[-73.66952,40.58867],"type":"Point"},"properties":{"kind":"stop","name":"W Park Ave & Magnolia Blvd","stop_id":"LB48"},"type":"Feature"},{"geometry":{"coordinates":[-73.67248,40.58864],"type":"Point"},"properties":{"kind":"stop","name":"W Park Ave & Laurelton Blvd","stop_id":"LB49"},"type":"Feature"},{"geometry":{"coordinates":[-73.67529,40.5886],"type":"Point"},"properties":{"kind":"stop","name":"W Park Ave & Lafayette Blvd","stop_id":"LB50"},"type":"Feature"},{"geometry":{"coordinates":[-73.67817,40.58857],"type":"Point"},"properties":{"kind":"stop","name":"W Park Ave & Washington Blvd","stop_id":"LB51"},"type":"Feature"},{"geometry":{"coordinates":[-73.68112,40.58857],"type":"Point"},"properties":{"kind":"stop","name":"W Park Ave & Lindell Blvd","stop_id":"LB52"},"type":"Feature"},{"geometry":{"coordinates":[-73.68397,40.58852],"type":"Point"},"properties":{"kind":"stop","name":"W Park Ave & Grand Blvd","stop_id":"LB53"},"type":"Feature"},{"geometry":{"coordinates":[-73.68431,40.58755],"type":"Point"},"properties":{"kind":"stop","name":"Grand Blvd & W Walnut St","stop_id":"LB54"},"type":"Feature"},{"geometry":{"coordinates":[-73.64074,40.58893],"type":"Point"},"properties":{"kind":"stop","name":"E Park Ave & Pacific Blvd","stop_id":"LB55"},"type":"Feature"},{"geometry":{"coordinates":[-73.64356,40.58881],"type":"Point"},"properties":{"kind":"stop","name":"E Park Ave & Roosevelt Blvd","stop_id":"LB56"},"type":"Feature"},{"geometry":{"coordinates":[-73.6463,40.58877],"type":"Point"},"properties":{"kind":"stop","name":"E Park Ave & Neptune Blvd","stop_id":"LB57"},"type":"Feature"},{"geometry":{"coordinates":[-73.64932,40.58876],"type":"Point"},"properties":{"kind":"stop","name":"E Park Ave & Franklin Blvd","stop_id":"LB58"},"type":"Feature"},{"geometry":{"coordinates":[-73.65209,40.58873],"type":"Point"},"properties":{"kind":"stop","name":"E Park Ave & Lincoln Blvd","stop_id":"LB59"},"type":"Feature"},{"geometry":{"coordinates":[-73.65511,40.58872],"type":"Point"},"properties":{"kind":"stop","name":"E Park Ave & Monroe Blvd","stop_id":"LB60"},"type":"Feature"},{"geometry":{"coordinates":[-73.658,40.58871],"type":"Point"},"properties":{"kind":"stop","name":"E Park Ave & Long Beach Blvd","stop_id":"LB61"},"type":"Feature"},{"geometry":{"coordinates":[-73.66093,40.58869],"type":"Point"},"properties":{"kind":"stop","name":"E Park Ave & Riverside Blvd","stop_id":"LB62"},"type":"Feature"},{"geometry":{"coordinates":[-73.66353,40.58866],"type":"Point"},"properties":{"kind":"stop","name":"E Park Ave & Edwards Blvd","stop_id":"LB63"},"type":"Feature"},{"geometry":{"coordinates":[-73.68146,40.58444],"type":"Point"},"properties":{"kind":"stop","name":"W Broadway & Lindel Blvd","stop_id":"LB64"},"type":"Feature"},{"geometry":{"coordinates":[-73.67866,40.58446],"type":"Point"},"properties":{"kind":"stop","name":"W Broadway & Washington Blvd","stop_id":"LB65"},"type":"Feature"},{"geometry":{"coordinates":[-73.67573,40.58444],"type":"Point"},"properties":{"kind":"stop","name":"W Broadway & Lafayette Blvd","stop_id":"LB66"},"type":"Feature"},{"geometry":{"coordinates":[-73.67286,40.58443],"type":"Point"},"properties":{"kind":"stop","name":"W Broadway & Laurelton Blvd","stop_id":"LB67"},"type":"Feature"},{"geometry":{"coordinates":[-73.66998,40.58449],"type":"Point"},"properties":{"kind":"stop","name":"W Broadway & Magnolia Blvd","stop_id":"LB68"},"type":"Feature"},{"geometry":{"coordinates":[-73.6671,40.58453],"type":"Point"},"properties":{"kind":"stop","name":"W Broadway & National Blvd","stop_id":"LB69"},"type":"Feature"},{"geometry":{"coordinates":[-73.66421,40.58454],"type":"Point"},"properties":{"kind":"stop","name":"W Broadway & Edwards Blvd","stop_id":"LB70"},"type":"Feature"},{"geometry":{"coordinates":[-73.66126,40.58464],"type":"Point"},"properties":{"kind":"stop","name":"E Broadway & Riverside Blvd","stop_id":"LB71"},"type":"Feature"},{"geometry":{"coordinates":[-73.65843,40.58466],"type":"Point"},"properties":{"kind":"stop","name":"E Broadway & Long Beach Blvd","stop_id":"LB72"},"type":"Feature"},{"geometry":{"coordinates":[-73.65555,40.58468],"type":"Point"},"properties":{"kind":"stop","name":"E Broadway & Monroe Blvd","stop_id":"LB73"},"type":"Feature"},{"geometry":{"coordinates":[-73.65261,40.58468],"type":"Point"},"properties":{"kind":"stop","name":"E Broadway & Lincoln Blvd","stop_id":"LB74"},"type":"Feature"},{"geometry":{"coordinates":[-73.6479,40.58402],"type":"Point"},"properties":{"kind":"stop","name":"522 Shore Road","stop_id":"LB75"},"type":"Feature"},{"geometry":{"coordinates":[-73.64651,40.58406],"type":"Point"},"properties":{"kind":"stop","name":"Shore Road & Neptune Blvd","stop_id":"LB76"},"type":"Feature"},{"geometry":{"coordinates":[-73.64234,40.58404],"type":"Point"},"properties":{"kind":"stop","name":"700 Shore Road","stop_id":"LB77"},"type":"Feature"},{"geometry":{"coordinates":[-73.64101,40.5841],"type":"Point"},"properties":{"kind":"stop","name":"Shore Road & Pacific Blvd","stop_id":"LB78"},"type":"Feature"},{"geometry":{"coordinates":[-73.64079,40.58479],"type":"Point"},"properties":{"kind":"stop","name":"E Broadway & Pacific Blvd","stop_id":"LB79"},"type":"Feature"},{"geometry":{"coordinates":[-73.6382,40.58478],"type":"Point"},"properties":{"kind":"stop","name":"E Broadway & Maple Blvd","stop_id":"LB80"},"type":"Feature"},{"geometry":{"coordinates":[-73.66255,40.58945],"type":"Point"},"properties":{"kind":"stop","name":"Stop & Shop","stop_id":"LB81"},"type":"Feature"},{"geometry":{"coordinates":[-73.667,40.58769],"type":"Point"},"properties":{"kind":"stop","name":"National Blvd & Walnut Street","stop_id":"LB82"},"type":"Feature"},{"geometry":{"coordinates":[-73.667,40.5863],"type":"Point"},"properties":{"kind":"stop","name":"National Blvd & W Beech Street","stop_id":"LB83"},"type":"Feature"},{"geometry":{"coordinates":[-73.66715,40.59099],"type":"Point"},"properties":{"kind":"stop","name":"W Hudson Street & National Blvd (WB)","stop_id":"LB84"},"type":"Feature"},{"geometry":{"coordinates":[-73.66967,40.59098],"type":"Point"},"properties":{"kind":"stop","name":"W Hudson Street & Magnolia Blvd (WB)","stop_id":"LB85"},"type":"Feature"},{"geometry":{"coordinates":[-73.66975,40.59318],"type":"Point"},"properties":{"kind":"stop","name":"Magnolia Blvd & W Bay Drive","stop_id":"LB86"},"type":"Feature"},{"geometry":{"coordinates":[-73.67248,40.59092],"type":"Point"},"properties":{"kind":"stop","name":"W Hudson Street & Laurelton Blvd (WB)","stop_id":"LB87"},"type":"Feature"},{"geometry":{"coordinates":[-73.67538,40.59092],"type":"Point"},"properties":{"kind":"stop","name":"W Hudson Street & Lafayette Blvd","stop_id":"LB88"},"type":"Feature"},{"geometry":{"coordinates":[-73.67825,40.5909],"type":"Point"},"properties":{"kind":"stop","name":"W Hudson Street & Washington Blvd (WB)","stop_id":"LB89"},"type":"Feature"},{"geometry":{"coordinates":[-73.68115,40.59086],"type":"Point"},"properties":{"kind":"stop","name":"W Hudson Street & Lindell Blvd (WB)","stop_id":"LB90"},"type":"Feature"},{"geometry":{"coordinates":[-73.68139,40.58939],"type":"Point"},"properties":{"kind":"stop","name":"Lindell Blvd & W Chester Street","stop_id":"LB91"},"type":"Feature"},{"geometry":{"coordinates":[-73.68142,40.58761],"type":"Point"},"properties":{"kind":"stop","name":"Lindell Blvd & W Walnut Street","stop_id":"LB92"},"type":"Feature"},{"geometry":{"coordinates":[-73.63731,40.58879],"type":"Point"},"properties":{"kind":"stop","name":"Blackheath Road & Lido Blvd","stop_id":"LB93"},"type":"Feature"},{"geometry":{"coordinates":[-73.63395,40.58855],"type":"Point"},"properties":{"kind":"stop","name":"Greenway Road & Lido Blvd","stop_id":"LB94"},"type":"Feature"},{"geometry":{"coordinates":[-73.63003,40.58756],"type":"Point"},"properties":{"kind":"stop","name":"Regant Drive & Lido Blvd","stop_id":"LB95"},"type":"Feature"},{"geometry":{"coordinates":[-73.62128,40.58944],"type":"Point"},"properties":{"kind":"stop","name":"Leamington Street & Lido Blvd","stop_id":"LB96"},"type":"Feature"},{"geometry":{"coordinates":[-73.60344,40.59189],"type":"Point"},"properties":{"kind":"stop","name":"Nickerson Beach","stop_id":"LB97"},"type":"Feature"},{"geometry":{"coordinates":[-73.61083,40.59161],"type":"Point"},"properties":{"kind":"stop","name":"750 Town Houses - Lido Blvd","stop_id":"LB98"},"type":"Feature"},{"geometry":{"coordinates":[-73.59421,40.59197],"type":"Point"},"properties":{"kind":"stop","name":"Malibu Shore Club","stop_id":"LB99"},"type":"Feature"},{"geometry":{"coordinates":[-73.68694,40.58633],"type":"Point"},"properties":{"kind":"stop","name":"W Beech St & New York Ave","stop_id":"abtx"},"type":"Feature"},{"geometry":{"coordinates":[-73.70051,40.586],"type":"Point"},"properties":{"kind":"stop","name":"W Beech St & Ohio Ave","stop_id":"awrw"},"type":"Feature"},{"geometry":{"coordinates":[-73.68146,40.58871],"type":"Point"},"properties":{"kind":"stop","name":"Lindell Blvd & W Park Ave","stop_id":"eu9g"},"type":"Feature"},{"geometry":{"coordinates":[-73.68425,40.5861],"type":"Point"},"properties":{"kind":"stop","name":"W Beech St & Grand Blvd","stop_id":"f63u"},"type":"Feature"},{"geometry":{"coordinates":[-73.68804,40.58598],"type":"Point"},"properties":{"kind":"stop","name":"W Beech St & Pennsylvania Ave","stop_id":"g4sw"},"type":"Feature"},{"geometry":{"coordinates":[-73.65255,40.5841],"type":"Point"},"properties":{"kind":"stop","name":"Lincoln Blvd & Shore Rd","stop_id":"h972"},"type":"Feature"},{"geometry":{"coordinates":[-73.68399,40.5881],"type":"Point"},"properties":{"kind":"stop","name":"Grand Blvd & W Park Ave","stop_id":"ioqo"},"type":"Feature"},{"geometry":{"coordinates":[-73.65791,40.58485],"type":"Point"},"properties":{"kind":"stop","name":"E Broadway & Long Beach Blvd","stop_id":"jjtd"},"type":"Feature"},{"geometry":{"coordinates":[-73.69323,40.58595],"type":"Point"},"properties":{"kind":"stop","name":"W Beech St & Vermont St","stop_id":"ktrb"},"type":"Feature"},{"geometry":{"coordinates":[-73.68409,40.58747],"type":"Point"},"properties":{"kind":"stop","name":"Grand Blvd & W Walnut St","stop_id":"nxnf"},"type":"Feature"},{"geometry":{"coordinates":[-73.66718,40.58609],"type":"Point"},"properties":{"kind":"stop","name":"W Beech St & National Blvd","stop_id":"tuue"},"type":"Feature"},{"geometry":{"coordinates":[-73.61645,40.58969],"type":"Point"},"properties":{"kind":"stop","name":"Anchor Town Park","stop_id":"uil9"},"type":"Feature"},{"geometry":{"coordinates":[-73.68401,40.58809],"type":"Point"},"properties":{"kind":"stop","name":"Grand Blvd & W Park Ave","stop_id":"v15j"},"type":"Feature"},{"geometry":{"coordinates":[-73.68869,40.58595],"type":"Point"},"properties":{"kind":"stop","name":"W Beech St & Nebraska St","stop_id":"xqhw"},"type":"Feature"},{"geometry":{"coordinates":[-73.59642,40.5885],"type":"Point"},"properties":{"kind":"stop","name":"Malibu Beach Club","stop_id":"y1py"},"type":"Feature"}],"type":"FeatureCollection"}
