{"features":[{"geometry":{"coordinates":[[-119.55308,45.35458],[-119.55215,45.35458],[-119.55221,45.35346],[-119.55352,45.35348],[-119.55352,45.35848],[-119.55613,45.3615],[-119.56084,45.36449],[-119.56627,45.36748],[-119.56946,45.3695],[-119.57399,45.371],[-119.57686,45.37232],[-119.58045,45.37334],[-119.58182,45.37405],[-119.58583,45.37736],[-119.58977,45.38022],[-119.59592,45.38638],[-119.6054,45.39325],[-119.61028,45.39837],[-119.613,45.40037],[-119.6185,45.40527],[-119.62324,45.40803],[-119.63001,45.41457],[-119.63495,45.41865],[-119.63656,45.4196],[-119.64276,45.42216],[-119.64444,45.42312],[-119.65112,45.42944],[-119.65368,45.43122],[-119.6691,45.4387],[-119.67109,45.4394],[-119.67547,45.4403],[-119.68082,45.44179],[-119.68789,45.44781],[-119.69633,45.44988],[-119.70527,45.45294],[-119.71119,45.45643],[-119.71662,45.46108],[-119.71826,45.4622],[-119.73286,45.46726],[-119.73377,45.46773],[-119.73542,45.46958],[-119.73813,45.47108],[-119.74134,45.47439],[-119.74182,45.47522],[-119.74244,45.47781],[-119.7431,45.47872],[-119.74549,45.48017],[-119.74738,45.48232],[-119.75284,45.48557],[-119.7557,45.48814],[-119.7578,45.48942],[-119.75827,45.49023],[-119.75854,45.49208],[-119.76039,45.49458],[-119.76113,45.4952],[-119.7622,45.49556],[-119.7651,45.49576],[-119.77037,45.49499],[-119.77406,45.49536],[-119.77845,45.49676],[-119.79603,45.50019],[-119.80175,45.50318],[-119.80533,45.50388],[-119.81757,45.50379],[-119.8187,45.50361],[-119.81875,45.50134],[-119.82791,45.50137],[-119.8279,45.50255],[-119.82363,45.50267],[-119.81757,45.50379],[-119.80533,45.50388],[-119.80175,45.50318],[-119.79603,45.50019],[-119.77924,45.49691],[-119.77645,45.49862],[-119.77509,45.49968],[-119.7735,45.50202],[-119.77251,45.50269],[-119.77051,45.50359],[-119.76883,45.5048],[-119.76718,45.5096],[-119.76638,45.51418],[-119.76512,45.51604],[-119.76439,45.51649],[-119.76371,45.51665],[-119.70932,45.51649],[-119.70648,45.51716],[-119.70464,45.51673],[-119.70303,45.51673],[-119.69985,45.51754],[-119.69922,45.51737],[-119.69856,45.51671],[-119.69763,45.51652],[-119.63237,45.51651],[-119.63501,45.52367],[-119.6367,45.53323],[-119.63669,45.53415],[-119.63515,45.53972],[-119.63463,45.54077],[-119.63352,45.54179],[-119.63227,45.54245],[-119.60501,45.55411],[-119.60212,45.55604],[-119.5997,45.5588],[-119.6009,45.55936],[-119.60118,45.56008],[-119.60147,45.66035],[-119.60192,45.66152],[-119.60359,45.66427],[-119.60623,45.66846],[-119.60743,45.66989],[-119.60919,45.67122],[-119.61112,45.67219],[-119.6199,45.67537],[-119.6212,45.67604],[-119.62277,45.67755],[-119.62328,45.6793],[-119.62302,45.73403],[-119.62336,45.81005],[-119.62359,45.83175],[-119.62396,45.83259],[-119.62482,45.83345],[-119.62107,45.83534],[-119.62046,45.83519],[-119.61986,45.83452],[-119.61994,45.83404],[-119.62052,45.83372],[-119.62315,45.83398],[-119.65892,45.83996],[-119.66527,45.84083],[-119.66834,45.84154],[-119.66833,45.84227],[-119.6726,45.8423],[-119.68543,45.84437],[-119.68987,45.84479],[-119.69499,45.84488],[-119.69632,45.8447],[-119.70732,45.84111],[-119.7068,45.83955],[-119.70252,45.83986]],"type":"LineString"},"properties":{"color":"#0A9250","color_name":"green","kind":"route","label":"Verde","long":"Verde","route_id":"77214","text_color":"#000000","type_label":"Bus"},"type":"Feature"},{"geometry":{"coordinates":[[-119.28775,45.85209],[-119.28863,45.8519],[-119.28861,45.8516],[-119.28816,45.85159],[-119.28817,45.85111],[-119.29016,45.85111],[-119.29018,45.84959],[-119.30793,45.84964],[-119.30796,45.8491],[-119.31018,45.84755],[-119.31061,45.84786],[-119.31095,45.84786],[-119.31113,45.81606],[-119.3116,45.81542],[-119.31787,45.81103],[-119.31884,45.80998],[-119.31935,45.8091],[-119.31965,45.80819],[-119.32154,45.79742],[-119.32161,45.78691],[-119.32176,45.78599],[-119.32245,45.78497],[-119.32659,45.78086],[-119.33286,45.77596],[-119.33408,45.77455],[-119.33517,45.77272],[-119.33576,45.771],[-119.3367,45.76586],[-119.33693,45.75428],[-119.33723,45.75235],[-119.35637,45.71441],[-119.37242,45.69032],[-119.38831,45.6655],[-119.40873,45.64558],[-119.41488,45.64063],[-119.42161,45.63431],[-119.42445,45.63074],[-119.42939,45.62689],[-119.43255,45.62261],[-119.43472,45.62132],[-119.43577,45.61981],[-119.43682,45.61918],[-119.43772,45.61902],[-119.441,45.61906],[-119.44599,45.61748],[-119.49256,45.61755],[-119.49607,45.61695],[-119.50896,45.61247],[-119.50963,45.61213],[-119.5103,45.61147],[-119.51174,45.60843],[-119.51239,45.60752],[-119.51403,45.60585],[-119.53052,45.59313],[-119.53278,45.59177],[-119.53814,45.58925],[-119.54161,45.58702],[-119.54256,45.58597],[-119.54361,45.58353],[-119.54434,45.58241],[-119.54561,45.58116],[-119.54707,45.58016],[-119.549,45.57927],[-119.57555,45.56923],[-119.58012,45.56811],[-119.5867,45.56764],[-119.58787,45.5673],[-119.59659,45.56268],[-119.60111,45.55703],[-119.60398,45.55466],[-119.63318,45.542],[-119.63463,45.54077],[-119.63515,45.53972],[-119.63669,45.53415],[-119.6367,45.53323],[-119.63501,45.52367],[-119.63232,45.51631],[-119.63182,45.51328],[-119.63221,45.51221],[-119.64715,45.49419],[-119.64745,45.49352],[-119.64755,45.4908],[-119.65048,45.48769],[-119.66263,45.47973],[-119.67677,45.47963],[-119.67752,45.47946],[-119.6781,45.47897],[-119.67827,45.45593],[-119.6799,45.45252],[-119.68108,45.45121],[-119.68162,45.45006],[-119.68288,45.44878],[-119.68359,45.44836],[-119.68535,45.44782],[-119.68689,45.44699],[-119.68788,45.4478],[-119.68677,45.44842],[-119.68582,45.44758],[-119.68689,45.44699],[-119.68082,45.44179],[-119.67666,45.44059],[-119.66978,45.43902],[-119.65368,45.43122],[-119.65112,45.42944],[-119.64444,45.42312],[-119.64276,45.42216],[-119.63561,45.41914],[-119.63001,45.41457],[-119.62324,45.40803],[-119.6185,45.40527],[-119.613,45.40037],[-119.61015,45.39829],[-119.6054,45.39325],[-119.59592,45.38638],[-119.58942,45.37995],[-119.58494,45.37669],[-119.58182,45.37405],[-119.58045,45.37334],[-119.57686,45.37232],[-119.57399,45.371],[-119.56906,45.36929],[-119.56444,45.36648],[-119.56487,45.36611],[-119.56328,45.36457],[-119.55821,45.36149],[-119.55581,45.36027],[-119.55517,45.36048],[-119.55352,45.35848],[-119.55348,45.35459],[-119.55218,45.35455],[-119.55224,45.35347],[-119.55092,45.35351],[-119.55056,45.35437],[-119.55057,45.35657],[-119.55023,45.35705],[-119.54843,45.35723],[-119.54705,45.35701],[-119.54612,45.35707],[-119.54612,45.35694],[-119.54684,45.35683],[-119.54945,45.35689],[-119.54944,45.35129],[-119.55018,45.35129],[-119.55015,45.35236],[-119.55092,45.3535],[-119.55221,45.35347],[-119.55214,45.35458],[-119.55351,45.35457],[-119.55352,45.35848],[-119.55517,45.36048],[-119.55581,45.36027],[-119.55821,45.36149],[-119.56328,45.36457],[-119.56487,45.36611],[-119.56444,45.36648],[-119.56906,45.36929],[-119.57399,45.371],[-119.57686,45.37232],[-119.58045,45.37334],[-119.58182,45.37405],[-119.58494,45.37669],[-119.58942,45.37995],[-119.59592,45.38638],[-119.6054,45.39325],[-119.61015,45.39829],[-119.613,45.40037],[-119.6185,45.40527],[-119.62324,45.40803],[-119.63001,45.41457],[-119.63561,45.41914],[-119.64276,45.42216],[-119.64444,45.42312],[-119.65112,45.42944],[-119.65368,45.43122],[-119.66978,45.43902],[-119.67666,45.44059],[-119.68082,45.44179],[-119.68788,45.4478],[-119.68677,45.44842],[-119.68582,45.44758],[-119.68288,45.44878],[-119.68162,45.45006],[-119.68108,45.45121],[-119.6799,45.45252],[-119.67827,45.45593],[-119.6782,45.47847],[-119.67795,45.47918],[-119.67739,45.47952],[-119.67659,45.47964],[-119.66263,45.47973],[-119.65048,45.48769],[-119.64755,45.4908],[-119.64745,45.49352],[-119.64715,45.49419],[-119.63203,45.5125],[-119.63183,45.51363],[-119.63232,45.51631],[-119.63501,45.52367],[-119.6367,45.53323],[-119.63669,45.53415],[-119.63515,45.53972],[-119.63463,45.54077],[-119.63352,45.54179],[-119.60398,45.55466],[-119.60111,45.55703],[-119.59659,45.56268],[-119.58787,45.5673],[-119.5867,45.56764],[-119.58012,45.56811],[-119.57555,45.56923],[-119.549,45.57927],[-119.54707,45.58016],[-119.54561,45.58116],[-119.54434,45.58241],[-119.54361,45.58353],[-119.54256,45.58597],[-119.54161,45.58702],[-119.53814,45.58925],[-119.53278,45.59177],[-119.53052,45.59313],[-119.51403,45.60585],[-119.51239,45.60752],[-119.51174,45.60843],[-119.5103,45.61147],[-119.50963,45.61213],[-119.50896,45.61247],[-119.49607,45.61695],[-119.49345,45.61748],[-119.44673,45.61743],[-119.44522,45.61762],[-119.441,45.61906],[-119.43757,45.61903],[-119.43635,45.61939],[-119.43568,45.6199],[-119.43472,45.62132],[-119.43255,45.62261],[-119.42959,45.62669],[-119.42445,45.63074],[-119.42161,45.63431],[-119.4145,45.64095],[-119.40905,45.64531],[-119.3887,45.66506],[-119.38723,45.66706],[-119.37252,45.69018],[-119.35794,45.71193],[-119.35646,45.7144],[-119.33878,45.74909],[-119.33749,45.7517],[-119.33706,45.753],[-119.33667,45.76622],[-119.33552,45.77193],[-119.33465,45.77374],[-119.33238,45.77646],[-119.32677,45.78072],[-119.3218,45.78565],[-119.32152,45.78691],[-119.32157,45.79722],[-119.31945,45.80884],[-119.31826,45.8107],[-119.31148,45.81557],[-119.31109,45.81621],[-119.31094,45.84786],[-119.31061,45.84786],[-119.30933,45.84697],[-119.3082,45.84781],[-119.30899,45.84836],[-119.3102,45.84758],[-119.30933,45.84698],[-119.30822,45.8478],[-119.30883,45.84824],[-119.30797,45.8488],[-119.3081,45.84892],[-119.30789,45.84917],[-119.30791,45.84962],[-119.28502,45.84956],[-119.285,45.85131],[-119.28721,45.85206],[-119.28775,45.85209]],"type":"LineString"},"properties":{"color":"#5E17EB","color_name":"blue","kind":"route","label":"Morado","long":"Morado","route_id":"77351","text_color":"#FFFFFF","type_label":"Bus"},"type":"Feature"},{"geometry":{"coordinates":[[-119.70273,45.83985],[-119.70315,45.83981],[-119.70289,45.83888],[-119.70153,45.83918],[-119.70119,45.83717],[-119.69838,45.83797],[-119.67353,45.84025],[-119.66798,45.84042],[-119.66328,45.84022],[-119.65944,45.83981],[-119.63973,45.83657],[-119.62953,45.8346],[-119.62824,45.83415],[-119.62668,45.83322],[-119.62575,45.83318],[-119.62495,45.83339],[-119.55876,45.86703],[-119.55888,45.89603],[-119.55588,45.89597],[-119.55288,45.89645],[-119.49985,45.89507],[-119.49985,45.89563],[-119.49655,45.89567],[-119.49135,45.89651],[-119.49131,45.89583],[-119.48404,45.89708],[-119.48397,45.89385],[-119.49264,45.89386],[-119.49263,45.89208],[-119.49457,45.89208],[-119.49452,45.88662],[-119.49971,45.88662],[-119.49984,45.89425],[-119.49963,45.89429],[-119.46683,45.90007],[-119.4389,45.90657],[-119.37794,45.9127],[-119.35894,45.91534],[-119.35438,45.91542],[-119.3383,45.91834],[-119.3354,45.91831],[-119.33539,45.91741],[-119.33033,45.91736],[-119.33011,45.91696],[-119.32993,45.91637],[-119.33003,45.91344],[-119.32707,45.90693],[-119.32623,45.90387],[-119.32575,45.89902],[-119.32586,45.89572],[-119.3247,45.89202],[-119.3241,45.88734],[-119.32344,45.88465],[-119.31816,45.87486],[-119.31497,45.86593],[-119.31428,45.86493],[-119.31048,45.86101],[-119.31091,45.86068],[-119.31094,45.84786],[-119.31061,45.84786],[-119.30933,45.84699],[-119.30822,45.8478],[-119.30899,45.84837],[-119.3102,45.84758],[-119.30933,45.84698],[-119.30822,45.8478],[-119.30883,45.84824],[-119.30797,45.8488],[-119.3081,45.84892],[-119.30789,45.84917],[-119.30791,45.84962],[-119.28502,45.84956],[-119.285,45.85131],[-119.28721,45.85206],[-119.28775,45.85209]],"type":"LineString"},"properties":{"color":"#E2190F","color_name":"red","kind":"route","label":"Rojo","long":"Rojo","route_id":"77384","text_color":"#000000","type_label":"Bus"},"type":"Feature"},{"geometry":{"coordinates":[[-119.70273,45.83985],[-119.70167,45.83994],[-119.70108,45.83665],[-119.69816,45.83767],[-119.69748,45.83405],[-119.69479,45.8342],[-119.69482,45.82801],[-119.70047,45.828],[-119.70042,45.83274],[-119.70265,45.83275],[-119.7029,45.83261],[-119.70273,45.83234],[-119.70285,45.83137],[-119.70037,45.83134],[-119.70049,45.82071],[-119.72108,45.82074],[-119.72112,45.82805],[-119.71826,45.82804],[-119.71815,45.82879],[-119.71662,45.83005],[-119.71609,45.83022],[-119.7159,45.83021],[-119.7159,45.82802],[-119.7069,45.828],[-119.7069,45.82951],[-119.7066,45.82978],[-119.70657,45.83017],[-119.70532,45.83014],[-119.70385,45.82961],[-119.70294,45.82954],[-119.70285,45.83137],[-119.70037,45.83134],[-119.70044,45.83306],[-119.70153,45.83918],[-119.70289,45.83888],[-119.70315,45.83981],[-119.70273,45.83985]],"type":"LineString"},"properties":{"color":"#EEEE24","color_name":"yellow","kind":"route","label":"Amarillo","long":"Amarillo","route_id":"77389","text_color":"#FFFFFF","type_label":"Bus"},"type":"Feature"},{"geometry":{"coordinates":[-119.54993,45.35374],"type":"Point"},"properties":{"kind":"stop","name":"The Loop","stop_id":"2734322"},"type":"Feature"},{"geometry":{"coordinates":[-119.54934,45.35569],"type":"Point"},"properties":{"kind":"stop","name":"Pioneer Memorial Hospital","stop_id":"4249051"},"type":"Feature"},{"geometry":{"coordinates":[-119.54933,45.35351],"type":"Point"},"properties":{"kind":"stop","name":"Morrow County Courthouse","stop_id":"4249052"},"type":"Feature"},{"geometry":{"coordinates":[-119.55308,45.35457],"type":"Point"},"properties":{"kind":"stop","name":"Heppner Market Fresh (E Willow at St Patricks)","stop_id":"4249053"},"type":"Feature"},{"geometry":{"coordinates":[-119.82713,45.5012],"type":"Point"},"properties":{"kind":"stop","name":"Ione Horseshoe Park","stop_id":"4249054"},"type":"Feature"},{"geometry":{"coordinates":[-119.68772,45.44783],"type":"Point"},"properties":{"kind":"stop","name":"Lexington Sinclair Station","stop_id":"4249055"},"type":"Feature"},{"geometry":{"coordinates":[-119.70072,45.83999],"type":"Point"},"properties":{"kind":"stop","name":"C & D Drive-In","stop_id":"4249056"},"type":"Feature"},{"geometry":{"coordinates":[-119.69508,45.84116],"type":"Point"},"properties":{"kind":"stop","name":"Boardman Trail Apartments","stop_id":"4249057"},"type":"Feature"},{"geometry":{"coordinates":[-119.69417,45.83964],"type":"Point"},"properties":{"kind":"stop","name":"Boardman Annex","stop_id":"4249058"},"type":"Feature"},{"geometry":{"coordinates":[-119.68524,45.84381],"type":"Point"},"properties":{"kind":"stop","name":"Macario's (302 Olson Rd)","stop_id":"4249059"},"type":"Feature"},{"geometry":{"coordinates":[-119.69383,45.84496],"type":"Point"},"properties":{"kind":"stop","name":"Port View Apartments","stop_id":"4249060"},"type":"Feature"},{"geometry":{"coordinates":[-119.70407,45.83977],"type":"Point"},"properties":{"kind":"stop","name":"Boardman City Park","stop_id":"4249061"},"type":"Feature"},{"geometry":{"coordinates":[-119.70654,45.83959],"type":"Point"},"properties":{"kind":"stop","name":"Boardman Ave NW & 2nd St NW","stop_id":"4249062"},"type":"Feature"},{"geometry":{"coordinates":[-119.70891,45.83998],"type":"Point"},"properties":{"kind":"stop","name":"3rd St NW","stop_id":"4249063"},"type":"Feature"},{"geometry":{"coordinates":[-119.70435,45.842],"type":"Point"},"properties":{"kind":"stop","name":"Columbia Ave NW & 1st St NW","stop_id":"4249064"},"type":"Feature"},{"geometry":{"coordinates":[-119.70202,45.83681],"type":"Point"},"properties":{"kind":"stop","name":"Car Wash","stop_id":"4249065"},"type":"Feature"},{"geometry":{"coordinates":[-119.70979,45.82077],"type":"Point"},"properties":{"kind":"stop","name":"Kunze Ln SW & Mountain View Dr","stop_id":"4249067"},"type":"Feature"},{"geometry":{"coordinates":[-119.71311,45.82078],"type":"Point"},"properties":{"kind":"stop","name":"Kunze Ln SW & Parkside Dr","stop_id":"4249068"},"type":"Feature"},{"geometry":{"coordinates":[-119.71662,45.82078],"type":"Point"},"properties":{"kind":"stop","name":"Kunze Ln SW & Hilltop Dr","stop_id":"4249069"},"type":"Feature"},{"geometry":{"coordinates":[-119.71949,45.82079],"type":"Point"},"properties":{"kind":"stop","name":"Kunze Ln at Driftwood RV Park","stop_id":"4249070"},"type":"Feature"},{"geometry":{"coordinates":[-119.72097,45.82326],"type":"Point"},"properties":{"kind":"stop","name":"Smith Rd SW at Bella Vista Estates","stop_id":"4249071"},"type":"Feature"},{"geometry":{"coordinates":[-119.7194,45.828],"type":"Point"},"properties":{"kind":"stop","name":"Wilson Ln & Mt Adams Ave SW","stop_id":"4249072"},"type":"Feature"},{"geometry":{"coordinates":[-119.71839,45.828],"type":"Point"},"properties":{"kind":"stop","name":"Wilson Ln & Mt Hood Ave SW","stop_id":"4249073"},"type":"Feature"},{"geometry":{"coordinates":[-119.71614,45.82796],"type":"Point"},"properties":{"kind":"stop","name":"Wilson Ln & Faler Rd SW","stop_id":"4249074"},"type":"Feature"},{"geometry":{"coordinates":[-119.71578,45.8293],"type":"Point"},"properties":{"kind":"stop","name":"Faller Rd SW @ Maple Crest Apartments","stop_id":"4249075"},"type":"Feature"},{"geometry":{"coordinates":[-119.71149,45.83075],"type":"Point"},"properties":{"kind":"stop","name":"Kinkade Rd & Willow Fork Dr SW","stop_id":"4249076"},"type":"Feature"},{"geometry":{"coordinates":[-119.70998,45.83138],"type":"Point"},"properties":{"kind":"stop","name":"Kinkade Rd & Cottonwood Loop","stop_id":"4249077"},"type":"Feature"},{"geometry":{"coordinates":[-119.70782,45.83157],"type":"Point"},"properties":{"kind":"stop","name":"Kinkade Rd & Blalock Ct","stop_id":"4249078"},"type":"Feature"},{"geometry":{"coordinates":[-119.70676,45.83157],"type":"Point"},"properties":{"kind":"stop","name":"Kinkade Rd & Locust Rd SW","stop_id":"4249079"},"type":"Feature"},{"geometry":{"coordinates":[-119.7028,45.83109],"type":"Point"},"properties":{"kind":"stop","name":"Tatone St SW & Kinkade Rd","stop_id":"4249080"},"type":"Feature"},{"geometry":{"coordinates":[-119.70129,45.83128],"type":"Point"},"properties":{"kind":"stop","name":"Kinkade Rd @ Murray's Drugstore","stop_id":"4249081"},"type":"Feature"},{"geometry":{"coordinates":[-119.69466,45.83215],"type":"Point"},"properties":{"kind":"stop","name":"Anderson Rd & Alvord St","stop_id":"4249082"},"type":"Feature"},{"geometry":{"coordinates":[-119.61256,45.8499],"type":"Point"},"properties":{"kind":"stop","name":"Internet Parkway","stop_id":"4249083"},"type":"Feature"},{"geometry":{"coordinates":[-119.7002,45.83697],"type":"Point"},"properties":{"kind":"stop","name":"Food Pod","stop_id":"4249084"},"type":"Feature"},{"geometry":{"coordinates":[-119.64525,45.85445],"type":"Point"},"properties":{"kind":"stop","name":"Calbee North America (72600 Lewis & Clark Dr)","stop_id":"4249085"},"type":"Feature"},{"geometry":{"coordinates":[-119.65277,45.85283],"type":"Point"},"properties":{"kind":"stop","name":"Ofi Spices/Alto Columbia","stop_id":"4249086"},"type":"Feature"},{"geometry":{"coordinates":[-119.65978,45.84635],"type":"Point"},"properties":{"kind":"stop","name":"Tillamook Processing Facility","stop_id":"4249087"},"type":"Feature"},{"geometry":{"coordinates":[-119.66283,45.84408],"type":"Point"},"properties":{"kind":"stop","name":"Boardman Foods","stop_id":"4249088"},"type":"Feature"},{"geometry":{"coordinates":[-119.67299,45.84247],"type":"Point"},"properties":{"kind":"stop","name":"Morrow Cold Storage","stop_id":"4249089"},"type":"Feature"},{"geometry":{"coordinates":[-119.67967,45.84352],"type":"Point"},"properties":{"kind":"stop","name":"Oregon Potato","stop_id":"4249090"},"type":"Feature"},{"geometry":{"coordinates":[-119.68155,45.84386],"type":"Point"},"properties":{"kind":"stop","name":"Lamb Weston West","stop_id":"4249091"},"type":"Feature"},{"geometry":{"coordinates":[-120.02417,45.7429],"type":"Point"},"properties":{"kind":"stop","name":"Ione City Park","stop_id":"4251933"},"type":"Feature"},{"geometry":{"coordinates":[-119.70251,45.83981],"type":"Point"},"properties":{"kind":"stop","name":"MCPT Office","stop_id":"4251958"},"type":"Feature"},{"geometry":{"coordinates":[-119.55819,45.36151],"type":"Point"},"properties":{"kind":"stop","name":"Riverside Park","stop_id":"4253051"},"type":"Feature"},{"geometry":{"coordinates":[-119.69889,45.8439],"type":"Point"},"properties":{"kind":"stop","name":"Columbia Ave @ Riverside Track / Softball Field","stop_id":"4253052"},"type":"Feature"},{"geometry":{"coordinates":[-119.55079,45.34406],"type":"Point"},"properties":{"kind":"stop","name":"Frank Gilliam Drive @ Willow Creek Terrace","stop_id":"4253053"},"type":"Feature"},{"geometry":{"coordinates":[-119.54835,45.35607],"type":"Point"},"properties":{"kind":"stop","name":"Thompson Ave @ Pioneer Memorial Hospital","stop_id":"4253054"},"type":"Feature"},{"geometry":{"coordinates":[-119.28775,45.85209],"type":"Point"},"properties":{"kind":"stop","name":"Walmart","stop_id":"4253055"},"type":"Feature"},{"geometry":{"coordinates":[-119.51036,45.89383],"type":"Point"},"properties":{"kind":"stop","name":"3rd St @ Idaho","stop_id":"4253056"},"type":"Feature"},{"geometry":{"coordinates":[-119.48873,45.89384],"type":"Point"},"properties":{"kind":"stop","name":"Idaho / 10th","stop_id":"4253057"},"type":"Feature"},{"geometry":{"coordinates":[-119.50126,45.8951],"type":"Point"},"properties":{"kind":"stop","name":"Irrigon Senior Center","stop_id":"4253058"},"type":"Feature"},{"geometry":{"coordinates":[-119.49269,45.89625],"type":"Point"},"properties":{"kind":"stop","name":"E Main @ Irrigon Skate Park","stop_id":"4253059"},"type":"Feature"},{"geometry":{"coordinates":[-119.49543,45.89582],"type":"Point"},"properties":{"kind":"stop","name":"E Main @ Irrigon Library","stop_id":"4253060"},"type":"Feature"},{"geometry":{"coordinates":[-119.49769,45.88662],"type":"Point"},"properties":{"kind":"stop","name":"Irrigon High","stop_id":"4253061"},"type":"Feature"},{"geometry":{"coordinates":[-119.49777,45.89445],"type":"Point"},"properties":{"kind":"stop","name":"Irrigon Shell","stop_id":"4253062"},"type":"Feature"},{"geometry":{"coordinates":[-119.49827,45.89559],"type":"Point"},"properties":{"kind":"stop","name":"Main @ Morrow County Gov Center","stop_id":"4253063"},"type":"Feature"},{"geometry":{"coordinates":[-119.49973,45.89004],"type":"Point"},"properties":{"kind":"stop","name":"1st/ California","stop_id":"4253064"},"type":"Feature"},{"geometry":{"coordinates":[-119.484,45.89564],"type":"Point"},"properties":{"kind":"stop","name":"Riverview RV Park @ Riverview/ Thirteenth","stop_id":"4253065"},"type":"Feature"},{"geometry":{"coordinates":[-119.33541,45.91787],"type":"Point"},"properties":{"kind":"stop","name":"Umatilla Stop","stop_id":"4253066"},"type":"Feature"},{"geometry":{"coordinates":[-119.54645,45.35699],"type":"Point"},"properties":{"kind":"stop","name":"Hwy 74 (Heppner Hwy) @ Morrow County Fairgrounds","stop_id":"4253067"},"type":"Feature"},{"geometry":{"coordinates":[-119.30914,45.84833],"type":"Point"},"properties":{"kind":"stop","name":"Good Shepherd Medical Clinic @ Greenspace","stop_id":"4253068"},"type":"Feature"},{"geometry":{"coordinates":[-119.49421,45.89208],"type":"Point"},"properties":{"kind":"stop","name":"E Utah Ave/ Division St","stop_id":"4253069"},"type":"Feature"},{"geometry":{"coordinates":[-119.31711,45.83517],"type":"Point"},"properties":{"kind":"stop","name":"Gotta Stop","stop_id":"4253070"},"type":"Feature"},{"geometry":{"coordinates":[-119.68991,45.83962],"type":"Point"},"properties":{"kind":"stop","name":"Front St. NE @ SplashPad","stop_id":"4253099"},"type":"Feature"},{"geometry":{"coordinates":[-119.70566,45.84411],"type":"Point"},"properties":{"kind":"stop","name":"Boardman Marina","stop_id":"4253100"},"type":"Feature"},{"geometry":{"coordinates":[-119.71275,45.84181],"type":"Point"},"properties":{"kind":"stop","name":"Marina BB Court","stop_id":"4253101"},"type":"Feature"},{"geometry":{"coordinates":[-119.70794,45.84331],"type":"Point"},"properties":{"kind":"stop","name":"Marina RV Park IB","stop_id":"4253102"},"type":"Feature"},{"geometry":{"coordinates":[-119.70728,45.84119],"type":"Point"},"properties":{"kind":"stop","name":"Columbia Ave NW @ 2nd St NW","stop_id":"4253103"},"type":"Feature"},{"geometry":{"coordinates":[-119.71303,45.83859],"type":"Point"},"properties":{"kind":"stop","name":"Boardman Ave @ Sagebrush Apartments","stop_id":"4253104"},"type":"Feature"},{"geometry":{"coordinates":[-119.69747,45.83403],"type":"Point"},"properties":{"kind":"stop","name":"Oregon Trail Blvd","stop_id":"4253105"},"type":"Feature"},{"geometry":{"coordinates":[-119.7013,45.83278],"type":"Point"},"properties":{"kind":"stop","name":"City Center Dr @ Bank Of EO","stop_id":"4253106"},"type":"Feature"},{"geometry":{"coordinates":[-119.70147,45.8208],"type":"Point"},"properties":{"kind":"stop","name":"Kunze Ln SW - West of Main St","stop_id":"4253107"},"type":"Feature"},{"geometry":{"coordinates":[-119.71818,45.82863],"type":"Point"},"properties":{"kind":"stop","name":"Mt Hood Ave @ Maple Crest Apt","stop_id":"4253108"},"type":"Feature"},{"geometry":{"coordinates":[-119.71008,45.82797],"type":"Point"},"properties":{"kind":"stop","name":"Wilson Ln @ Juniper Dr SW","stop_id":"4253109"},"type":"Feature"},{"geometry":{"coordinates":[-119.70684,45.82947],"type":"Point"},"properties":{"kind":"stop","name":"Locust Rd SW @ Food Pantry","stop_id":"4253110"},"type":"Feature"},{"geometry":{"coordinates":[-119.70324,45.82952],"type":"Point"},"properties":{"kind":"stop","name":"Willow Fork Dr @ Columbia River Health","stop_id":"4253111"},"type":"Feature"},{"geometry":{"coordinates":[-119.33556,45.91847],"type":"Point"},"properties":{"kind":"stop","name":"6th St & Yerxa Ave","stop_id":"4253112"},"type":"Feature"},{"geometry":{"coordinates":[-119.49975,45.8938],"type":"Point"},"properties":{"kind":"stop","name":"S First Ave @ The Rustic Truck","stop_id":"4253113"},"type":"Feature"},{"geometry":{"coordinates":[-119.68532,45.84095],"type":"Point"},"properties":{"kind":"stop","name":"Olson Rd @ Boardman Recreation Center","stop_id":"4254465"},"type":"Feature"},{"geometry":{"coordinates":[-119.55345,45.35744],"type":"Point"},"properties":{"kind":"stop","name":"Main St @ City Park","stop_id":"4259126"},"type":"Feature"},{"geometry":{"coordinates":[-119.5587,45.87127],"type":"Point"},"properties":{"kind":"stop","name":"Green Acres RV Park","stop_id":"4259127"},"type":"Feature"},{"geometry":{"coordinates":[-119.55887,45.87128],"type":"Point"},"properties":{"kind":"stop","name":"Green Acres RV","stop_id":"4259128"},"type":"Feature"},{"geometry":{"coordinates":[-119.53188,45.89587],"type":"Point"},"properties":{"kind":"stop","name":"Columbia Lane & West 7th Road","stop_id":"4259129"},"type":"Feature"},{"geometry":{"coordinates":[-119.53189,45.89592],"type":"Point"},"properties":{"kind":"stop","name":"Columbia Lane & West 7th Road","stop_id":"4259130"},"type":"Feature"},{"geometry":{"coordinates":[-119.51567,45.89548],"type":"Point"},"properties":{"kind":"stop","name":"Columbia Ln & 4 St","stop_id":"4259131"},"type":"Feature"},{"geometry":{"coordinates":[-119.51567,45.89551],"type":"Point"},"properties":{"kind":"stop","name":"Columbia Ln & 4 St","stop_id":"4259132"},"type":"Feature"},{"geometry":{"coordinates":[-119.50852,45.89532],"type":"Point"},"properties":{"kind":"stop","name":"Morrow Education Center","stop_id":"4259133"},"type":"Feature"},{"geometry":{"coordinates":[-119.50853,45.89527],"type":"Point"},"properties":{"kind":"stop","name":"Morrow Education Center","stop_id":"4259134"},"type":"Feature"},{"geometry":{"coordinates":[-119.70823,45.84315],"type":"Point"},"properties":{"kind":"stop","name":"Marina RV Park - Outbound","stop_id":"4259137"},"type":"Feature"},{"geometry":{"coordinates":[-119.82379,45.50143],"type":"Point"},"properties":{"kind":"stop","name":"Ione Community Church","stop_id":"4259138"},"type":"Feature"}],"type":"FeatureCollection"}
