{"features":[{"geometry":{"coordinates":[[-122.25472,38.15391],[-122.25592,38.15373],[-122.25959,38.15194],[-122.26199,38.15166],[-122.26496,38.15166],[-122.26668,38.152],[-122.26767,38.15248],[-122.26856,38.15322],[-122.26918,38.15411],[-122.27056,38.15369],[-122.27329,38.15189],[-122.27387,38.1509],[-122.27295,38.15053],[-122.26953,38.14835],[-122.2686,38.14819],[-122.26444,38.14817],[-122.26445,38.14603],[-122.26414,38.14544],[-122.26274,38.14434],[-122.26216,38.14456],[-122.26071,38.14458],[-122.26056,38.14551],[-122.25776,38.14778],[-122.25764,38.15179],[-122.25797,38.15263],[-122.25564,38.15384],[-122.25395,38.15383],[-122.25614,38.14024],[-122.25625,38.13425],[-122.25571,38.12758],[-122.25274,38.12772],[-122.25278,38.12799],[-122.25354,38.12795],[-122.25352,38.12768],[-122.25571,38.12758],[-122.25511,38.11985],[-122.24881,38.11978],[-122.24852,38.11832],[-122.24849,38.11683],[-122.24871,38.10695],[-122.2482,38.10619],[-122.24829,38.101],[-122.25495,38.10109],[-122.25499,38.1001],[-122.2599,38.10015]],"type":"LineString"},"properties":{"color":"#592E91","color_name":"purple","kind":"route","label":"1","long":"Rancho Vallejo","route_id":"1","text_color":"#FFFFFF","type_label":"Bus"},"type":"Feature"},{"geometry":{"coordinates":[[-122.25988,38.1003],[-122.25829,38.10028],[-122.25795,38.11618],[-122.25825,38.11769],[-122.26002,38.11951],[-122.25912,38.11987],[-122.25484,38.11984],[-122.25548,38.12759],[-122.25274,38.12772],[-122.25281,38.12808],[-122.25307,38.1281],[-122.25355,38.12807],[-122.25352,38.12768],[-122.25548,38.12759],[-122.25605,38.13438],[-122.256,38.13938],[-122.25583,38.14094],[-122.25377,38.15382],[-122.25155,38.15403],[-122.25145,38.14872],[-122.25074,38.14862],[-122.24967,38.14777],[-122.24645,38.15029],[-122.24475,38.15118],[-122.2408,38.15417],[-122.23899,38.15469],[-122.23609,38.15467],[-122.23557,38.15423],[-122.23479,38.15275],[-122.23472,38.15236],[-122.23573,38.1523],[-122.23527,38.15112],[-122.23442,38.15037],[-122.23387,38.14934],[-122.2345,38.14898],[-122.23341,38.1478],[-122.23486,38.14703],[-122.23376,38.14506],[-122.23467,38.14475]],"type":"LineString"},"properties":{"color":"#B72775","color_name":"pink","kind":"route","label":"2","long":"Crest","route_id":"2","text_color":"#FFFFFF","type_label":"Bus"},"type":"Feature"},{"geometry":{"coordinates":[[-122.21381,38.0822],[-122.22064,38.08409],[-122.22338,38.08265],[-122.22626,38.08397],[-122.22801,38.08554],[-122.22894,38.08592],[-122.22958,38.08585],[-122.2321,38.08468],[-122.23281,38.08525],[-122.23352,38.08531],[-122.23864,38.08242],[-122.23477,38.07846],[-122.23584,38.07787],[-122.237,38.07806],[-122.238,38.079],[-122.23889,38.08076],[-122.2401,38.08154],[-122.23855,38.08248],[-122.24724,38.09186],[-122.25504,38.09715],[-122.25916,38.09738],[-122.2612,38.09862],[-122.26129,38.09876],[-122.26004,38.09946],[-122.25999,38.1003],[-122.25845,38.10028]],"type":"LineString"},"properties":{"color":"#50A140","color_name":"green","kind":"route","label":"3","long":"South Vallejo","route_id":"3","text_color":"#FFFFFF","type_label":"Bus"},"type":"Feature"},{"geometry":{"coordinates":[[-122.25278,38.12799],[-122.25354,38.12795],[-122.25352,38.12768],[-122.25149,38.12784],[-122.25228,38.13077],[-122.25233,38.13633],[-122.24771,38.13666],[-122.24499,38.13659],[-122.24387,38.13586],[-122.24288,38.13432],[-122.24182,38.1338],[-122.24133,38.13325],[-122.24097,38.13133],[-122.23896,38.1286],[-122.23778,38.12394],[-122.23778,38.12201],[-122.23828,38.12105],[-122.23839,38.11986],[-122.23795,38.11672],[-122.23814,38.11511],[-122.23825,38.10187],[-122.24022,38.10088],[-122.25495,38.10109],[-122.25485,38.10506],[-122.26323,38.10516],[-122.26315,38.10417],[-122.25991,38.10414],[-122.25999,38.1003],[-122.25845,38.10028]],"type":"LineString"},"properties":{"color":"#00A6CE","color_name":"teal","kind":"route","label":"4","long":"Tuolumne","route_id":"4","text_color":"#FFFFFF","type_label":"Bus"},"type":"Feature"},{"geometry":{"coordinates":[[-122.25846,38.10014],[-122.26,38.10016],[-122.26004,38.09946],[-122.26129,38.09876],[-122.26172,38.09963],[-122.26542,38.10448],[-122.26611,38.10588],[-122.26613,38.10654],[-122.26581,38.10728],[-122.26459,38.10873],[-122.26441,38.10951],[-122.26454,38.11032],[-122.26762,38.11409],[-122.26896,38.11494],[-122.26996,38.11645],[-122.27117,38.11736],[-122.27098,38.11758],[-122.27098,38.11843],[-122.27023,38.12024],[-122.26848,38.12188],[-122.26699,38.12252],[-122.26491,38.12471],[-122.26215,38.12208],[-122.2607,38.12283],[-122.25917,38.12323],[-122.25764,38.12331],[-122.25508,38.12289],[-122.25548,38.12759],[-122.25274,38.12772],[-122.25278,38.12799],[-122.25354,38.12795],[-122.25352,38.12768],[-122.25146,38.12774],[-122.24435,38.12895],[-122.24365,38.1287],[-122.23931,38.1292],[-122.2389,38.12843],[-122.23838,38.12585],[-122.23783,38.12421],[-122.2378,38.12233],[-122.23767,38.12226],[-122.23645,38.12213],[-122.23275,38.12293],[-122.23107,38.12295],[-122.23122,38.1234],[-122.23104,38.12406],[-122.22946,38.12565],[-122.22931,38.13059],[-122.22994,38.13795],[-122.23034,38.13888],[-122.23152,38.14019],[-122.23058,38.14055],[-122.22786,38.14107],[-122.22759,38.14194],[-122.22769,38.14313],[-122.22899,38.14518],[-122.2334,38.14517],[-122.23467,38.14475]],"type":"LineString"},"properties":{"color":"#F47B20","color_name":"orange","kind":"route","label":"5","long":"Six Flags","route_id":"5","text_color":"#FFFFFF","type_label":"Bus"},"type":"Feature"},{"geometry":{"coordinates":[[-122.25988,38.1003],[-122.25829,38.10028],[-122.25806,38.11004],[-122.2282,38.10956],[-122.22824,38.11027],[-122.22924,38.11194],[-122.22949,38.11287],[-122.22951,38.11726],[-122.22791,38.1172],[-122.22361,38.11507],[-122.22408,38.11397],[-122.22474,38.11317],[-122.2246,38.10968],[-122.21762,38.10962],[-122.21774,38.10602],[-122.20644,38.10592],[-122.20645,38.10746],[-122.2061,38.10779],[-122.20512,38.10814],[-122.20428,38.10895],[-122.20314,38.10869],[-122.20288,38.11036],[-122.20218,38.11121],[-122.20142,38.11153],[-122.19893,38.11182],[-122.19776,38.11269],[-122.19684,38.11192],[-122.19662,38.11031],[-122.19541,38.10921],[-122.19368,38.1082],[-122.19069,38.108],[-122.18922,38.10712],[-122.18844,38.10586],[-122.1889,38.1057],[-122.19041,38.1045],[-122.19208,38.1039],[-122.19355,38.10271],[-122.19494,38.10213],[-122.19768,38.10167],[-122.2023,38.09971],[-122.20305,38.09966],[-122.20525,38.10014],[-122.21608,38.10021]],"type":"LineString"},"properties":{"color":"#666EB3","color_name":"purple","kind":"route","label":"6","long":"Tennessee","route_id":"6","text_color":"#FFFFFF","type_label":"Bus"},"type":"Feature"},{"geometry":{"coordinates":[[-122.25988,38.1003],[-122.25499,38.1001],[-122.25485,38.10505],[-122.24822,38.10496],[-122.24822,38.10629],[-122.24869,38.10695],[-122.24849,38.11683],[-122.24868,38.11978],[-122.25484,38.11984],[-122.25548,38.12759],[-122.25274,38.12772],[-122.25281,38.12808],[-122.25355,38.12807],[-122.25352,38.12768],[-122.25146,38.12774],[-122.24462,38.12893],[-122.24365,38.1287],[-122.23931,38.1292],[-122.2389,38.12843],[-122.23842,38.12602],[-122.23783,38.12421],[-122.23777,38.12233],[-122.23759,38.12223],[-122.23649,38.1221],[-122.23275,38.12293],[-122.2307,38.12289],[-122.22763,38.12346],[-122.22569,38.12318],[-122.22382,38.12248],[-122.22126,38.12207],[-122.2187,38.1224],[-122.21886,38.12484],[-122.21946,38.12548],[-122.22003,38.1252],[-122.2232,38.12505],[-122.22363,38.12561],[-122.22442,38.12595],[-122.228,38.12599],[-122.225,38.13064],[-122.2178,38.13043],[-122.21511,38.13147],[-122.21606,38.13266],[-122.21717,38.13315],[-122.2175,38.1335],[-122.21772,38.13401],[-122.21773,38.1354],[-122.21511,38.13542],[-122.21439,38.13559],[-122.21367,38.13615],[-122.21326,38.13732],[-122.21303,38.13747],[-122.20404,38.13639],[-122.20257,38.13578],[-122.19926,38.1335],[-122.20009,38.13168],[-122.2028,38.12991],[-122.20332,38.12938],[-122.20383,38.12826],[-122.2038,38.12656],[-122.20412,38.12576],[-122.20585,38.12428],[-122.20654,38.12247],[-122.20791,38.12178],[-122.20762,38.12107],[-122.20771,38.11983],[-122.20734,38.11924],[-122.2063,38.11877],[-122.2044,38.11882],[-122.20314,38.11834],[-122.20233,38.11742],[-122.20164,38.11509],[-122.19958,38.11363],[-122.19788,38.11275],[-122.19825,38.11234],[-122.19938,38.11182],[-122.2015,38.11162],[-122.20246,38.11113],[-122.203,38.11039],[-122.20327,38.10869],[-122.20428,38.10895],[-122.20512,38.10813],[-122.2061,38.10779],[-122.20644,38.10746],[-122.20644,38.10593],[-122.22842,38.10608],[-122.23139,38.10563],[-122.2332,38.10474],[-122.25485,38.10506],[-122.25502,38.09912],[-122.25751,38.09917],[-122.26,38.09955],[-122.25999,38.1003],[-122.25845,38.10028]],"type":"LineString"},"properties":{"color":"#004D91","color_name":"teal","kind":"route","label":"7A","long":"Clockwise","route_id":"7A","text_color":"#FFFFFF","type_label":"Bus"},"type":"Feature"},{"geometry":{"coordinates":[[-122.25988,38.1003],[-122.25499,38.1001],[-122.25485,38.10506],[-122.2332,38.10474],[-122.23149,38.1055],[-122.22774,38.1061],[-122.20644,38.10592],[-122.20645,38.10746],[-122.2061,38.10779],[-122.20512,38.10814],[-122.20428,38.10895],[-122.20314,38.10868],[-122.20288,38.11036],[-122.20218,38.11121],[-122.20142,38.11153],[-122.19893,38.11182],[-122.19812,38.11229],[-122.19768,38.11281],[-122.19963,38.11381],[-122.20146,38.11511],[-122.20171,38.11553],[-122.20212,38.11735],[-122.2028,38.11825],[-122.20416,38.1189],[-122.20668,38.11899],[-122.20734,38.11945],[-122.20761,38.12019],[-122.20751,38.12166],[-122.20634,38.12247],[-122.20562,38.12432],[-122.20421,38.12542],[-122.20375,38.12613],[-122.20365,38.12827],[-122.20331,38.12908],[-122.20272,38.12976],[-122.2001,38.13145],[-122.19878,38.13352],[-122.20247,38.1359],[-122.20398,38.13652],[-122.21333,38.1377],[-122.21368,38.13636],[-122.21434,38.13573],[-122.21512,38.13552],[-122.21787,38.13549],[-122.21784,38.13375],[-122.21737,38.13311],[-122.21602,38.13246],[-122.21535,38.13154],[-122.21746,38.13067],[-122.2182,38.13055],[-122.21989,38.13072],[-122.2251,38.1307],[-122.228,38.12599],[-122.22442,38.12595],[-122.22363,38.12561],[-122.2232,38.12505],[-122.22003,38.1252],[-122.21946,38.12548],[-122.21886,38.12484],[-122.21876,38.12252],[-122.22151,38.1222],[-122.22376,38.12257],[-122.22548,38.12326],[-122.22782,38.12358],[-122.23082,38.12297],[-122.23275,38.12293],[-122.23605,38.12224],[-122.2378,38.12233],[-122.23783,38.12421],[-122.23833,38.12567],[-122.23896,38.1286],[-122.2393,38.1292],[-122.24365,38.1287],[-122.24462,38.12893],[-122.25169,38.12775],[-122.25571,38.12758],[-122.25511,38.11985],[-122.24881,38.11978],[-122.24852,38.11832],[-122.24849,38.11683],[-122.24871,38.10695],[-122.24823,38.10629],[-122.24822,38.10496],[-122.25485,38.10506],[-122.25502,38.09912],[-122.25751,38.09917],[-122.26,38.09955],[-122.25999,38.1003],[-122.25845,38.10028]],"type":"LineString"},"properties":{"color":"#004D91","color_name":"teal","kind":"route","label":"7B","long":"Counterclockwise","route_id":"7B","text_color":"#FFFFFF","type_label":"Bus"},"type":"Feature"},{"geometry":{"coordinates":[[-122.21577,38.10021],[-122.21794,38.09987],[-122.21774,38.10602],[-122.20902,38.10595],[-122.20905,38.10308],[-122.20931,38.10225],[-122.20936,38.09738],[-122.20868,38.09593],[-122.20863,38.09276],[-122.20811,38.09161],[-122.208,38.09082],[-122.20849,38.08905],[-122.2097,38.0874],[-122.20996,38.08617],[-122.21061,38.08525],[-122.21198,38.08425],[-122.21247,38.08326],[-122.21258,38.08255],[-122.21227,38.08158],[-122.21238,38.08151],[-122.21154,38.08035],[-122.21124,38.07847],[-122.21052,38.07692],[-122.20985,38.07631],[-122.20807,38.07584],[-122.20735,38.07545],[-122.20689,38.07487],[-122.20678,38.07422],[-122.20726,38.07326],[-122.20854,38.07248],[-122.20933,38.07126],[-122.21003,38.07094],[-122.21209,38.07096],[-122.21422,38.07161],[-122.21595,38.07116],[-122.217,38.07109],[-122.21793,38.07124],[-122.21961,38.07188],[-122.22073,38.07178],[-122.22132,38.07147],[-122.22208,38.07048],[-122.22207,38.07019],[-122.22134,38.06923],[-122.22207,38.07019],[-122.22208,38.07048],[-122.22132,38.07147],[-122.22073,38.07178],[-122.21961,38.07188],[-122.21793,38.07124],[-122.217,38.07109],[-122.21595,38.07116],[-122.21422,38.07161],[-122.21209,38.07096],[-122.21003,38.07094],[-122.20946,38.07114],[-122.20867,38.07229],[-122.20758,38.07287],[-122.20688,38.07353],[-122.20669,38.07462],[-122.20722,38.07549],[-122.20817,38.07599],[-122.20973,38.07637],[-122.21044,38.07703],[-122.21111,38.07853],[-122.21146,38.08044],[-122.21227,38.08158],[-122.21258,38.08255],[-122.21247,38.08326],[-122.21198,38.08425],[-122.21,38.08584],[-122.20958,38.08739],[-122.20849,38.08905],[-122.21078,38.09022],[-122.21219,38.09069],[-122.22788,38.09431],[-122.22991,38.09443],[-122.23137,38.09504],[-122.24107,38.09728],[-122.24229,38.09779],[-122.24332,38.09895],[-122.25669,38.09915],[-122.25668,38.10013],[-122.2599,38.10015]],"type":"LineString"},"properties":{"color":"#009577","color_name":"teal","kind":"route","label":"8","long":"Glen Cove","route_id":"8","text_color":"#FFFFFF","type_label":"Bus"},"type":"Feature"},{"geometry":{"coordinates":[[-122.06874,38.24839],[-122.06837,38.24931],[-122.06817,38.24915],[-122.06858,38.24823],[-122.06923,38.24852],[-122.07023,38.24806],[-122.0713,38.24791],[-122.07261,38.24733],[-122.07793,38.24578],[-122.08129,38.24432],[-122.08195,38.24374],[-122.08256,38.24241],[-122.08474,38.24109],[-122.08419,38.24026],[-122.08825,38.23985],[-122.09272,38.24002],[-122.09531,38.2394],[-122.09978,38.23682],[-122.1193,38.22832],[-122.12641,38.22457],[-122.13651,38.21776],[-122.14122,38.2148],[-122.14923,38.20901],[-122.16447,38.19579],[-122.16901,38.19091],[-122.17066,38.1895],[-122.17377,38.18782],[-122.1793,38.18606],[-122.18209,38.1846],[-122.18529,38.18173],[-122.18876,38.17956],[-122.19,38.17857],[-122.19328,38.17462],[-122.19446,38.17352],[-122.20765,38.16438],[-122.20886,38.16331],[-122.21603,38.15325],[-122.21693,38.15044],[-122.21686,38.14643],[-122.21704,38.14499],[-122.21752,38.14354],[-122.22842,38.12623],[-122.22999,38.12325],[-122.23038,38.12165],[-122.23048,38.12011],[-122.22976,38.11086],[-122.22993,38.0957],[-122.23049,38.09314],[-122.23234,38.09232],[-122.23336,38.09242],[-122.24003,38.09409],[-122.24187,38.09486],[-122.24373,38.09527],[-122.24434,38.09561],[-122.24545,38.09667],[-122.24645,38.09703],[-122.25504,38.09715],[-122.25499,38.1001],[-122.26,38.10016],[-122.26004,38.09946],[-122.26141,38.0987],[-122.25968,38.09747],[-122.25897,38.09723],[-122.24619,38.0969],[-122.2455,38.09658],[-122.24428,38.09546],[-122.24365,38.09513],[-122.24196,38.09479],[-122.23994,38.09396],[-122.23524,38.09283],[-122.23275,38.09195],[-122.23242,38.09171],[-122.23211,38.09101],[-122.23133,38.09059],[-122.23124,38.09019],[-122.23329,38.08422],[-122.23346,38.08241],[-122.23335,38.08039],[-122.23291,38.07844],[-122.23225,38.07676],[-122.23138,38.07525],[-122.22852,38.07141],[-122.22683,38.06765],[-122.22599,38.0557],[-122.22629,38.05445],[-122.22727,38.05327],[-122.23295,38.04894],[-122.2418,38.04275],[-122.24771,38.03838],[-122.28441,37.99891],[-122.28643,37.99698],[-122.28831,37.99587],[-122.29077,37.99504],[-122.30383,37.99318],[-122.30664,37.99253],[-122.30949,37.99133],[-122.31246,37.98943],[-122.31467,37.98704],[-122.31594,37.98478],[-122.31659,37.98212],[-122.32157,37.96747],[-122.323,37.96595],[-122.32752,37.96351],[-122.3289,37.96254],[-122.33031,37.9609],[-122.33077,37.95945],[-122.33071,37.95786],[-122.33031,37.95661],[-122.32792,37.95235],[-122.32409,37.94427],[-122.32388,37.94334],[-122.32412,37.94151],[-122.32685,37.93599],[-122.327,37.93495],[-122.3268,37.93387],[-122.32274,37.9277],[-122.31806,37.92108],[-122.31763,37.91967],[-122.31752,37.91171],[-122.3172,37.91031],[-122.3168,37.90949],[-122.31043,37.90023],[-122.30773,37.8939],[-122.30757,37.89223],[-122.30775,37.89123],[-122.30913,37.88835],[-122.30931,37.88685],[-122.30916,37.88589],[-122.30724,37.87764],[-122.30398,37.86711],[-122.29999,37.85297],[-122.29831,37.84598],[-122.29662,37.83762],[-122.29431,37.83224],[-122.29403,37.83026],[-122.29421,37.82923],[-122.29513,37.82811],[-122.29617,37.82756],[-122.30477,37.82552],[-122.30884,37.82503],[-122.31384,37.82478],[-122.31807,37.82391],[-122.32233,37.82271],[-122.33227,37.82174],[-122.35011,37.81918],[-122.35216,37.81872],[-122.35378,37.81811],[-122.36056,37.81433],[-122.36182,37.81341],[-122.3637,37.81141],[-122.3905,37.78645],[-122.39111,37.78592],[-122.39282,37.78515],[-122.39376,37.7851],[-122.39466,37.78541],[-122.39593,37.78642],[-122.39601,37.78706],[-122.39441,37.78838],[-122.3941,37.78838],[-122.39363,37.788],[-122.38992,37.79092],[-122.39106,37.79264],[-122.39335,37.79469],[-122.39529,37.7968],[-122.39556,37.79663],[-122.39511,37.79611]],"type":"LineString"},"properties":{"color":"#F47B20","color_name":"orange","kind":"route","label":"82","long":"SF Express","route_id":"82","text_color":"#FFFFFF","type_label":"Bus"},"type":"Feature"},{"geometry":{"coordinates":[[-121.74846,38.53457],[-121.74831,38.53404],[-121.75035,38.53368],[-121.75146,38.53328],[-121.7519,38.53333],[-121.75657,38.53119],[-121.75698,38.5307],[-121.75705,38.52956],[-121.75842,38.529],[-121.76188,38.52701],[-121.76512,38.52469],[-121.80253,38.48989],[-121.83739,38.46256],[-121.83928,38.46141],[-121.84092,38.46129],[-121.84098,38.45545],[-121.84367,38.45548],[-121.84372,38.45562],[-121.84358,38.45634],[-121.84244,38.45712],[-121.84096,38.45724],[-121.84092,38.46129],[-121.84015,38.46122],[-121.83995,38.46085],[-121.84143,38.45942],[-121.8675,38.43914],[-121.91707,38.40143],[-121.93658,38.38621],[-121.94562,38.37966],[-121.95394,38.3731],[-121.95737,38.37007],[-121.96023,38.3679],[-121.96296,38.36619],[-121.96397,38.36623],[-121.96432,38.36536],[-121.96514,38.36464],[-121.97015,38.36253],[-121.96627,38.35856],[-121.96536,38.35913],[-121.96467,38.35853],[-121.96463,38.35821],[-121.96554,38.35901],[-121.96647,38.35845],[-121.97021,38.36236],[-121.9671,38.36365],[-121.96707,38.3633],[-121.969,38.36187],[-121.97418,38.35859],[-121.97878,38.35433],[-121.98092,38.35288],[-122.00311,38.34418],[-122.01038,38.34189],[-122.01264,38.34077],[-122.01479,38.33915],[-122.01661,38.337],[-122.02525,38.32348],[-122.03131,38.31658],[-122.03263,38.31433],[-122.03303,38.31302],[-122.03387,38.30777],[-122.03422,38.29371],[-122.03438,38.29257],[-122.03488,38.29129],[-122.03549,38.29035],[-122.06339,38.25739],[-122.07056,38.24977],[-122.06626,38.24931],[-122.06628,38.2475],[-122.06722,38.24764],[-122.06879,38.24833],[-122.06837,38.24931],[-122.06817,38.24915],[-122.06858,38.24823],[-122.06923,38.24852],[-122.07023,38.24806],[-122.0713,38.24791],[-122.07261,38.24733],[-122.07793,38.24578],[-122.08129,38.24432],[-122.08195,38.24374],[-122.08256,38.24241],[-122.08474,38.24109],[-122.08849,38.24345],[-122.09021,38.24377],[-122.09184,38.24355],[-122.09338,38.24274],[-122.09574,38.24018],[-122.0995,38.23802],[-122.10374,38.23623],[-122.10735,38.23589],[-122.10867,38.23552],[-122.10994,38.23468],[-122.11109,38.23311],[-122.11206,38.23247],[-122.11772,38.23145],[-122.11851,38.23098],[-122.12036,38.22932],[-122.12154,38.22885],[-122.12343,38.22867],[-122.12518,38.22891],[-122.12616,38.22874],[-122.12663,38.22936],[-122.12879,38.22987],[-122.12942,38.22858],[-122.12968,38.2272],[-122.13412,38.22733],[-122.13506,38.22683],[-122.13643,38.22482],[-122.13711,38.22434],[-122.14485,38.22268],[-122.1424,38.21906],[-122.13924,38.21667],[-122.13836,38.2155],[-122.13819,38.21467],[-122.13833,38.21397],[-122.14034,38.21362],[-122.1408,38.21379],[-122.14091,38.21401],[-122.14075,38.2143],[-122.13912,38.21538],[-122.1384,38.2154],[-122.13804,38.21494],[-122.13799,38.20801],[-122.13817,38.20445],[-122.13797,38.19117],[-122.13776,38.18936],[-122.13724,38.18786],[-122.12941,38.17383],[-122.11513,38.15708],[-122.11422,38.15535],[-122.11011,38.14545],[-122.10976,38.14428],[-122.1096,38.1427],[-122.10976,38.14115],[-122.1105,38.13793],[-122.11042,38.13569],[-122.10987,38.1341],[-122.10806,38.13076],[-122.1076,38.12922],[-122.10624,38.11921],[-122.10642,38.11418],[-122.10627,38.11276],[-122.10556,38.11089],[-122.10395,38.10824],[-122.10334,38.1061],[-122.10335,38.10466],[-122.10364,38.10332],[-122.1073,38.09222],[-122.10834,38.09033],[-122.11326,38.08444],[-122.11897,38.07903],[-122.12592,38.07072],[-122.12829,38.06834],[-122.12871,38.06859],[-122.12904,38.06837],[-122.12919,38.06745],[-122.12956,38.06696],[-122.13193,38.06533],[-122.1313,38.06478],[-122.13171,38.06344],[-122.1316,38.06162],[-122.13005,38.0581],[-122.12977,38.05691],[-122.12982,38.05554],[-122.13062,38.0525],[-122.1306,38.05119],[-122.13037,38.05028],[-122.12988,38.04926],[-122.12871,38.04769],[-122.11794,38.03433],[-122.11724,38.03282],[-122.11715,38.03019],[-122.11694,38.02916],[-122.11646,38.02816],[-122.11565,38.02724],[-122.11395,38.02614],[-122.09763,38.01949],[-122.09669,38.01897],[-122.09548,38.01803],[-122.089,38.01134],[-122.0836,38.00628],[-122.07614,37.99954],[-122.06939,37.99394],[-122.06824,37.99223],[-122.06792,37.99141],[-122.06545,37.97939],[-122.06455,37.97676],[-122.06338,37.97482],[-122.05602,37.96576],[-122.05524,37.96458],[-122.05273,37.9597],[-122.05259,37.95819],[-122.05294,37.95682],[-122.05608,37.95049],[-122.06025,37.94057],[-122.06049,37.93883],[-122.06041,37.93026],[-122.06093,37.92502],[-122.0613,37.92331],[-122.06231,37.92065],[-122.06429,37.91772],[-122.0664,37.91591],[-122.06703,37.91602],[-122.06721,37.91646],[-122.06702,37.91675],[-122.06664,37.91688],[-122.06621,37.91677],[-122.06596,37.91642],[-122.06546,37.91089],[-122.06485,37.90765],[-122.06587,37.90754],[-122.06703,37.90771],[-122.06841,37.90749],[-122.06905,37.90566],[-122.06789,37.90532],[-122.06902,37.90576]],"type":"LineString"},"properties":{"color":"#004D91","color_name":"teal","kind":"route","label":"B","long":"Blue Line","route_id":"B","text_color":"#FFFFFF","type_label":"Bus"},"type":"Feature"},{"geometry":{"coordinates":[[-122.06874,38.24839],[-122.06846,38.24923],[-122.06824,38.2493],[-122.06858,38.24823],[-122.06727,38.24753],[-122.06628,38.24741],[-122.06643,38.24027],[-122.05579,38.24063],[-122.04967,38.2413],[-122.03937,38.244],[-122.03867,38.24376],[-122.03849,38.24337],[-122.03874,38.24301],[-122.04058,38.24289],[-122.04057,38.2436],[-122.04092,38.24361],[-122.04165,38.24261],[-122.04058,38.24254],[-122.04057,38.2436],[-122.04029,38.24431],[-122.03913,38.24548],[-122.03866,38.24567],[-122.03781,38.24559],[-122.03793,38.24494],[-122.03821,38.24469],[-122.04899,38.24154],[-122.05581,38.24078],[-122.06572,38.24044],[-122.06629,38.24068],[-122.06638,38.24155],[-122.06628,38.2475],[-122.06722,38.24764],[-122.06928,38.24851],[-122.07023,38.24806],[-122.0713,38.24791],[-122.07261,38.24733],[-122.07793,38.24578],[-122.08129,38.24432],[-122.08195,38.24374],[-122.08256,38.24241],[-122.08474,38.24109],[-122.08419,38.24026],[-122.08825,38.23985],[-122.09272,38.24002],[-122.09496,38.23954],[-122.09978,38.23682],[-122.11998,38.228],[-122.12498,38.22541],[-122.12909,38.2229],[-122.13651,38.21776],[-122.13996,38.21565],[-122.14707,38.21067],[-122.15023,38.20819],[-122.16447,38.19579],[-122.16757,38.19239],[-122.1703,38.18977],[-122.17307,38.18812],[-122.1793,38.18606],[-122.18209,38.1846],[-122.18529,38.18173],[-122.18876,38.17956],[-122.19,38.17857],[-122.19328,38.17462],[-122.19446,38.17352],[-122.20765,38.16438],[-122.2096,38.16245],[-122.21534,38.1544],[-122.21632,38.15262],[-122.21693,38.15044],[-122.21693,38.14561],[-122.21768,38.1432],[-122.22918,38.12499],[-122.22999,38.12325],[-122.23034,38.1219],[-122.23047,38.11986],[-122.22974,38.11011],[-122.22993,38.0957],[-122.23063,38.09185],[-122.23311,38.08498],[-122.23342,38.08317],[-122.23345,38.08133],[-122.23307,38.07898],[-122.23225,38.07676],[-122.22841,38.07121],[-122.22683,38.06765],[-122.22599,38.0557],[-122.22629,38.05445],[-122.22727,38.05327],[-122.23295,38.04894],[-122.2418,38.04275],[-122.24771,38.03838],[-122.2844,37.99891],[-122.28643,37.99698],[-122.28831,37.99587],[-122.29077,37.99504],[-122.30383,37.99318],[-122.30664,37.99253],[-122.30949,37.99133],[-122.31217,37.98963],[-122.31467,37.98704],[-122.31594,37.98478],[-122.31771,37.97871],[-122.32157,37.96747],[-122.323,37.96595],[-122.32752,37.96351],[-122.32925,37.96223],[-122.33039,37.96074],[-122.3308,37.95882],[-122.33062,37.95744],[-122.33031,37.95661],[-122.32792,37.95235],[-122.32409,37.94427],[-122.32388,37.94334],[-122.32412,37.94151],[-122.32685,37.93599],[-122.327,37.93495],[-122.3268,37.93387],[-122.32274,37.9277],[-122.32157,37.92552],[-122.31856,37.92536],[-122.31737,37.92592],[-122.31596,37.92418],[-122.31624,37.92405],[-122.31658,37.92424],[-122.31706,37.92486]],"type":"LineString"},"properties":{"color":"#50A140","color_name":"green","kind":"route","label":"G","long":"Green Line","route_id":"G","text_color":"#FFFFFF","type_label":"Bus"},"type":"Feature"},{"geometry":{"coordinates":[[-122.04144,38.24292],[-122.04165,38.24254],[-122.04058,38.24254],[-122.04057,38.2436],[-122.04029,38.24431],[-122.03913,38.24548],[-122.03866,38.24567],[-122.03781,38.24559],[-122.03793,38.24494],[-122.03821,38.24469],[-122.04899,38.24154],[-122.05581,38.24078],[-122.06606,38.24051],[-122.06629,38.24068],[-122.06638,38.24155],[-122.06628,38.2475],[-122.06722,38.24764],[-122.06879,38.24833],[-122.06837,38.24931],[-122.06817,38.24915],[-122.06858,38.24823],[-122.06918,38.24853],[-122.07023,38.24806],[-122.0713,38.24791],[-122.07261,38.24733],[-122.07793,38.24578],[-122.08129,38.24432],[-122.08195,38.24374],[-122.08256,38.24241],[-122.08474,38.24109],[-122.08849,38.24345],[-122.09021,38.24377],[-122.09184,38.24355],[-122.09338,38.24274],[-122.09574,38.24018],[-122.0995,38.23802],[-122.10372,38.23624],[-122.10735,38.23589],[-122.10867,38.23552],[-122.10994,38.23468],[-122.11109,38.23311],[-122.11206,38.23247],[-122.11772,38.23145],[-122.11851,38.23098],[-122.12036,38.22932],[-122.12154,38.22885],[-122.12343,38.22867],[-122.12518,38.22891],[-122.12616,38.22874],[-122.12663,38.22936],[-122.12879,38.22987],[-122.12942,38.22858],[-122.12968,38.2272],[-122.13412,38.22733],[-122.1352,38.22669],[-122.13643,38.22482],[-122.13711,38.22434],[-122.14485,38.22268],[-122.1424,38.21906],[-122.13921,38.21668],[-122.14317,38.2138],[-122.14632,38.21208],[-122.14863,38.20938],[-122.15082,38.20771],[-122.16447,38.19579],[-122.16757,38.19239],[-122.1703,38.18977],[-122.17307,38.18812],[-122.1793,38.18606],[-122.18209,38.1846],[-122.18529,38.18173],[-122.18876,38.17956],[-122.19,38.17857],[-122.19328,38.17462],[-122.19446,38.17352],[-122.2083,38.16385],[-122.2096,38.16245],[-122.21603,38.15325],[-122.21693,38.15044],[-122.21686,38.14643],[-122.21768,38.14381],[-122.21879,38.14249],[-122.2199,38.14188],[-122.22119,38.14156],[-122.22647,38.14148],[-122.2384,38.14153],[-122.24985,38.14272],[-122.25576,38.14233],[-122.2562,38.13938],[-122.25621,38.13348],[-122.25497,38.1182],[-122.25483,38.11812],[-122.25437,38.11515],[-122.25463,38.11391],[-122.25499,38.1001],[-122.26,38.10016],[-122.26005,38.09946],[-122.26141,38.0987],[-122.25968,38.09747],[-122.25897,38.09723],[-122.24618,38.09689],[-122.24551,38.09658],[-122.24428,38.09546],[-122.24365,38.09513],[-122.24196,38.09478],[-122.24003,38.09399],[-122.23524,38.09283],[-122.23275,38.09195],[-122.23242,38.09171],[-122.23211,38.09101],[-122.23126,38.09052],[-122.23124,38.09019],[-122.23329,38.08422],[-122.23346,38.08241],[-122.23335,38.08039],[-122.23291,38.07844],[-122.23225,38.07676],[-122.23138,38.07525],[-122.22852,38.07141],[-122.22688,38.06784],[-122.226,38.05597],[-122.22607,38.05501],[-122.22643,38.05421],[-122.22727,38.05327],[-122.23295,38.04894],[-122.2418,38.04275],[-122.24771,38.03838],[-122.28441,37.99891],[-122.28643,37.99698],[-122.28831,37.99587],[-122.29077,37.99504],[-122.30383,37.99318],[-122.30664,37.99253],[-122.30949,37.99133],[-122.31217,37.98963],[-122.31467,37.98704],[-122.31594,37.98478],[-122.31659,37.98212],[-122.32157,37.96747],[-122.323,37.96595],[-122.32752,37.96351],[-122.32925,37.96223],[-122.33039,37.96074],[-122.3308,37.95882],[-122.33062,37.95744],[-122.33031,37.95661],[-122.32792,37.95235],[-122.32409,37.94427],[-122.32388,37.94334],[-122.32412,37.94151],[-122.32685,37.93599],[-122.327,37.93495],[-122.3268,37.93387],[-122.32274,37.9277],[-122.32157,37.92552],[-122.31856,37.92536],[-122.31737,37.92592],[-122.31596,37.92418],[-122.31624,37.92405],[-122.31694,37.9247]],"type":"LineString"},"properties":{"color":"#D63029","color_name":"red","kind":"route","label":"R","long":"Red Line","route_id":"R","text_color":"#FFFFFF","type_label":"Bus"},"type":"Feature"},{"geometry":{"coordinates":[[-122.06902,37.90564],[-122.06789,37.90532],[-122.06903,37.90577],[-122.06841,37.90749],[-122.06703,37.90771],[-122.06587,37.90754],[-122.06472,37.90767],[-122.06512,37.90977],[-122.06444,37.91124],[-122.06403,37.91293],[-122.06396,37.91426],[-122.06446,37.91575],[-122.06447,37.9163],[-122.06276,37.91878],[-122.06191,37.92061],[-122.06092,37.92361],[-122.06045,37.92613],[-122.06,37.93355],[-122.06017,37.93909],[-122.05981,37.94116],[-122.0548,37.95266],[-122.05296,37.95633],[-122.05242,37.95838],[-122.05255,37.9598],[-122.05531,37.96566],[-122.05581,37.96638],[-122.06082,37.9631],[-122.06151,37.96278],[-122.06187,37.96299],[-122.06326,37.97035],[-122.0643,37.97453],[-122.06478,37.97561],[-122.06163,37.9778],[-122.0611,37.97766],[-122.06016,37.97655],[-122.06294,37.97523],[-122.0634,37.97545],[-122.0645,37.97706],[-122.06522,37.97918],[-122.06776,37.99172],[-122.06854,37.99316],[-122.06951,37.9944],[-122.07611,37.99977],[-122.08445,38.00735],[-122.08807,38.01071],[-122.09444,38.01727],[-122.09628,38.01893],[-122.09718,38.01947],[-122.11221,38.02568],[-122.11539,38.02775],[-122.1162,38.02875],[-122.11663,38.03003],[-122.11675,38.03455],[-122.11699,38.03577],[-122.11761,38.03729],[-122.12618,38.04858],[-122.12797,38.05055],[-122.12869,38.05103],[-122.12973,38.05136],[-122.13059,38.05141],[-122.13901,38.05026],[-122.14079,38.05027],[-122.14194,38.05052],[-122.14332,38.05116],[-122.14411,38.05197],[-122.14506,38.05339],[-122.14688,38.05092],[-122.15304,38.0537],[-122.15561,38.05392],[-122.15624,38.05414],[-122.16633,38.05875],[-122.18267,38.06815],[-122.18295,38.06863],[-122.18282,38.0695],[-122.18305,38.06996],[-122.1845,38.07056],[-122.18561,38.07167],[-122.19194,38.0795],[-122.19435,38.08152],[-122.19747,38.08323],[-122.19967,38.08402],[-122.20189,38.08456],[-122.21453,38.08655],[-122.22043,38.08889],[-122.23669,38.09332],[-122.237,38.09339],[-122.23726,38.09311],[-122.23807,38.0933],[-122.23805,38.09363],[-122.24392,38.09535],[-122.24526,38.09654],[-122.24616,38.09698],[-122.25731,38.09717],[-122.25916,38.09738],[-122.2612,38.09862],[-122.26172,38.09963],[-122.26273,38.10093],[-122.26205,38.10119],[-122.25998,38.10116],[-122.26,38.09955],[-122.25839,38.09932],[-122.2583,38.10016],[-122.2599,38.10015]],"type":"LineString"},"properties":{"color":"#FDB415","color_name":"yellow","kind":"route","label":"Y","long":"Yellow Line","route_id":"Y","text_color":"#FFFFFF","type_label":"Bus"},"type":"Feature"},{"geometry":{"coordinates":[-122.23731,38.11603],"type":"Point"},"properties":{"kind":"stop","name":"Tuolumne & Tennessee","stop_id":"-288"},"type":"Feature"},{"geometry":{"coordinates":[-122.25343,38.12797],"type":"Point"},"properties":{"kind":"stop","name":"Sereno Transit Center","stop_id":"-325"},"type":"Feature"},{"geometry":{"coordinates":[-122.31691,37.92475],"type":"Point"},"properties":{"kind":"stop","name":"DELN","stop_id":"-480"},"type":"Feature"},{"geometry":{"coordinates":[-122.23488,38.11018],"type":"Point"},"properties":{"kind":"stop","name":"Adm Callaghan & Tennessee","stop_id":"-80"},"type":"Feature"},{"geometry":{"coordinates":[-122.23323,38.09538],"type":"Point"},"properties":{"kind":"stop","name":"Benicia Rd & Carquinez St","stop_id":"100"},"type":"Feature"},{"geometry":{"coordinates":[-122.22546,38.09367],"type":"Point"},"properties":{"kind":"stop","name":"Benicia Rd & Cedar St","stop_id":"101"},"type":"Feature"},{"geometry":{"coordinates":[-122.2191,38.0922],"type":"Point"},"properties":{"kind":"stop","name":"Benicia Rd & Home Acres Ave","stop_id":"102"},"type":"Feature"},{"geometry":{"coordinates":[-122.22262,38.09302],"type":"Point"},"properties":{"kind":"stop","name":"Benicia Rd & Maple Ave","stop_id":"103"},"type":"Feature"},{"geometry":{"coordinates":[-122.24254,38.0979],"type":"Point"},"properties":{"kind":"stop","name":"Benicia Rd & Solano Ave","stop_id":"104"},"type":"Feature"},{"geometry":{"coordinates":[-122.20978,38.08964],"type":"Point"},"properties":{"kind":"stop","name":"Benicia Rd & Rollingwood Dr","stop_id":"105"},"type":"Feature"},{"geometry":{"coordinates":[-122.23526,38.09585],"type":"Point"},"properties":{"kind":"stop","name":"Benicia Rd & Starr Ave","stop_id":"106"},"type":"Feature"},{"geometry":{"coordinates":[-122.21609,38.09152],"type":"Point"},"properties":{"kind":"stop","name":"Benicia Rd & Taylor Ave","stop_id":"107"},"type":"Feature"},{"geometry":{"coordinates":[-122.25222,38.13405],"type":"Point"},"properties":{"kind":"stop","name":"Broadway St & 1850 Garage","stop_id":"108"},"type":"Feature"},{"geometry":{"coordinates":[-122.25245,38.13432],"type":"Point"},"properties":{"kind":"stop","name":"Broadway St & Ash St","stop_id":"109"},"type":"Feature"},{"geometry":{"coordinates":[-122.25247,38.13244],"type":"Point"},"properties":{"kind":"stop","name":"Broadway St & Garibaldi Dr (Park Place)","stop_id":"111"},"type":"Feature"},{"geometry":{"coordinates":[-122.25226,38.13197],"type":"Point"},"properties":{"kind":"stop","name":"Broadway St & Garibaldi Dr (Park Place)","stop_id":"112"},"type":"Feature"},{"geometry":{"coordinates":[-122.24857,38.10778],"type":"Point"},"properties":{"kind":"stop","name":"Broadway St & Louisiana St","stop_id":"115"},"type":"Feature"},{"geometry":{"coordinates":[-122.24841,38.11487],"type":"Point"},"properties":{"kind":"stop","name":"Broadway St & Vallejo High School","stop_id":"119"},"type":"Feature"},{"geometry":{"coordinates":[-122.24863,38.1142],"type":"Point"},"properties":{"kind":"stop","name":"Broadway St & Nebraska St","stop_id":"120"},"type":"Feature"},{"geometry":{"coordinates":[-122.24844,38.11853],"type":"Point"},"properties":{"kind":"stop","name":"Broadway St & Oregon St","stop_id":"121"},"type":"Feature"},{"geometry":{"coordinates":[-122.2486,38.11798],"type":"Point"},"properties":{"kind":"stop","name":"Broadway St & Oregon St","stop_id":"122"},"type":"Feature"},{"geometry":{"coordinates":[-122.24871,38.11006],"type":"Point"},"properties":{"kind":"stop","name":"Broadway St & Tennessee St","stop_id":"124"},"type":"Feature"},{"geometry":{"coordinates":[-122.24851,38.11036],"type":"Point"},"properties":{"kind":"stop","name":"Broadway St & Tennessee St","stop_id":"125"},"type":"Feature"},{"geometry":{"coordinates":[-122.26333,38.10455],"type":"Point"},"properties":{"kind":"stop","name":"Butte St & Confunkshun St","stop_id":"126"},"type":"Feature"},{"geometry":{"coordinates":[-122.23495,38.15078],"type":"Point"},"properties":{"kind":"stop","name":"Christopher Way & Lillean Way","stop_id":"134"},"type":"Feature"},{"geometry":{"coordinates":[-122.19893,38.11178],"type":"Point"},"properties":{"kind":"stop","name":"Columbus Pkwy & Ascot Pkwy","stop_id":"135"},"type":"Feature"},{"geometry":{"coordinates":[-122.20188,38.13524],"type":"Point"},"properties":{"kind":"stop","name":"Columbus Pkwy & Solano College Entrance","stop_id":"136"},"type":"Feature"},{"geometry":{"coordinates":[-122.23547,38.15383],"type":"Point"},"properties":{"kind":"stop","name":"Corcoran Ave & Belfast Dr","stop_id":"138"},"type":"Feature"},{"geometry":{"coordinates":[-122.23994,38.15446],"type":"Point"},"properties":{"kind":"stop","name":"Corcoran Ave & Solano Middle School","stop_id":"139"},"type":"Feature"},{"geometry":{"coordinates":[-122.24474,38.15111],"type":"Point"},"properties":{"kind":"stop","name":"Corcoran Ave & Rainier Ave","stop_id":"141"},"type":"Feature"},{"geometry":{"coordinates":[-122.23762,38.09329],"type":"Point"},"properties":{"kind":"stop","name":"Curtola Park & Ride","stop_id":"146"},"type":"Feature"},{"geometry":{"coordinates":[-122.25272,38.09699],"type":"Point"},"properties":{"kind":"stop","name":"Curtola Pkwy & Napa St","stop_id":"147"},"type":"Feature"},{"geometry":{"coordinates":[-122.25198,38.09718],"type":"Point"},"properties":{"kind":"stop","name":"Curtola Pkwy & Napa St","stop_id":"148"},"type":"Feature"},{"geometry":{"coordinates":[-122.2708,38.11888],"type":"Point"},"properties":{"kind":"stop","name":"Daniels Ave & B St","stop_id":"149"},"type":"Feature"},{"geometry":{"coordinates":[-122.27064,38.11892],"type":"Point"},"properties":{"kind":"stop","name":"Daniels Ave & B St","stop_id":"150"},"type":"Feature"},{"geometry":{"coordinates":[-122.2678,38.12204],"type":"Point"},"properties":{"kind":"stop","name":"Daniels Ave & Rodgers St","stop_id":"151"},"type":"Feature"},{"geometry":{"coordinates":[-122.26857,38.12186],"type":"Point"},"properties":{"kind":"stop","name":"Daniels Ave & Rodgers St","stop_id":"152"},"type":"Feature"},{"geometry":{"coordinates":[-122.14598,38.052],"type":"Point"},"properties":{"kind":"stop","name":"East 5th St & East N St","stop_id":"158"},"type":"Feature"},{"geometry":{"coordinates":[-122.21773,38.10446],"type":"Point"},"properties":{"kind":"stop","name":"Oakwood Ave & Westwood St","stop_id":"16"},"type":"Feature"},{"geometry":{"coordinates":[-122.2576,38.15029],"type":"Point"},"properties":{"kind":"stop","name":"Elliott Dr & Dillon Dr","stop_id":"160"},"type":"Feature"},{"geometry":{"coordinates":[-122.25778,38.14763],"type":"Point"},"properties":{"kind":"stop","name":"Elliott Dr & Meadows Dr","stop_id":"162"},"type":"Feature"},{"geometry":{"coordinates":[-122.23006,38.13681],"type":"Point"},"properties":{"kind":"stop","name":"Six Flags Discovery Kingdom","stop_id":"163"},"type":"Feature"},{"geometry":{"coordinates":[-122.22982,38.13738],"type":"Point"},"properties":{"kind":"stop","name":"Six Flags Discovery Kingdom","stop_id":"164"},"type":"Feature"},{"geometry":{"coordinates":[-122.22943,38.12896],"type":"Point"},"properties":{"kind":"stop","name":"Fairgrounds Dr & Sereno Dr","stop_id":"165"},"type":"Feature"},{"geometry":{"coordinates":[-122.22927,38.12883],"type":"Point"},"properties":{"kind":"stop","name":"Fairgrounds Dr & Sereno Dr","stop_id":"166"},"type":"Feature"},{"geometry":{"coordinates":[-122.22909,38.1173],"type":"Point"},"properties":{"kind":"stop","name":"Fleming Ave & Admiral Callaghan Ln","stop_id":"167"},"type":"Feature"},{"geometry":{"coordinates":[-122.22443,38.11554],"type":"Point"},"properties":{"kind":"stop","name":"Fleming Ave & Skyway Dr","stop_id":"168"},"type":"Feature"},{"geometry":{"coordinates":[-122.24855,38.10501],"type":"Point"},"properties":{"kind":"stop","name":"Florida St & Alameda St","stop_id":"169"},"type":"Feature"},{"geometry":{"coordinates":[-122.21823,38.10971],"type":"Point"},"properties":{"kind":"stop","name":"Tennessee St & Oakwood Ave","stop_id":"17"},"type":"Feature"},{"geometry":{"coordinates":[-122.24404,38.10497],"type":"Point"},"properties":{"kind":"stop","name":"Florida St & Amador St (Douglas Ctr)","stop_id":"170"},"type":"Feature"},{"geometry":{"coordinates":[-122.23618,38.10472],"type":"Point"},"properties":{"kind":"stop","name":"Florida St & Calaveras St","stop_id":"171"},"type":"Feature"},{"geometry":{"coordinates":[-122.25133,38.10496],"type":"Point"},"properties":{"kind":"stop","name":"Florida St & Napa St","stop_id":"173"},"type":"Feature"},{"geometry":{"coordinates":[-122.25957,38.10517],"type":"Point"},"properties":{"kind":"stop","name":"Confunkshun St & Santa Clara St (St Vincent)","stop_id":"174"},"type":"Feature"},{"geometry":{"coordinates":[-122.23402,38.10466],"type":"Point"},"properties":{"kind":"stop","name":"Florida St & Solano Ave","stop_id":"175"},"type":"Feature"},{"geometry":{"coordinates":[-122.23374,38.10482],"type":"Point"},"properties":{"kind":"stop","name":"Florida St & Solano Ave","stop_id":"176"},"type":"Feature"},{"geometry":{"coordinates":[-122.25402,38.10511],"type":"Point"},"properties":{"kind":"stop","name":"Confunkshun St & Sonoma Blvd","stop_id":"177"},"type":"Feature"},{"geometry":{"coordinates":[-122.23798,38.10485],"type":"Point"},"properties":{"kind":"stop","name":"Florida St & Tuolumne St","stop_id":"178"},"type":"Feature"},{"geometry":{"coordinates":[-122.23895,38.10478],"type":"Point"},"properties":{"kind":"stop","name":"Florida St & Tuolumne St","stop_id":"179"},"type":"Feature"},{"geometry":{"coordinates":[-122.21398,38.08231],"type":"Point"},"properties":{"kind":"stop","name":"Fulton Ave & Old Glen Cove Rd","stop_id":"181"},"type":"Feature"},{"geometry":{"coordinates":[-122.22037,38.0841],"type":"Point"},"properties":{"kind":"stop","name":"Fulton Ave & Ladera Dr","stop_id":"182"},"type":"Feature"},{"geometry":{"coordinates":[-122.23464,38.14486],"type":"Point"},"properties":{"kind":"stop","name":"Gateway Dr & Fairgrounds Dr","stop_id":"183"},"type":"Feature"},{"geometry":{"coordinates":[-122.22929,38.14519],"type":"Point"},"properties":{"kind":"stop","name":"Gateway Dr & Sage St","stop_id":"184"},"type":"Feature"},{"geometry":{"coordinates":[-122.24812,38.10108],"type":"Point"},"properties":{"kind":"stop","name":"Georgia St & Alameda St","stop_id":"187"},"type":"Feature"},{"geometry":{"coordinates":[-122.24356,38.10084],"type":"Point"},"properties":{"kind":"stop","name":"Georgia St & Amador St (Douglas Ctr)","stop_id":"188"},"type":"Feature"},{"geometry":{"coordinates":[-122.24371,38.10102],"type":"Point"},"properties":{"kind":"stop","name":"Georgia St & Amador St (Douglas Ctr)","stop_id":"189"},"type":"Feature"},{"geometry":{"coordinates":[-122.24139,38.10099],"type":"Point"},"properties":{"kind":"stop","name":"Georgia St & Contra Costa St","stop_id":"190"},"type":"Feature"},{"geometry":{"coordinates":[-122.24125,38.10081],"type":"Point"},"properties":{"kind":"stop","name":"Georgia St & Contra Costa St","stop_id":"191"},"type":"Feature"},{"geometry":{"coordinates":[-122.20639,38.10022],"type":"Point"},"properties":{"kind":"stop","name":"Georgia St & Corkwood St","stop_id":"192"},"type":"Feature"},{"geometry":{"coordinates":[-122.25029,38.10111],"type":"Point"},"properties":{"kind":"stop","name":"Georgia St & El Dorado St","stop_id":"193"},"type":"Feature"},{"geometry":{"coordinates":[-122.24968,38.10093],"type":"Point"},"properties":{"kind":"stop","name":"Georgia St & El Dorado St","stop_id":"194"},"type":"Feature"},{"geometry":{"coordinates":[-122.21176,38.10025],"type":"Point"},"properties":{"kind":"stop","name":"Georgia St & Heartwood Ave","stop_id":"195"},"type":"Feature"},{"geometry":{"coordinates":[-122.24633,38.10089],"type":"Point"},"properties":{"kind":"stop","name":"Georgia St & Monterey St","stop_id":"196"},"type":"Feature"},{"geometry":{"coordinates":[-122.24646,38.10106],"type":"Point"},"properties":{"kind":"stop","name":"Georgia St & Monterey St","stop_id":"197"},"type":"Feature"},{"geometry":{"coordinates":[-122.19989,38.13157],"type":"Point"},"properties":{"kind":"stop","name":"Redwood Pkwy & Cabernet Dr","stop_id":"2"},"type":"Feature"},{"geometry":{"coordinates":[-122.19728,38.10182],"type":"Point"},"properties":{"kind":"stop","name":"Georgia St & Norfolk Ct","stop_id":"200"},"type":"Feature"},{"geometry":{"coordinates":[-122.2159,38.1003],"type":"Point"},"properties":{"kind":"stop","name":"Georgia St & Rosewood Ave","stop_id":"201"},"type":"Feature"},{"geometry":{"coordinates":[-122.25406,38.10099],"type":"Point"},"properties":{"kind":"stop","name":"Georgia St & Sonoma Blvd","stop_id":"202"},"type":"Feature"},{"geometry":{"coordinates":[-122.19388,38.10261],"type":"Point"},"properties":{"kind":"stop","name":"Georgia St & Southport Way","stop_id":"203"},"type":"Feature"},{"geometry":{"coordinates":[-122.21036,38.07097],"type":"Point"},"properties":{"kind":"stop","name":"Glen Cove Pkwy & Antigua Way","stop_id":"204"},"type":"Feature"},{"geometry":{"coordinates":[-122.22175,38.06966],"type":"Point"},"properties":{"kind":"stop","name":"Glen Cove Pkwy & Bayside Ter","stop_id":"205"},"type":"Feature"},{"geometry":{"coordinates":[-122.21079,38.07796],"type":"Point"},"properties":{"kind":"stop","name":"Glen Cove Pkwy & Bermuda Ln","stop_id":"206"},"type":"Feature"},{"geometry":{"coordinates":[-122.21032,38.07087],"type":"Point"},"properties":{"kind":"stop","name":"Glen Cove Pkwy & Camino Del Sol","stop_id":"207"},"type":"Feature"},{"geometry":{"coordinates":[-122.2131,38.07124],"type":"Point"},"properties":{"kind":"stop","name":"Glen Cove Pkwy & Glen Cove Marina Rd","stop_id":"208"},"type":"Feature"},{"geometry":{"coordinates":[-122.21306,38.0714],"type":"Point"},"properties":{"kind":"stop","name":"Glen Cove Pkwy & Glen Cove Marina Rd","stop_id":"209"},"type":"Feature"},{"geometry":{"coordinates":[-122.21882,38.07167],"type":"Point"},"properties":{"kind":"stop","name":"Glen Cove Pkwy & James River Rd","stop_id":"210"},"type":"Feature"},{"geometry":{"coordinates":[-122.21906,38.07167],"type":"Point"},"properties":{"kind":"stop","name":"Glen Cove Pkwy & James River","stop_id":"211"},"type":"Feature"},{"geometry":{"coordinates":[-122.21769,38.07123],"type":"Point"},"properties":{"kind":"stop","name":"Glen Cove Pkwy & Mistral Way","stop_id":"212"},"type":"Feature"},{"geometry":{"coordinates":[-122.20666,38.07483],"type":"Point"},"properties":{"kind":"stop","name":"Glen Cove Elementary & N Regatta Dr","stop_id":"213"},"type":"Feature"},{"geometry":{"coordinates":[-122.20694,38.07383],"type":"Point"},"properties":{"kind":"stop","name":"Glen Cove Elementary & N Regetta Dr","stop_id":"214"},"type":"Feature"},{"geometry":{"coordinates":[-122.21192,38.08449],"type":"Point"},"properties":{"kind":"stop","name":"Glen Cove Pkwy & Robles Way","stop_id":"215"},"type":"Feature"},{"geometry":{"coordinates":[-122.20786,38.07269],"type":"Point"},"properties":{"kind":"stop","name":"Glen Cove Pkwy & S Regatta Dr","stop_id":"216"},"type":"Feature"},{"geometry":{"coordinates":[-122.21098,38.07772],"type":"Point"},"properties":{"kind":"stop","name":"Glen Cove Pkwy & Saybrook Way","stop_id":"217"},"type":"Feature"},{"geometry":{"coordinates":[-122.22176,38.07102],"type":"Point"},"properties":{"kind":"stop","name":"Glen Cove Pkwy & Sea Lion Pl","stop_id":"218"},"type":"Feature"},{"geometry":{"coordinates":[-122.22154,38.07113],"type":"Point"},"properties":{"kind":"stop","name":"Glen Cove Pkwy & Sea Lion Pl","stop_id":"219"},"type":"Feature"},{"geometry":{"coordinates":[-122.21118,38.07937],"type":"Point"},"properties":{"kind":"stop","name":"Glen Cove Pkwy & Wellfleet Dr","stop_id":"220"},"type":"Feature"},{"geometry":{"coordinates":[-122.21144,38.07918],"type":"Point"},"properties":{"kind":"stop","name":"Glen Cove Pkwy & Wellfleet Dr","stop_id":"221"},"type":"Feature"},{"geometry":{"coordinates":[-122.23475,38.1467],"type":"Point"},"properties":{"kind":"stop","name":"Griffin Dr & Taper Ave","stop_id":"222"},"type":"Feature"},{"geometry":{"coordinates":[-122.26453,38.14697],"type":"Point"},"properties":{"kind":"stop","name":"Jack London Dr & Susan St","stop_id":"227"},"type":"Feature"},{"geometry":{"coordinates":[-122.23028,38.08556],"type":"Point"},"properties":{"kind":"stop","name":"E 40 Way & Gary Cir","stop_id":"229"},"type":"Feature"},{"geometry":{"coordinates":[-122.2359,38.08406],"type":"Point"},"properties":{"kind":"stop","name":"E 40 Way & Sheridan St","stop_id":"230"},"type":"Feature"},{"geometry":{"coordinates":[-122.24761,38.09893],"type":"Point"},"properties":{"kind":"stop","name":"Maine St & Alameda St","stop_id":"231"},"type":"Feature"},{"geometry":{"coordinates":[-122.24962,38.09896],"type":"Point"},"properties":{"kind":"stop","name":"Maine St & El Dorado St","stop_id":"232"},"type":"Feature"},{"geometry":{"coordinates":[-122.25134,38.09899],"type":"Point"},"properties":{"kind":"stop","name":"Maine St & Napa St","stop_id":"233"},"type":"Feature"},{"geometry":{"coordinates":[-122.25354,38.09901],"type":"Point"},"properties":{"kind":"stop","name":"Maine St & Sutter St","stop_id":"234"},"type":"Feature"},{"geometry":{"coordinates":[-122.2659,38.10544],"type":"Point"},"properties":{"kind":"stop","name":"Mare Island Way & Confunkshun St","stop_id":"237"},"type":"Feature"},{"geometry":{"coordinates":[-122.26614,38.10534],"type":"Point"},"properties":{"kind":"stop","name":"Mare Island Way & Confunkshun St","stop_id":"238"},"type":"Feature"},{"geometry":{"coordinates":[-122.26238,38.10016],"type":"Point"},"properties":{"kind":"stop","name":"Mare Island Way & Georgia St (Ferry)","stop_id":"239"},"type":"Feature"},{"geometry":{"coordinates":[-122.26575,38.10769],"type":"Point"},"properties":{"kind":"stop","name":"Mare Island Way & Harbor Way","stop_id":"241"},"type":"Feature"},{"geometry":{"coordinates":[-122.26456,38.11051],"type":"Point"},"properties":{"kind":"stop","name":"Mare Island Way & Tennessee St","stop_id":"242"},"type":"Feature"},{"geometry":{"coordinates":[-122.26848,38.14811],"type":"Point"},"properties":{"kind":"stop","name":"Meadows Dr & Sandpiper Dr","stop_id":"244"},"type":"Feature"},{"geometry":{"coordinates":[-122.27346,38.15064],"type":"Point"},"properties":{"kind":"stop","name":"Meadows Dr & Severus Dr","stop_id":"245"},"type":"Feature"},{"geometry":{"coordinates":[-122.15588,38.05406],"type":"Point"},"properties":{"kind":"stop","name":"Military W St & 1st St (Benicia City Park)","stop_id":"246"},"type":"Feature"},{"geometry":{"coordinates":[-122.15646,38.05409],"type":"Point"},"properties":{"kind":"stop","name":"Military W St & 1st St (Benicia City Park)","stop_id":"247"},"type":"Feature"},{"geometry":{"coordinates":[-122.26572,38.15179],"type":"Point"},"properties":{"kind":"stop","name":"Mini Dr & Coloma Way","stop_id":"254"},"type":"Feature"},{"geometry":{"coordinates":[-122.24599,38.15035],"type":"Point"},"properties":{"kind":"stop","name":"Mini Dr & Corcoran Ave","stop_id":"255"},"type":"Feature"},{"geometry":{"coordinates":[-122.2578,38.15279],"type":"Point"},"properties":{"kind":"stop","name":"Mini Dr & Elliott Dr","stop_id":"257"},"type":"Feature"},{"geometry":{"coordinates":[-122.26074,38.15196],"type":"Point"},"properties":{"kind":"stop","name":"Mini Dr & Roleen Dr","stop_id":"259"},"type":"Feature"},{"geometry":{"coordinates":[-122.2689,38.15373],"type":"Point"},"properties":{"kind":"stop","name":"Mini Dr & Severus Dr","stop_id":"260"},"type":"Feature"},{"geometry":{"coordinates":[-122.25493,38.154],"type":"Point"},"properties":{"kind":"stop","name":"Mini Dr & Sonoma Blvd (Rancho Square)","stop_id":"261"},"type":"Feature"},{"geometry":{"coordinates":[-122.24573,38.14742],"type":"Point"},"properties":{"kind":"stop","name":"Mini Dr & Whitney Ave","stop_id":"265"},"type":"Feature"},{"geometry":{"coordinates":[-122.21791,38.13398],"type":"Point"},"properties":{"kind":"stop","name":"Plaza Dr & Admiral Callaghan Ln","stop_id":"268"},"type":"Feature"},{"geometry":{"coordinates":[-122.21677,38.13277],"type":"Point"},"properties":{"kind":"stop","name":"Plaza Dr & Turner Pkwy (Gateway Plaza)","stop_id":"269"},"type":"Feature"},{"geometry":{"coordinates":[-122.251,38.11988],"type":"Point"},"properties":{"kind":"stop","name":"Valle Vista Ave & Couch St (Post Office)","stop_id":"27"},"type":"Feature"},{"geometry":{"coordinates":[-122.21571,38.13238],"type":"Point"},"properties":{"kind":"stop","name":"Plaza Dr & Turner Pkwy","stop_id":"270"},"type":"Feature"},{"geometry":{"coordinates":[-122.23859,38.08049],"type":"Point"},"properties":{"kind":"stop","name":"Porter St & Grace Patterson Elementary","stop_id":"271"},"type":"Feature"},{"geometry":{"coordinates":[-122.2396,38.08179],"type":"Point"},"properties":{"kind":"stop","name":"Porter St & Magazine St (Norman King)","stop_id":"273"},"type":"Feature"},{"geometry":{"coordinates":[-122.20123,38.13098],"type":"Point"},"properties":{"kind":"stop","name":"Redwood Pkwy & Bonnie Way","stop_id":"276"},"type":"Feature"},{"geometry":{"coordinates":[-122.25114,38.11973],"type":"Point"},"properties":{"kind":"stop","name":"Valle Vista Ave & Napa St (Post Office)","stop_id":"28"},"type":"Feature"},{"geometry":{"coordinates":[-122.20393,38.12794],"type":"Point"},"properties":{"kind":"stop","name":"Redwood Pkwy & Headwater Dr","stop_id":"280"},"type":"Feature"},{"geometry":{"coordinates":[-122.25943,38.12329],"type":"Point"},"properties":{"kind":"stop","name":"Redwood St & Sonoma Blvd & Sacramento St","stop_id":"284"},"type":"Feature"},{"geometry":{"coordinates":[-122.26153,38.12236],"type":"Point"},"properties":{"kind":"stop","name":"Redwood St & Sacramento St","stop_id":"285"},"type":"Feature"},{"geometry":{"coordinates":[-122.25877,38.12316],"type":"Point"},"properties":{"kind":"stop","name":"Redwood St & Sonoma Blvd (Seafood City)","stop_id":"286"},"type":"Feature"},{"geometry":{"coordinates":[-122.23732,38.12234],"type":"Point"},"properties":{"kind":"stop","name":"Redwood St & Tuolumne St","stop_id":"287"},"type":"Feature"},{"geometry":{"coordinates":[-122.23583,38.12222],"type":"Point"},"properties":{"kind":"stop","name":"Redwood St & Tuolumne St","stop_id":"288"},"type":"Feature"},{"geometry":{"coordinates":[-122.2081,38.09014],"type":"Point"},"properties":{"kind":"stop","name":"Rollingwood Dr & Benicia Rd","stop_id":"289"},"type":"Feature"},{"geometry":{"coordinates":[-122.25802,38.10893],"type":"Point"},"properties":{"kind":"stop","name":"Sacramento St & Alabama St","stop_id":"298"},"type":"Feature"},{"geometry":{"coordinates":[-122.25822,38.10916],"type":"Point"},"properties":{"kind":"stop","name":"Sacramento St & Alabama St","stop_id":"299"},"type":"Feature"},{"geometry":{"coordinates":[-122.26385,38.12374],"type":"Point"},"properties":{"kind":"stop","name":"Sacramento St & Baldwin St","stop_id":"300"},"type":"Feature"},{"geometry":{"coordinates":[-122.25805,38.11594],"type":"Point"},"properties":{"kind":"stop","name":"Sacramento St & Denio St","stop_id":"301"},"type":"Feature"},{"geometry":{"coordinates":[-122.25831,38.10487],"type":"Point"},"properties":{"kind":"stop","name":"Sacramento St & Confunkshun St (Saint Vincent)","stop_id":"302"},"type":"Feature"},{"geometry":{"coordinates":[-122.2581,38.10536],"type":"Point"},"properties":{"kind":"stop","name":"Sacramento St & Confunkshun St (Saint Vincent)","stop_id":"303"},"type":"Feature"},{"geometry":{"coordinates":[-122.2581,38.11336],"type":"Point"},"properties":{"kind":"stop","name":"Sacramento St & Hichborn St","stop_id":"304"},"type":"Feature"},{"geometry":{"coordinates":[-122.25797,38.11126],"type":"Point"},"properties":{"kind":"stop","name":"Sacramento St & Indiana St","stop_id":"305"},"type":"Feature"},{"geometry":{"coordinates":[-122.25787,38.11531],"type":"Point"},"properties":{"kind":"stop","name":"Sacramento St & Mississippi St","stop_id":"306"},"type":"Feature"},{"geometry":{"coordinates":[-122.26262,38.12263],"type":"Point"},"properties":{"kind":"stop","name":"Sacramento St & Redwood St","stop_id":"308"},"type":"Feature"},{"geometry":{"coordinates":[-122.25961,38.11892],"type":"Point"},"properties":{"kind":"stop","name":"Sacramento St & Valle Vista Ave","stop_id":"310"},"type":"Feature"},{"geometry":{"coordinates":[-122.25838,38.10175],"type":"Point"},"properties":{"kind":"stop","name":"Sacramento St & Virginia St","stop_id":"311"},"type":"Feature"},{"geometry":{"coordinates":[-122.25819,38.10194],"type":"Point"},"properties":{"kind":"stop","name":"Sacramento St & Virginia St","stop_id":"312"},"type":"Feature"},{"geometry":{"coordinates":[-122.22752,38.1418],"type":"Point"},"properties":{"kind":"stop","name":"Sage St & Griffin Dr","stop_id":"313"},"type":"Feature"},{"geometry":{"coordinates":[-122.26004,38.10233],"type":"Point"},"properties":{"kind":"stop","name":"Santa Clara St & City Hall & JFK Library","stop_id":"315"},"type":"Feature"},{"geometry":{"coordinates":[-122.24862,38.12816],"type":"Point"},"properties":{"kind":"stop","name":"Sereno Dr & Kaiser Entrance","stop_id":"321"},"type":"Feature"},{"geometry":{"coordinates":[-122.24345,38.12866],"type":"Point"},"properties":{"kind":"stop","name":"Sereno Dr & Mesa Verde St","stop_id":"323"},"type":"Feature"},{"geometry":{"coordinates":[-122.24212,38.12893],"type":"Point"},"properties":{"kind":"stop","name":"Sereno Dr & San Marino Ave","stop_id":"324"},"type":"Feature"},{"geometry":{"coordinates":[-122.25341,38.12779],"type":"Point"},"properties":{"kind":"stop","name":"Sereno Transit Center (STC C)","stop_id":"325"},"type":"Feature"},{"geometry":{"coordinates":[-122.27173,38.15294],"type":"Point"},"properties":{"kind":"stop","name":"Severus Dr & Catalina Way","stop_id":"327"},"type":"Feature"},{"geometry":{"coordinates":[-122.25598,38.13603],"type":"Point"},"properties":{"kind":"stop","name":"Sonoma Blvd & Hwy 37","stop_id":"329"},"type":"Feature"},{"geometry":{"coordinates":[-122.22906,38.11171],"type":"Point"},"properties":{"kind":"stop","name":"Admiral Callaghan Ln & Henry St","stop_id":"33"},"type":"Feature"},{"geometry":{"coordinates":[-122.25478,38.1045],"type":"Point"},"properties":{"kind":"stop","name":"Sonoma Blvd & Confunkshun St (Lincoln Elem)","stop_id":"334"},"type":"Feature"},{"geometry":{"coordinates":[-122.2444,38.08897],"type":"Point"},"properties":{"kind":"stop","name":"Sonoma Blvd & McLane St","stop_id":"335"},"type":"Feature"},{"geometry":{"coordinates":[-122.25471,38.14737],"type":"Point"},"properties":{"kind":"stop","name":"Sonoma Blvd & Meadows Dr","stop_id":"336"},"type":"Feature"},{"geometry":{"coordinates":[-122.25513,38.1245],"type":"Point"},"properties":{"kind":"stop","name":"Sonoma Blvd & Redwood St (Vallejo Plaza)","stop_id":"337"},"type":"Feature"},{"geometry":{"coordinates":[-122.25556,38.12412],"type":"Point"},"properties":{"kind":"stop","name":"Sonoma Blvd & Redwood St","stop_id":"338"},"type":"Feature"},{"geometry":{"coordinates":[-122.25542,38.12245],"type":"Point"},"properties":{"kind":"stop","name":"Sonoma Blvd & Redwood St (Vallejo Plaza)","stop_id":"340"},"type":"Feature"},{"geometry":{"coordinates":[-122.25161,38.09491],"type":"Point"},"properties":{"kind":"stop","name":"Sonoma Blvd & Solano Ave","stop_id":"341"},"type":"Feature"},{"geometry":{"coordinates":[-122.24205,38.0864],"type":"Point"},"properties":{"kind":"stop","name":"Sonoma Blvd & Winchester St","stop_id":"343"},"type":"Feature"},{"geometry":{"coordinates":[-122.25583,38.13272],"type":"Point"},"properties":{"kind":"stop","name":"Sonoma Blvd & Yolano Dr (Park Place)","stop_id":"344"},"type":"Feature"},{"geometry":{"coordinates":[-122.20737,38.10601],"type":"Point"},"properties":{"kind":"stop","name":"Springs Rd & Avian Dr (Springhill)","stop_id":"348"},"type":"Feature"},{"geometry":{"coordinates":[-122.21118,38.10588],"type":"Point"},"properties":{"kind":"stop","name":"Springs Rd & Heartwood Ave","stop_id":"349"},"type":"Feature"},{"geometry":{"coordinates":[-122.21111,38.10604],"type":"Point"},"properties":{"kind":"stop","name":"Springs Rd & Heartwood Ave","stop_id":"350"},"type":"Feature"},{"geometry":{"coordinates":[-122.2268,38.106],"type":"Point"},"properties":{"kind":"stop","name":"Springs Rd & Hilton Ave","stop_id":"351"},"type":"Feature"},{"geometry":{"coordinates":[-122.22784,38.10617],"type":"Point"},"properties":{"kind":"stop","name":"Springs Rd & Humboldt St","stop_id":"352"},"type":"Feature"},{"geometry":{"coordinates":[-122.21451,38.10606],"type":"Point"},"properties":{"kind":"stop","name":"Springs Rd & Mosswood Ave","stop_id":"354"},"type":"Feature"},{"geometry":{"coordinates":[-122.21857,38.1061],"type":"Point"},"properties":{"kind":"stop","name":"Springs Rd & Oakwood Ave","stop_id":"355"},"type":"Feature"},{"geometry":{"coordinates":[-122.21565,38.10592],"type":"Point"},"properties":{"kind":"stop","name":"Springs Rd & Oakwood Ave (Springstowne)","stop_id":"356"},"type":"Feature"},{"geometry":{"coordinates":[-122.20729,38.10585],"type":"Point"},"properties":{"kind":"stop","name":"Springs Rd & Rollingwood Dr (Springhill)","stop_id":"357"},"type":"Feature"},{"geometry":{"coordinates":[-122.21958,38.10595],"type":"Point"},"properties":{"kind":"stop","name":"Springs Rd & Thelma Ave","stop_id":"358"},"type":"Feature"},{"geometry":{"coordinates":[-122.22491,38.10615],"type":"Point"},"properties":{"kind":"stop","name":"Springs Rd & Vervais Ave","stop_id":"359"},"type":"Feature"},{"geometry":{"coordinates":[-122.22401,38.10598],"type":"Point"},"properties":{"kind":"stop","name":"Springs Rd & Vervais Ave","stop_id":"360"},"type":"Feature"},{"geometry":{"coordinates":[-122.24278,38.1099],"type":"Point"},"properties":{"kind":"stop","name":"Tennessee St & Amador St","stop_id":"362"},"type":"Feature"},{"geometry":{"coordinates":[-122.24841,38.10999],"type":"Point"},"properties":{"kind":"stop","name":"Tennessee St & Broadway St","stop_id":"363"},"type":"Feature"},{"geometry":{"coordinates":[-122.22142,38.10972],"type":"Point"},"properties":{"kind":"stop","name":"Tennessee St & Maple Ave","stop_id":"367"},"type":"Feature"},{"geometry":{"coordinates":[-122.23171,38.10975],"type":"Point"},"properties":{"kind":"stop","name":"Tennessee St & Mariposa St","stop_id":"368"},"type":"Feature"},{"geometry":{"coordinates":[-122.21758,38.13378],"type":"Point"},"properties":{"kind":"stop","name":"Plaza Dr & Admiral Callaghan Ln (Gateway Plaza)","stop_id":"37"},"type":"Feature"},{"geometry":{"coordinates":[-122.23504,38.10981],"type":"Point"},"properties":{"kind":"stop","name":"Tennessee St & Shasta St","stop_id":"371"},"type":"Feature"},{"geometry":{"coordinates":[-122.25293,38.11005],"type":"Point"},"properties":{"kind":"stop","name":"Tennessee St & Sutter St","stop_id":"372"},"type":"Feature"},{"geometry":{"coordinates":[-122.23879,38.10984],"type":"Point"},"properties":{"kind":"stop","name":"Tennessee St & Tuolumne St","stop_id":"373"},"type":"Feature"},{"geometry":{"coordinates":[-122.26066,38.14492],"type":"Point"},"properties":{"kind":"stop","name":"Tobin Dr & Donnor Pass Rd","stop_id":"378"},"type":"Feature"},{"geometry":{"coordinates":[-122.2516,38.13624],"type":"Point"},"properties":{"kind":"stop","name":"Tuolumne St & Broadway St","stop_id":"379"},"type":"Feature"},{"geometry":{"coordinates":[-122.20933,38.1025],"type":"Point"},"properties":{"kind":"stop","name":"Rollingwood Dr & Cottonwood Dr","stop_id":"38"},"type":"Feature"},{"geometry":{"coordinates":[-122.23831,38.10337],"type":"Point"},"properties":{"kind":"stop","name":"Tuolumne St & Capitol St (Courthouse)","stop_id":"381"},"type":"Feature"},{"geometry":{"coordinates":[-122.23812,38.10363],"type":"Point"},"properties":{"kind":"stop","name":"Tuolumne St & Carolina St (Courthouse)","stop_id":"382"},"type":"Feature"},{"geometry":{"coordinates":[-122.23821,38.12569],"type":"Point"},"properties":{"kind":"stop","name":"Tuolumne St & Del Mar Ave","stop_id":"383"},"type":"Feature"},{"geometry":{"coordinates":[-122.23851,38.12601],"type":"Point"},"properties":{"kind":"stop","name":"Tuolumne St & Del Mar Ave","stop_id":"384"},"type":"Feature"},{"geometry":{"coordinates":[-122.2379,38.11597],"type":"Point"},"properties":{"kind":"stop","name":"Tuolumne St & Fleming Ave","stop_id":"385"},"type":"Feature"},{"geometry":{"coordinates":[-122.24035,38.13067],"type":"Point"},"properties":{"kind":"stop","name":"Tuolumne St & Hospital Dr","stop_id":"387"},"type":"Feature"},{"geometry":{"coordinates":[-122.23824,38.1214],"type":"Point"},"properties":{"kind":"stop","name":"Tuolumne St & Los Santos Ct","stop_id":"389"},"type":"Feature"},{"geometry":{"coordinates":[-122.20143,38.10015],"type":"Point"},"properties":{"kind":"stop","name":"Georgia St & Delwood St","stop_id":"39"},"type":"Feature"},{"geometry":{"coordinates":[-122.23821,38.11366],"type":"Point"},"properties":{"kind":"stop","name":"Tuolumne St & Nebraska St","stop_id":"391"},"type":"Feature"},{"geometry":{"coordinates":[-122.23808,38.11392],"type":"Point"},"properties":{"kind":"stop","name":"Tuolumne St & Nebraska St","stop_id":"392"},"type":"Feature"},{"geometry":{"coordinates":[-122.23808,38.10688],"type":"Point"},"properties":{"kind":"stop","name":"Tuolumne St & Ohio St","stop_id":"393"},"type":"Feature"},{"geometry":{"coordinates":[-122.24322,38.13485],"type":"Point"},"properties":{"kind":"stop","name":"Tuolumne St & Parkview Ter","stop_id":"394"},"type":"Feature"},{"geometry":{"coordinates":[-122.24764,38.13672],"type":"Point"},"properties":{"kind":"stop","name":"Tuolumne St & Peach St","stop_id":"395"},"type":"Feature"},{"geometry":{"coordinates":[-122.23764,38.12311],"type":"Point"},"properties":{"kind":"stop","name":"Tuolumne St & Redwood Tuolumne Center","stop_id":"397"},"type":"Feature"},{"geometry":{"coordinates":[-122.23828,38.10583],"type":"Point"},"properties":{"kind":"stop","name":"Tuolumne St & Springs Rd","stop_id":"399"},"type":"Feature"},{"geometry":{"coordinates":[-122.25132,38.10503],"type":"Point"},"properties":{"kind":"stop","name":"Florida St & Napa St","stop_id":"40"},"type":"Feature"},{"geometry":{"coordinates":[-122.23826,38.11],"type":"Point"},"properties":{"kind":"stop","name":"Tuolumne St & Tennessee St","stop_id":"400"},"type":"Feature"},{"geometry":{"coordinates":[-122.23803,38.1103],"type":"Point"},"properties":{"kind":"stop","name":"Tuolumne St & Tennessee St","stop_id":"401"},"type":"Feature"},{"geometry":{"coordinates":[-122.23837,38.11873],"type":"Point"},"properties":{"kind":"stop","name":"Tuolumne St & Valle Vista Ave","stop_id":"402"},"type":"Feature"},{"geometry":{"coordinates":[-122.23828,38.11937],"type":"Point"},"properties":{"kind":"stop","name":"Tuolumne St & Valle Vista Ave","stop_id":"403"},"type":"Feature"},{"geometry":{"coordinates":[-122.22466,38.11259],"type":"Point"},"properties":{"kind":"stop","name":"Vervais Ave & Henry St","stop_id":"408"},"type":"Feature"},{"geometry":{"coordinates":[-122.25503,38.10283],"type":"Point"},"properties":{"kind":"stop","name":"Sonoma Blvd & Capitol St","stop_id":"41"},"type":"Feature"},{"geometry":{"coordinates":[-122.23796,38.14613],"type":"Point"},"properties":{"kind":"stop","name":"Whitney Ave & De Paul Dr","stop_id":"411"},"type":"Feature"},{"geometry":{"coordinates":[-122.24326,38.14649],"type":"Point"},"properties":{"kind":"stop","name":"Whitney Ave & Olympic Dr","stop_id":"412"},"type":"Feature"},{"geometry":{"coordinates":[-122.26819,38.11453],"type":"Point"},"properties":{"kind":"stop","name":"Wilson Ave & B St","stop_id":"413"},"type":"Feature"},{"geometry":{"coordinates":[-122.27015,38.11643],"type":"Point"},"properties":{"kind":"stop","name":"Wilson Ave & Benson Ave","stop_id":"415"},"type":"Feature"},{"geometry":{"coordinates":[-122.26759,38.1138],"type":"Point"},"properties":{"kind":"stop","name":"Wilson Ave & Hichborn St","stop_id":"416"},"type":"Feature"},{"geometry":{"coordinates":[-122.26512,38.11083],"type":"Point"},"properties":{"kind":"stop","name":"Mare Island Way & Tennessee St","stop_id":"417"},"type":"Feature"},{"geometry":{"coordinates":[-122.22671,38.12349],"type":"Point"},"properties":{"kind":"stop","name":"Redwood Pkwy & Admiral Callaghan Ln","stop_id":"42"},"type":"Feature"},{"geometry":{"coordinates":[-122.24382,38.13561],"type":"Point"},"properties":{"kind":"stop","name":"Tuolumne St & Mitchell Ct","stop_id":"420"},"type":"Feature"},{"geometry":{"coordinates":[-122.24708,38.13658],"type":"Point"},"properties":{"kind":"stop","name":"Tuolumne St & Peach St","stop_id":"421"},"type":"Feature"},{"geometry":{"coordinates":[-122.21604,38.09162],"type":"Point"},"properties":{"kind":"stop","name":"Benicia Rd & Banning Way","stop_id":"422"},"type":"Feature"},{"geometry":{"coordinates":[-122.24286,38.13421],"type":"Point"},"properties":{"kind":"stop","name":"Tuolumne St & Parkview Ter","stop_id":"427"},"type":"Feature"},{"geometry":{"coordinates":[-122.23913,38.1287],"type":"Point"},"properties":{"kind":"stop","name":"Tuolumne St & Sereno Dr","stop_id":"429"},"type":"Feature"},{"geometry":{"coordinates":[-122.25837,38.11808],"type":"Point"},"properties":{"kind":"stop","name":"Sacramento St & Valle Vista Ave","stop_id":"43"},"type":"Feature"},{"geometry":{"coordinates":[-122.23892,38.12879],"type":"Point"},"properties":{"kind":"stop","name":"Tuolumne St & Sereno Dr","stop_id":"430"},"type":"Feature"},{"geometry":{"coordinates":[-122.24968,38.12817],"type":"Point"},"properties":{"kind":"stop","name":"Sereno Dr & Kaiser Entrance","stop_id":"431"},"type":"Feature"},{"geometry":{"coordinates":[-122.25197,38.10991],"type":"Point"},"properties":{"kind":"stop","name":"Tennessee St & Sutter St","stop_id":"433"},"type":"Feature"},{"geometry":{"coordinates":[-122.24989,38.10984],"type":"Point"},"properties":{"kind":"stop","name":"Tennessee St & El Dorado St","stop_id":"434"},"type":"Feature"},{"geometry":{"coordinates":[-122.24593,38.10979],"type":"Point"},"properties":{"kind":"stop","name":"Tennessee St & Monterey St","stop_id":"435"},"type":"Feature"},{"geometry":{"coordinates":[-122.24383,38.10976],"type":"Point"},"properties":{"kind":"stop","name":"Tennessee St & Amador St","stop_id":"436"},"type":"Feature"},{"geometry":{"coordinates":[-122.23761,38.10966],"type":"Point"},"properties":{"kind":"stop","name":"Tennessee St & Tuolumne St","stop_id":"437"},"type":"Feature"},{"geometry":{"coordinates":[-122.23154,38.10958],"type":"Point"},"properties":{"kind":"stop","name":"Tennessee St & Mariposa St","stop_id":"438"},"type":"Feature"},{"geometry":{"coordinates":[-122.22915,38.1172],"type":"Point"},"properties":{"kind":"stop","name":"Fleming Ave & Admiral Callaghan Ln","stop_id":"439"},"type":"Feature"},{"geometry":{"coordinates":[-122.22383,38.11511],"type":"Point"},"properties":{"kind":"stop","name":"Fleming Ave & Vervais Ave","stop_id":"440"},"type":"Feature"},{"geometry":{"coordinates":[-122.22476,38.11197],"type":"Point"},"properties":{"kind":"stop","name":"Vervais Ave & Henry St","stop_id":"441"},"type":"Feature"},{"geometry":{"coordinates":[-122.22137,38.10959],"type":"Point"},"properties":{"kind":"stop","name":"Tennessee St & Maple Ave","stop_id":"442"},"type":"Feature"},{"geometry":{"coordinates":[-122.21822,38.10954],"type":"Point"},"properties":{"kind":"stop","name":"Tennessee St & Oakwood Ave","stop_id":"443"},"type":"Feature"},{"geometry":{"coordinates":[-122.24781,38.10487],"type":"Point"},"properties":{"kind":"stop","name":"Florida St & Alameda St","stop_id":"444"},"type":"Feature"},{"geometry":{"coordinates":[-122.2438,38.1048],"type":"Point"},"properties":{"kind":"stop","name":"Florida St & Amador St","stop_id":"445"},"type":"Feature"},{"geometry":{"coordinates":[-122.20634,38.11897],"type":"Point"},"properties":{"kind":"stop","name":"Ascot Pkwy & Wardlaw Park East","stop_id":"446"},"type":"Feature"},{"geometry":{"coordinates":[-122.22763,38.12635],"type":"Point"},"properties":{"kind":"stop","name":"Admiral Callaghan Way & Rotary Way","stop_id":"447"},"type":"Feature"},{"geometry":{"coordinates":[-122.20856,38.0953],"type":"Point"},"properties":{"kind":"stop","name":"Rollingwood Dr & Keats Dr","stop_id":"448"},"type":"Feature"},{"geometry":{"coordinates":[-122.2091,38.10521],"type":"Point"},"properties":{"kind":"stop","name":"Rollingwood Dr & Springs Rd","stop_id":"449"},"type":"Feature"},{"geometry":{"coordinates":[-122.20927,38.09811],"type":"Point"},"properties":{"kind":"stop","name":"Rollingwood Rd & Baywood Dr","stop_id":"45"},"type":"Feature"},{"geometry":{"coordinates":[-122.20941,38.09853],"type":"Point"},"properties":{"kind":"stop","name":"Rollingwood Dr & Baywood Dr","stop_id":"450"},"type":"Feature"},{"geometry":{"coordinates":[-122.20871,38.09395],"type":"Point"},"properties":{"kind":"stop","name":"Rollingwood Dr & Dryden Dr","stop_id":"451"},"type":"Feature"},{"geometry":{"coordinates":[-122.21856,38.09219],"type":"Point"},"properties":{"kind":"stop","name":"Benicia Rd & Home Acres Ave","stop_id":"452"},"type":"Feature"},{"geometry":{"coordinates":[-122.22218,38.09308],"type":"Point"},"properties":{"kind":"stop","name":"Benicia Rd & Maple Ave","stop_id":"453"},"type":"Feature"},{"geometry":{"coordinates":[-122.22599,38.09393],"type":"Point"},"properties":{"kind":"stop","name":"Benicia Rd & Cedar St","stop_id":"454"},"type":"Feature"},{"geometry":{"coordinates":[-122.23269,38.09544],"type":"Point"},"properties":{"kind":"stop","name":"Benicia Rd & Carquinez St","stop_id":"455"},"type":"Feature"},{"geometry":{"coordinates":[-122.23817,38.09669],"type":"Point"},"properties":{"kind":"stop","name":"Benicia Rd & Beach St","stop_id":"456"},"type":"Feature"},{"geometry":{"coordinates":[-122.24246,38.09811],"type":"Point"},"properties":{"kind":"stop","name":"Benicia Rd & Solano Ave","stop_id":"457"},"type":"Feature"},{"geometry":{"coordinates":[-122.24808,38.0991],"type":"Point"},"properties":{"kind":"stop","name":"Maine St & Alameda St","stop_id":"458"},"type":"Feature"},{"geometry":{"coordinates":[-122.25451,38.09919],"type":"Point"},"properties":{"kind":"stop","name":"Maine St & Sonoma Blvd","stop_id":"459"},"type":"Feature"},{"geometry":{"coordinates":[-122.23452,38.10962],"type":"Point"},"properties":{"kind":"stop","name":"Tennessee St & Shasta St","stop_id":"46"},"type":"Feature"},{"geometry":{"coordinates":[-122.06269,37.96778],"type":"Point"},"properties":{"kind":"stop","name":"Contra Costa Blvd & Viking Dr (Sunvalley)","stop_id":"460"},"type":"Feature"},{"geometry":{"coordinates":[-122.06291,37.96747],"type":"Point"},"properties":{"kind":"stop","name":"Contra Costa Blvd & Viking Dr","stop_id":"461"},"type":"Feature"},{"geometry":{"coordinates":[-122.12905,38.2295],"type":"Point"},"properties":{"kind":"stop","name":"Suisun Valley Rd & Westamerica Dr (SCC Fairfield)","stop_id":"462"},"type":"Feature"},{"geometry":{"coordinates":[-122.20544,38.12476],"type":"Point"},"properties":{"kind":"stop","name":"Redwood Pkwy & Rocky Shore Dr","stop_id":"465"},"type":"Feature"},{"geometry":{"coordinates":[-122.25665,38.11977],"type":"Point"},"properties":{"kind":"stop","name":"Valle Vista Ave & Sonoma Blvd","stop_id":"466"},"type":"Feature"},{"geometry":{"coordinates":[-122.25628,38.11994],"type":"Point"},"properties":{"kind":"stop","name":"Valle Vista Ave & Sonoma Blvd","stop_id":"467"},"type":"Feature"},{"geometry":{"coordinates":[-122.2034,38.13639],"type":"Point"},"properties":{"kind":"stop","name":"Columbus Pkwy & St Johns Mine Rd (SCC)","stop_id":"473"},"type":"Feature"},{"geometry":{"coordinates":[-122.19831,38.11241],"type":"Point"},"properties":{"kind":"stop","name":"Columbus Pkwy & Ascot Pkwy","stop_id":"474"},"type":"Feature"},{"geometry":{"coordinates":[-122.2409,38.13104],"type":"Point"},"properties":{"kind":"stop","name":"Tuolumne St & Hospital Dr","stop_id":"475"},"type":"Feature"},{"geometry":{"coordinates":[-122.26228,38.10047],"type":"Point"},"properties":{"kind":"stop","name":"Mare Island Way & Georgia St (Ferry)","stop_id":"476"},"type":"Feature"},{"geometry":{"coordinates":[-122.25919,38.10022],"type":"Point"},"properties":{"kind":"stop","name":"Vallejo Transit Center (VTC West)","stop_id":"477"},"type":"Feature"},{"geometry":{"coordinates":[-122.21284,38.1002],"type":"Point"},"properties":{"kind":"stop","name":"Georgia St & Hogan Middle School","stop_id":"48"},"type":"Feature"},{"geometry":{"coordinates":[-122.31685,37.92468],"type":"Point"},"properties":{"kind":"stop","name":"El Cerrito del Norte Station (Stop C3)","stop_id":"480"},"type":"Feature"},{"geometry":{"coordinates":[-122.25343,38.12799],"type":"Point"},"properties":{"kind":"stop","name":"Sereno Transit Center (STC B)","stop_id":"487"},"type":"Feature"},{"geometry":{"coordinates":[-122.0683,38.2492],"type":"Point"},"properties":{"kind":"stop","name":"Fairfield Transportation Center","stop_id":"495"},"type":"Feature"},{"geometry":{"coordinates":[-122.04161,38.24276],"type":"Point"},"properties":{"kind":"stop","name":"Spring St & Suisun-Fairfield Amtrak","stop_id":"496"},"type":"Feature"},{"geometry":{"coordinates":[-122.25199,38.15408],"type":"Point"},"properties":{"kind":"stop","name":"Mini Dr & Broadway St","stop_id":"499"},"type":"Feature"},{"geometry":{"coordinates":[-122.25205,38.15398],"type":"Point"},"properties":{"kind":"stop","name":"Mini Dr & Sonoma Blvd","stop_id":"500"},"type":"Feature"},{"geometry":{"coordinates":[-122.25344,38.12811],"type":"Point"},"properties":{"kind":"stop","name":"Sereno Transit Center (STC A)","stop_id":"502"},"type":"Feature"},{"geometry":{"coordinates":[-122.06889,37.9058],"type":"Point"},"properties":{"kind":"stop","name":"Walnut Creek BART","stop_id":"531"},"type":"Feature"},{"geometry":{"coordinates":[-122.25485,38.12078],"type":"Point"},"properties":{"kind":"stop","name":"Sonoma Blvd & California St","stop_id":"54"},"type":"Feature"},{"geometry":{"coordinates":[-122.25603,38.10993],"type":"Point"},"properties":{"kind":"stop","name":"Tennessee St & Marin St (EDD)","stop_id":"540"},"type":"Feature"},{"geometry":{"coordinates":[-122.23186,38.08492],"type":"Point"},"properties":{"kind":"stop","name":"E 40 Way & Lincoln Rd E","stop_id":"544"},"type":"Feature"},{"geometry":{"coordinates":[-122.25149,38.12809],"type":"Point"},"properties":{"kind":"stop","name":"Broadway St & Sereno Dr","stop_id":"545"},"type":"Feature"},{"geometry":{"coordinates":[-122.25057,38.13645],"type":"Point"},"properties":{"kind":"stop","name":"Tuolumne St & Lofas Pl","stop_id":"546"},"type":"Feature"},{"geometry":{"coordinates":[-122.26332,38.14471],"type":"Point"},"properties":{"kind":"stop","name":"Jack London Dr & Doreen Ct","stop_id":"55"},"type":"Feature"},{"geometry":{"coordinates":[-122.20781,38.12037],"type":"Point"},"properties":{"kind":"stop","name":"Ascot Pkwy & Jesse Bethel High School","stop_id":"553"},"type":"Feature"},{"geometry":{"coordinates":[-122.25481,38.15386],"type":"Point"},"properties":{"kind":"stop","name":"Mini Dr & Diana Dr","stop_id":"56"},"type":"Feature"},{"geometry":{"coordinates":[-122.12882,38.06845],"type":"Point"},"properties":{"kind":"stop","name":"Benicia Park & Ride","stop_id":"562"},"type":"Feature"},{"geometry":{"coordinates":[-122.12904,38.06844],"type":"Point"},"properties":{"kind":"stop","name":"Benicia Park & Ride","stop_id":"563"},"type":"Feature"},{"geometry":{"coordinates":[-121.84211,38.45553],"type":"Point"},"properties":{"kind":"stop","name":"Dixon Park & Ride","stop_id":"569"},"type":"Feature"},{"geometry":{"coordinates":[-122.25631,38.13598],"type":"Point"},"properties":{"kind":"stop","name":"Sonoma Blvd & Hwy 37","stop_id":"57"},"type":"Feature"},{"geometry":{"coordinates":[-121.96469,38.35827],"type":"Point"},"properties":{"kind":"stop","name":"Vacaville Transportation Center (VATC)","stop_id":"571"},"type":"Feature"},{"geometry":{"coordinates":[-121.74849,38.53441],"type":"Point"},"properties":{"kind":"stop","name":"Mrak Hall Dr & Alumni Ln (UC Davis Mondavi Center)","stop_id":"577"},"type":"Feature"},{"geometry":{"coordinates":[-122.39524,37.79613],"type":"Point"},"properties":{"kind":"stop","name":"San Francisco Ferry Building","stop_id":"579"},"type":"Feature"},{"geometry":{"coordinates":[-122.25619,38.13198],"type":"Point"},"properties":{"kind":"stop","name":"Sonoma Blvd & Yolano Dr","stop_id":"58"},"type":"Feature"},{"geometry":{"coordinates":[-122.22666,38.12596],"type":"Point"},"properties":{"kind":"stop","name":"Rotary Way & Admiral Callaghan Ln","stop_id":"580"},"type":"Feature"},{"geometry":{"coordinates":[-122.31697,37.92482],"type":"Point"},"properties":{"kind":"stop","name":"El Cerrito del Norte Station (Stop C4)","stop_id":"581"},"type":"Feature"},{"geometry":{"coordinates":[-122.22122,38.122],"type":"Point"},"properties":{"kind":"stop","name":"Redwood Pkwy & Foothill Dr","stop_id":"582"},"type":"Feature"},{"geometry":{"coordinates":[-122.20884,38.08872],"type":"Point"},"properties":{"kind":"stop","name":"Rollingwood Rd & Benicia Rd","stop_id":"587"},"type":"Feature"},{"geometry":{"coordinates":[-122.25399,38.11977],"type":"Point"},"properties":{"kind":"stop","name":"Valle Vista Ave & Sonoma Blvd","stop_id":"59"},"type":"Feature"},{"geometry":{"coordinates":[-122.22322,38.08282],"type":"Point"},"properties":{"kind":"stop","name":"Fulton Ave & Magazine St","stop_id":"63"},"type":"Feature"},{"geometry":{"coordinates":[-122.23548,38.07809],"type":"Point"},"properties":{"kind":"stop","name":"Sandy Beach Rd & Sonoma Blvd","stop_id":"64"},"type":"Feature"},{"geometry":{"coordinates":[-122.22448,38.13059],"type":"Point"},"properties":{"kind":"stop","name":"Turner Pkwy & Admiral Callaghan Ln","stop_id":"65"},"type":"Feature"},{"geometry":{"coordinates":[-122.21622,38.13538],"type":"Point"},"properties":{"kind":"stop","name":"Admiral Callaghan Ln & Auto Club Way","stop_id":"66"},"type":"Feature"},{"geometry":{"coordinates":[-122.20697,38.13676],"type":"Point"},"properties":{"kind":"stop","name":"Columbus Pkwy & North Ascot Pkwy","stop_id":"67"},"type":"Feature"},{"geometry":{"coordinates":[-122.2061,38.12285],"type":"Point"},"properties":{"kind":"stop","name":"Redwood Pkwy & Jesse Bethel High School","stop_id":"69"},"type":"Feature"},{"geometry":{"coordinates":[-122.20303,38.10899],"type":"Point"},"properties":{"kind":"stop","name":"Columbus Pkwy & Tennessee St","stop_id":"7"},"type":"Feature"},{"geometry":{"coordinates":[-122.21648,38.13111],"type":"Point"},"properties":{"kind":"stop","name":"Turner Pkwy & Plaza Dr","stop_id":"71"},"type":"Feature"},{"geometry":{"coordinates":[-122.2212,38.13078],"type":"Point"},"properties":{"kind":"stop","name":"Turner Pkwy & Admiral Callaghan Ln","stop_id":"72"},"type":"Feature"},{"geometry":{"coordinates":[-122.24439,38.09888],"type":"Point"},"properties":{"kind":"stop","name":"Maine St & Solano Ave","stop_id":"73"},"type":"Feature"},{"geometry":{"coordinates":[-122.12879,38.22923],"type":"Point"},"properties":{"kind":"stop","name":"Suisun Valley Rd & Kaiser Dr (SCC)","stop_id":"74"},"type":"Feature"},{"geometry":{"coordinates":[-122.21168,38.08437],"type":"Point"},"properties":{"kind":"stop","name":"Glen Cove Pkwy & Robles Way","stop_id":"75"},"type":"Feature"},{"geometry":{"coordinates":[-122.25546,38.12821],"type":"Point"},"properties":{"kind":"stop","name":"Sonoma Blvd & Sereno Dr","stop_id":"76"},"type":"Feature"},{"geometry":{"coordinates":[-122.25588,38.12811],"type":"Point"},"properties":{"kind":"stop","name":"Sonoma Blvd & Sereno Dr (Smart & Final)","stop_id":"77"},"type":"Feature"},{"geometry":{"coordinates":[-122.2342,38.14857],"type":"Point"},"properties":{"kind":"stop","name":"Janice St & McGrue Ave","stop_id":"79"},"type":"Feature"},{"geometry":{"coordinates":[-122.20365,38.12623],"type":"Point"},"properties":{"kind":"stop","name":"Redwood Pkwy & Eagle Ridge Dr","stop_id":"8"},"type":"Feature"},{"geometry":{"coordinates":[-122.22835,38.11024],"type":"Point"},"properties":{"kind":"stop","name":"Admiral Callaghan Ln & Tennessee St","stop_id":"80"},"type":"Feature"},{"geometry":{"coordinates":[-122.24808,38.10529],"type":"Point"},"properties":{"kind":"stop","name":"Alameda St & Florida St","stop_id":"81"},"type":"Feature"},{"geometry":{"coordinates":[-122.24856,38.10654],"type":"Point"},"properties":{"kind":"stop","name":"Alameda St & Ohio St","stop_id":"82"},"type":"Feature"},{"geometry":{"coordinates":[-122.24815,38.10226],"type":"Point"},"properties":{"kind":"stop","name":"Alameda St & Virginia St","stop_id":"83"},"type":"Feature"},{"geometry":{"coordinates":[-122.24837,38.10173],"type":"Point"},"properties":{"kind":"stop","name":"Alameda St & Virginia St","stop_id":"84"},"type":"Feature"},{"geometry":{"coordinates":[-122.18859,38.10606],"type":"Point"},"properties":{"kind":"stop","name":"Ascot Pkwy & Georgia St","stop_id":"87"},"type":"Feature"},{"geometry":{"coordinates":[-122.1902,38.10776],"type":"Point"},"properties":{"kind":"stop","name":"Ascot Pkwy & Hawkins St","stop_id":"88"},"type":"Feature"},{"geometry":{"coordinates":[-122.19674,38.11046],"type":"Point"},"properties":{"kind":"stop","name":"Ascot Pkwy & Hilary Way","stop_id":"89"},"type":"Feature"},{"geometry":{"coordinates":[-122.20314,38.12923],"type":"Point"},"properties":{"kind":"stop","name":"Redwood Pkwy & Penny Ln","stop_id":"9"},"type":"Feature"},{"geometry":{"coordinates":[-122.20091,38.1144],"type":"Point"},"properties":{"kind":"stop","name":"Ascot Pkwy & Locust Dr","stop_id":"90"},"type":"Feature"},{"geometry":{"coordinates":[-122.20624,38.1187],"type":"Point"},"properties":{"kind":"stop","name":"Ascot Pkwy & Wardlaw Park East","stop_id":"92"},"type":"Feature"},{"geometry":{"coordinates":[-122.1943,38.10846],"type":"Point"},"properties":{"kind":"stop","name":"Ascot Pkwy & Southport Way","stop_id":"93"},"type":"Feature"},{"geometry":{"coordinates":[-122.20266,38.11815],"type":"Point"},"properties":{"kind":"stop","name":"Ascot Pkwy & Sunrise Way","stop_id":"94"},"type":"Feature"},{"geometry":{"coordinates":[-122.20243,38.11749],"type":"Point"},"properties":{"kind":"stop","name":"Ascot Pkwy & Sunrise Way","stop_id":"95"},"type":"Feature"},{"geometry":{"coordinates":[-122.20455,38.10873],"type":"Point"},"properties":{"kind":"stop","name":"Avian Dr & Tennessee St","stop_id":"97"},"type":"Feature"},{"geometry":{"coordinates":[-122.20434,38.10877],"type":"Point"},"properties":{"kind":"stop","name":"Avian Dr & Tennessee St","stop_id":"98"},"type":"Feature"},{"geometry":{"coordinates":[-122.23797,38.0965],"type":"Point"},"properties":{"kind":"stop","name":"Benicia Rd & Beach St","stop_id":"99"},"type":"Feature"}],"type":"FeatureCollection"}
