{"features":[{"geometry":{"coordinates":[[-107.88347,37.27169],[-107.88407,37.27179],[-107.88275,37.27548],[-107.88102,37.27696],[-107.88014,37.2782],[-107.87883,37.27902],[-107.87609,37.28729],[-107.87868,37.28785],[-107.87833,37.28884],[-107.88008,37.28922],[-107.88019,37.29084],[-107.88208,37.29103],[-107.88206,37.28951],[-107.88153,37.28882],[-107.88149,37.2877],[-107.88375,37.28771],[-107.88374,37.28008],[-107.88353,37.27979],[-107.88473,37.27953],[-107.88584,37.2781],[-107.88582,37.27743],[-107.88513,37.27723],[-107.88409,37.27655],[-107.88441,37.27549],[-107.88576,37.27371],[-107.8867,37.27188],[-107.8869,37.27066],[-107.88669,37.26865],[-107.88716,37.26856],[-107.88824,37.26883],[-107.88997,37.27027],[-107.89091,37.27077],[-107.89175,37.27092],[-107.89286,37.27081],[-107.89346,37.27254],[-107.8921,37.27264],[-107.89213,37.27315],[-107.89259,37.27327],[-107.89213,37.27315],[-107.8921,37.27264],[-107.89325,37.27262],[-107.89373,37.2724],[-107.89318,37.27076],[-107.8984,37.26988],[-107.90329,37.27024],[-107.90876,37.26993],[-107.91414,37.2685],[-107.91429,37.26864],[-107.91414,37.2685],[-107.90876,37.26993],[-107.90329,37.27024],[-107.8984,37.26988],[-107.89175,37.27092],[-107.89029,37.27049],[-107.88873,37.26913],[-107.88773,37.26859],[-107.8868,37.26843],[-107.8848,37.26854],[-107.88438,37.27081],[-107.8837,37.27288],[-107.88282,37.27269]],"type":"LineString"},"properties":{"color":"#57E93A","color_name":"green","kind":"route","label":"Route 4","long":"Crestview - 160 W","route_id":"107427","text_color":"#FFFFFF","type_label":"Bus"},"type":"Feature"},{"geometry":{"coordinates":[[-107.88325,37.27164],[-107.88144,37.27124],[-107.88176,37.27016],[-107.87088,37.26787],[-107.8704,37.26762],[-107.86966,37.26775],[-107.86901,37.26856],[-107.86666,37.27047],[-107.86509,37.27258],[-107.86322,37.27418],[-107.85968,37.27916],[-107.85934,37.27933],[-107.85944,37.27955],[-107.85978,37.27949],[-107.86386,37.28096],[-107.8659,37.28106],[-107.8671,37.28057],[-107.86713,37.27868],[-107.86773,37.27772],[-107.86796,37.27766],[-107.86792,37.27749],[-107.86771,37.27753],[-107.86714,37.27866],[-107.8671,37.28057],[-107.86613,37.28103],[-107.8634,37.28085],[-107.85978,37.27949],[-107.8597,37.27918],[-107.85945,37.2792],[-107.85939,37.27961],[-107.85833,37.28151],[-107.85669,37.28248],[-107.85608,37.28335],[-107.85516,37.28378],[-107.85311,37.28601],[-107.85317,37.29274],[-107.85382,37.29281],[-107.85475,37.29162],[-107.85664,37.29075],[-107.85714,37.29105],[-107.85713,37.29177],[-107.85472,37.29405],[-107.85353,37.2948],[-107.85338,37.29554],[-107.85357,37.29601],[-107.8488,37.29758],[-107.84857,37.29933],[-107.84813,37.30007],[-107.84953,37.30015],[-107.8574,37.29832],[-107.8572,37.29762],[-107.85772,37.29711],[-107.85781,37.29671],[-107.85761,37.29457],[-107.85861,37.29367],[-107.8624,37.29145],[-107.86616,37.28736],[-107.86779,37.28413],[-107.86818,37.28371],[-107.87091,37.28252],[-107.8727,37.2808],[-107.87426,37.27976],[-107.87586,37.27936],[-107.87627,37.27824],[-107.87914,37.27882],[-107.88006,37.27836],[-107.88093,37.2771],[-107.88284,37.27548],[-107.88375,37.27287],[-107.88279,37.27266]],"type":"LineString"},"properties":{"color":"#290CAD","color_name":"blue","kind":"route","label":"Route 2","long":"Fort Lewis College","route_id":"FTL","text_color":"#FFFFFF","type_label":"Bus"},"type":"Feature"},{"geometry":{"coordinates":[[-107.87113,37.30004],[-107.8709,37.3006],[-107.86822,37.2999],[-107.86997,37.29554],[-107.86958,37.29518],[-107.86681,37.29444],[-107.86676,37.29315],[-107.86717,37.29227],[-107.86719,37.29072],[-107.86821,37.29022],[-107.86952,37.2878],[-107.8691,37.28637],[-107.86963,37.28458],[-107.86919,37.28311],[-107.86791,37.28392],[-107.86624,37.28723],[-107.86215,37.29163],[-107.85868,37.29362],[-107.8565,37.29521],[-107.85357,37.29601],[-107.85338,37.29554],[-107.85353,37.2948],[-107.85472,37.29405],[-107.85699,37.29203],[-107.85714,37.29105],[-107.85664,37.29075],[-107.85558,37.29113],[-107.85475,37.29162],[-107.85382,37.29281],[-107.85317,37.29274],[-107.85311,37.28601],[-107.85516,37.28378],[-107.85608,37.28335],[-107.85669,37.28248],[-107.85816,37.28169],[-107.85939,37.27961],[-107.85978,37.27949],[-107.86386,37.28096],[-107.86613,37.28103],[-107.8671,37.28057],[-107.86713,37.27868],[-107.86773,37.27772],[-107.86796,37.27766],[-107.86792,37.27749],[-107.86771,37.27753]],"type":"LineString"},"properties":{"color":"#290CAD","color_name":"blue","kind":"route","label":"FLC XP","long":"Fort Lewis Express","route_id":"FTLCS","text_color":"#FFFFFF","type_label":"Bus"},"type":"Feature"},{"geometry":{"coordinates":[[-107.86485,37.2288],[-107.86344,37.22896],[-107.86318,37.22827],[-107.86069,37.22522],[-107.86039,37.22381],[-107.85995,37.22326],[-107.8587,37.22278],[-107.8575,37.2236],[-107.8571,37.22355],[-107.85404,37.22023],[-107.85241,37.21952],[-107.85071,37.21945],[-107.84915,37.21995],[-107.84545,37.22231],[-107.84439,37.22342],[-107.84351,37.225],[-107.84191,37.22613],[-107.84133,37.22679],[-107.84093,37.22764],[-107.8405,37.22949],[-107.84,37.22971],[-107.83927,37.22954],[-107.83907,37.23028],[-107.83873,37.23052],[-107.83424,37.23236],[-107.83174,37.23247],[-107.82947,37.23283],[-107.8249,37.23277],[-107.82294,37.23324],[-107.82192,37.23451],[-107.8211,37.23604],[-107.8203,37.23681],[-107.8229,37.23748],[-107.82503,37.23976],[-107.82585,37.23938],[-107.82764,37.23964],[-107.82777,37.24047],[-107.82571,37.24046],[-107.82308,37.23762],[-107.82253,37.23734],[-107.82349,37.23461],[-107.82397,37.23432],[-107.82543,37.23548],[-107.82514,37.23565],[-107.82468,37.23517],[-107.82489,37.23504],[-107.82347,37.23367],[-107.82339,37.23331],[-107.82305,37.23318],[-107.82287,37.23012],[-107.82207,37.22935],[-107.82051,37.22843],[-107.82011,37.22777],[-107.82048,37.22728],[-107.82399,37.22785],[-107.82748,37.22881],[-107.83001,37.22907],[-107.83314,37.22885],[-107.84054,37.2273],[-107.84204,37.22674],[-107.84325,37.22592],[-107.84425,37.22472],[-107.84504,37.22299],[-107.8459,37.22211],[-107.84934,37.21997],[-107.85047,37.21958],[-107.85153,37.21949],[-107.85296,37.21976],[-107.85422,37.22048],[-107.85711,37.22389],[-107.85823,37.22327],[-107.8587,37.22278],[-107.85995,37.22326],[-107.86039,37.22381],[-107.86064,37.22528],[-107.86318,37.22827],[-107.8635,37.22911],[-107.86477,37.22881]],"type":"LineString"},"properties":{"color":"#0054A6","color_name":"teal","kind":"route","label":"Route 5","long":"Mercy / Three Springs","route_id":"MTS","text_color":"#FFFFFF","type_label":"Bus"},"type":"Feature"},{"geometry":{"coordinates":[[-107.85183,37.32252],[-107.85189,37.32106],[-107.85109,37.31844],[-107.85126,37.31625],[-107.85521,37.31064],[-107.85638,37.30984],[-107.85963,37.30848],[-107.86131,37.30811],[-107.86595,37.30599],[-107.86796,37.30471],[-107.87022,37.30212],[-107.87605,37.2874],[-107.88144,37.27123],[-107.88364,37.27171],[-107.88332,37.27279],[-107.88303,37.2727]],"type":"LineString"},"properties":{"color":"#E91E15","color_name":"red","kind":"route","label":"Route 1","long":"Main Ave Trolley","route_id":"TR","text_color":"#000000","type_label":"Bus"},"type":"Feature"},{"geometry":{"coordinates":[[-107.88316,37.27162],[-107.88144,37.27124],[-107.88176,37.27016],[-107.87626,37.26902],[-107.87768,37.26471],[-107.87363,37.26388],[-107.87374,37.26353],[-107.87457,37.26332],[-107.87505,37.26249],[-107.87586,37.26175],[-107.87713,37.26105],[-107.87667,37.25986],[-107.87637,37.25609],[-107.87658,37.25372],[-107.87725,37.2529],[-107.87656,37.25178],[-107.87526,37.24876],[-107.87447,37.24639],[-107.87721,37.24553],[-107.87867,37.24543],[-107.8787,37.24194],[-107.8774,37.23859],[-107.87658,37.23781],[-107.87513,37.23743],[-107.87107,37.23843],[-107.87074,37.23836],[-107.8701,37.23704],[-107.86932,37.2361],[-107.86256,37.23005],[-107.86264,37.2295],[-107.86314,37.22921],[-107.86517,37.22878],[-107.86344,37.22896],[-107.86218,37.22968],[-107.86921,37.23617],[-107.87025,37.23765],[-107.87064,37.23858],[-107.86938,37.23894],[-107.86865,37.23887],[-107.8686,37.23923],[-107.86887,37.23992],[-107.8686,37.23923],[-107.86865,37.23887],[-107.86938,37.23894],[-107.87064,37.23858],[-107.87365,37.24581],[-107.87331,37.24598],[-107.87596,37.25218],[-107.87597,37.25307],[-107.87642,37.25372],[-107.8762,37.25603],[-107.87648,37.2597],[-107.87678,37.26075],[-107.87745,37.26173],[-107.87958,37.26384],[-107.88109,37.26635],[-107.88177,37.26676],[-107.88405,37.26743],[-107.88476,37.26823],[-107.88464,37.26969],[-107.8837,37.27288],[-107.88275,37.27268]],"type":"LineString"},"properties":{"color":"#BF6113","color_name":"orange","kind":"route","label":"Route 3","long":"Walmart","route_id":"WM","text_color":"#000000","type_label":"Bus"},"type":"Feature"},{"geometry":{"coordinates":[-107.88313,37.27268],"type":"Point"},"properties":{"kind":"stop","name":"Transit Center","stop_id":"100"},"type":"Feature"},{"geometry":{"coordinates":[-107.88061,37.2735],"type":"Point"},"properties":{"kind":"stop","name":"Main Ave. & 9th St.","stop_id":"104"},"type":"Feature"},{"geometry":{"coordinates":[-107.8794,37.27686],"type":"Point"},"properties":{"kind":"stop","name":"Buckley Park","stop_id":"107"},"type":"Feature"},{"geometry":{"coordinates":[-107.87904,37.27825],"type":"Point"},"properties":{"kind":"stop","name":"Auto Zone","stop_id":"108"},"type":"Feature"},{"geometry":{"coordinates":[-107.87695,37.2844],"type":"Point"},"properties":{"kind":"stop","name":"Main Ave. & 19th St.","stop_id":"110"},"type":"Feature"},{"geometry":{"coordinates":[-107.87618,37.28666],"type":"Point"},"properties":{"kind":"stop","name":"Adobe Inn","stop_id":"113"},"type":"Feature"},{"geometry":{"coordinates":[-107.87535,37.28906],"type":"Point"},"properties":{"kind":"stop","name":"Durango High School","stop_id":"116"},"type":"Feature"},{"geometry":{"coordinates":[-107.87322,37.29443],"type":"Point"},"properties":{"kind":"stop","name":"Rec Center","stop_id":"119"},"type":"Feature"},{"geometry":{"coordinates":[-107.87228,37.29694],"type":"Point"},"properties":{"kind":"stop","name":"Travellodge","stop_id":"122"},"type":"Feature"},{"geometry":{"coordinates":[-107.87093,37.30016],"type":"Point"},"properties":{"kind":"stop","name":"North City Market","stop_id":"125"},"type":"Feature"},{"geometry":{"coordinates":[-107.86886,37.30352],"type":"Point"},"properties":{"kind":"stop","name":"Main Ave. & Earl St.","stop_id":"128"},"type":"Feature"},{"geometry":{"coordinates":[-107.86564,37.30602],"type":"Point"},"properties":{"kind":"stop","name":"Main Ave. & Animas View Dr.","stop_id":"131"},"type":"Feature"},{"geometry":{"coordinates":[-107.85187,37.3224],"type":"Point"},"properties":{"kind":"stop","name":"North Animas View Dr.","stop_id":"134"},"type":"Feature"},{"geometry":{"coordinates":[-107.85172,37.3202],"type":"Point"},"properties":{"kind":"stop","name":"United Campground","stop_id":"137"},"type":"Feature"},{"geometry":{"coordinates":[-107.85398,37.31233],"type":"Point"},"properties":{"kind":"stop","name":"Redwood Lodge","stop_id":"140"},"type":"Feature"},{"geometry":{"coordinates":[-107.85651,37.30987],"type":"Point"},"properties":{"kind":"stop","name":"Recodo Del Rio","stop_id":"143"},"type":"Feature"},{"geometry":{"coordinates":[-107.86072,37.30833],"type":"Point"},"properties":{"kind":"stop","name":"Animas Trailer Park","stop_id":"146"},"type":"Feature"},{"geometry":{"coordinates":[-107.86542,37.30645],"type":"Point"},"properties":{"kind":"stop","name":"Hampton Inn","stop_id":"152"},"type":"Feature"},{"geometry":{"coordinates":[-107.86949,37.30317],"type":"Point"},"properties":{"kind":"stop","name":"Main Ave. & Durango Joe's","stop_id":"155"},"type":"Feature"},{"geometry":{"coordinates":[-107.87136,37.29983],"type":"Point"},"properties":{"kind":"stop","name":"Spanish Trails","stop_id":"158"},"type":"Feature"},{"geometry":{"coordinates":[-107.87266,37.29679],"type":"Point"},"properties":{"kind":"stop","name":"Main Ave. & 29th St.","stop_id":"161"},"type":"Feature"},{"geometry":{"coordinates":[-107.87377,37.29394],"type":"Point"},"properties":{"kind":"stop","name":"Main Ave. & 27th St.","stop_id":"164"},"type":"Feature"},{"geometry":{"coordinates":[-107.87585,37.28855],"type":"Point"},"properties":{"kind":"stop","name":"Brookside Park","stop_id":"167"},"type":"Feature"},{"geometry":{"coordinates":[-107.87666,37.28605],"type":"Point"},"properties":{"kind":"stop","name":"Main Ave. & 21st ST","stop_id":"170"},"type":"Feature"},{"geometry":{"coordinates":[-107.87746,37.28363],"type":"Point"},"properties":{"kind":"stop","name":"Valero Fuel Station","stop_id":"173"},"type":"Feature"},{"geometry":{"coordinates":[-107.87915,37.27841],"type":"Point"},"properties":{"kind":"stop","name":"Main Ave. & 14th St.","stop_id":"174"},"type":"Feature"},{"geometry":{"coordinates":[-107.88006,37.27573],"type":"Point"},"properties":{"kind":"stop","name":"Main Ave. & 11th St.","stop_id":"176"},"type":"Feature"},{"geometry":{"coordinates":[-107.88087,37.27328],"type":"Point"},"properties":{"kind":"stop","name":"Main Ave. & 9th St.","stop_id":"177"},"type":"Feature"},{"geometry":{"coordinates":[-107.88159,37.27138],"type":"Point"},"properties":{"kind":"stop","name":"Main Ave. & 7th St.","stop_id":"179"},"type":"Feature"},{"geometry":{"coordinates":[-107.88126,37.26997],"type":"Point"},"properties":{"kind":"stop","name":"College Dr. & Main Ave.","stop_id":"201"},"type":"Feature"},{"geometry":{"coordinates":[-107.87729,37.26916],"type":"Point"},"properties":{"kind":"stop","name":"College Dr. & 4th Ave.","stop_id":"204"},"type":"Feature"},{"geometry":{"coordinates":[-107.87204,37.26803],"type":"Point"},"properties":{"kind":"stop","name":"College Dr. & 8th Ave","stop_id":"207"},"type":"Feature"},{"geometry":{"coordinates":[-107.86207,37.27564],"type":"Point"},"properties":{"kind":"stop","name":"Valle De Merced Apartments","stop_id":"210"},"type":"Feature"},{"geometry":{"coordinates":[-107.86063,37.27763],"type":"Point"},"properties":{"kind":"stop","name":"Ferringway Apartments","stop_id":"213"},"type":"Feature"},{"geometry":{"coordinates":[-107.86761,37.2775],"type":"Point"},"properties":{"kind":"stop","name":"Fort Lewis College","stop_id":"216"},"type":"Feature"},{"geometry":{"coordinates":[-107.85904,37.28007],"type":"Point"},"properties":{"kind":"stop","name":"Hillcrest Apartments.","stop_id":"219"},"type":"Feature"},{"geometry":{"coordinates":[-107.85654,37.28256],"type":"Point"},"properties":{"kind":"stop","name":"Hillcrest Dr.","stop_id":"222"},"type":"Feature"},{"geometry":{"coordinates":[-107.853,37.29244],"type":"Point"},"properties":{"kind":"stop","name":"Rim Dr.","stop_id":"223"},"type":"Feature"},{"geometry":{"coordinates":[-107.85621,37.2926],"type":"Point"},"properties":{"kind":"stop","name":"N College Dr. & Willow Pl. NB","stop_id":"225"},"type":"Feature"},{"geometry":{"coordinates":[-107.85335,37.29582],"type":"Point"},"properties":{"kind":"stop","name":"N College Dr. & Florida Rd.","stop_id":"227"},"type":"Feature"},{"geometry":{"coordinates":[-107.8486,37.29858],"type":"Point"},"properties":{"kind":"stop","name":"Ptarmigan Center","stop_id":"231"},"type":"Feature"},{"geometry":{"coordinates":[-107.85738,37.29808],"type":"Point"},"properties":{"kind":"stop","name":"32nd & Holly","stop_id":"234"},"type":"Feature"},{"geometry":{"coordinates":[-107.85831,37.29407],"type":"Point"},"properties":{"kind":"stop","name":"Florida & Oak","stop_id":"236"},"type":"Feature"},{"geometry":{"coordinates":[-107.86141,37.2922],"type":"Point"},"properties":{"kind":"stop","name":"Florida & Aspen","stop_id":"238"},"type":"Feature"},{"geometry":{"coordinates":[-107.86434,37.2895],"type":"Point"},"properties":{"kind":"stop","name":"Florida & Colorado","stop_id":"241"},"type":"Feature"},{"geometry":{"coordinates":[-107.86733,37.28533],"type":"Point"},"properties":{"kind":"stop","name":"Florida & Folsom","stop_id":"243"},"type":"Feature"},{"geometry":{"coordinates":[-107.87005,37.283],"type":"Point"},"properties":{"kind":"stop","name":"Island Cove","stop_id":"245"},"type":"Feature"},{"geometry":{"coordinates":[-107.87667,37.27838],"type":"Point"},"properties":{"kind":"stop","name":"Tamarin Square Apt.","stop_id":"247"},"type":"Feature"},{"geometry":{"coordinates":[-107.86135,37.22592],"type":"Point"},"properties":{"kind":"stop","name":"Rocket Point South","stop_id":"2658676"},"type":"Feature"},{"geometry":{"coordinates":[-107.8614,37.22636],"type":"Point"},"properties":{"kind":"stop","name":"Rocket Point North","stop_id":"2658677"},"type":"Feature"},{"geometry":{"coordinates":[-107.83638,37.23132],"type":"Point"},"properties":{"kind":"stop","name":"Wilson Gulch","stop_id":"2658678"},"type":"Feature"},{"geometry":{"coordinates":[-107.82029,37.22796],"type":"Point"},"properties":{"kind":"stop","name":"CR 233","stop_id":"2658679"},"type":"Feature"},{"geometry":{"coordinates":[-107.82558,37.23546],"type":"Point"},"properties":{"kind":"stop","name":"Mercy Hospital","stop_id":"2658680"},"type":"Feature"},{"geometry":{"coordinates":[-107.82204,37.23734],"type":"Point"},"properties":{"kind":"stop","name":"Confluence Ave & Heritage Ln","stop_id":"2658681"},"type":"Feature"},{"geometry":{"coordinates":[-107.82324,37.23764],"type":"Point"},"properties":{"kind":"stop","name":"Mercado & Confluence","stop_id":"2658686"},"type":"Feature"},{"geometry":{"coordinates":[-107.88375,37.27988],"type":"Point"},"properties":{"kind":"stop","name":"Forest Ave & Avenida Del Sol","stop_id":"3038506"},"type":"Feature"},{"geometry":{"coordinates":[-107.88532,37.27905],"type":"Point"},"properties":{"kind":"stop","name":"Avenida Del Sol & Falcon Way","stop_id":"3038507"},"type":"Feature"},{"geometry":{"coordinates":[-107.8851,37.27712],"type":"Point"},"properties":{"kind":"stop","name":"Manna","stop_id":"3038508"},"type":"Feature"},{"geometry":{"coordinates":[-107.8852,37.27459],"type":"Point"},"properties":{"kind":"stop","name":"Roosa Ave & 9th Street","stop_id":"3038509"},"type":"Feature"},{"geometry":{"coordinates":[-107.8923,37.27332],"type":"Point"},"properties":{"kind":"stop","name":"Tech Center","stop_id":"3038510"},"type":"Feature"},{"geometry":{"coordinates":[-107.90051,37.2701],"type":"Point"},"properties":{"kind":"stop","name":"Westwood","stop_id":"3038511"},"type":"Feature"},{"geometry":{"coordinates":[-107.90612,37.27028],"type":"Point"},"properties":{"kind":"stop","name":"Four Winds","stop_id":"3038512"},"type":"Feature"},{"geometry":{"coordinates":[-107.91277,37.26913],"type":"Point"},"properties":{"kind":"stop","name":"Speedway","stop_id":"3038513"},"type":"Feature"},{"geometry":{"coordinates":[-107.91359,37.26856],"type":"Point"},"properties":{"kind":"stop","name":"Lightner Creek Village","stop_id":"3038515"},"type":"Feature"},{"geometry":{"coordinates":[-107.90528,37.27003],"type":"Point"},"properties":{"kind":"stop","name":"Marathon","stop_id":"3038516"},"type":"Feature"},{"geometry":{"coordinates":[-107.89511,37.27023],"type":"Point"},"properties":{"kind":"stop","name":"Residences at Durango","stop_id":"3038517"},"type":"Feature"},{"geometry":{"coordinates":[-107.89951,37.26972],"type":"Point"},"properties":{"kind":"stop","name":"Westside Mobile Park","stop_id":"3038518"},"type":"Feature"},{"geometry":{"coordinates":[-107.87671,37.26788],"type":"Point"},"properties":{"kind":"stop","name":"5th Ave. & 5th St.","stop_id":"305"},"type":"Feature"},{"geometry":{"coordinates":[-107.87752,37.26564],"type":"Point"},"properties":{"kind":"stop","name":"5th Ave. & 3rd St.","stop_id":"307"},"type":"Feature"},{"geometry":{"coordinates":[-107.87641,37.26439],"type":"Point"},"properties":{"kind":"stop","name":"2nd St. & 6th Ave.","stop_id":"309"},"type":"Feature"},{"geometry":{"coordinates":[-107.87409,37.2639],"type":"Point"},"properties":{"kind":"stop","name":"2nd St. & 8th Ave.","stop_id":"311"},"type":"Feature"},{"geometry":{"coordinates":[-107.87679,37.25112],"type":"Point"},"properties":{"kind":"stop","name":"Centennial Center","stop_id":"313"},"type":"Feature"},{"geometry":{"coordinates":[-107.87465,37.24642],"type":"Point"},"properties":{"kind":"stop","name":"Bodo Dr.","stop_id":"315"},"type":"Feature"},{"geometry":{"coordinates":[-107.87846,37.24551],"type":"Point"},"properties":{"kind":"stop","name":"Bodo Dr. & Turner Dr.","stop_id":"317"},"type":"Feature"},{"geometry":{"coordinates":[-107.87842,37.24077],"type":"Point"},"properties":{"kind":"stop","name":"Turner Dr. & Sawyer Dr.","stop_id":"318"},"type":"Feature"},{"geometry":{"coordinates":[-107.87372,37.23766],"type":"Point"},"properties":{"kind":"stop","name":"Turner Dr. & Sheppard Dr.","stop_id":"320"},"type":"Feature"},{"geometry":{"coordinates":[-107.86485,37.22891],"type":"Point"},"properties":{"kind":"stop","name":"Walmart","stop_id":"322"},"type":"Feature"},{"geometry":{"coordinates":[-107.86922,37.239],"type":"Point"},"properties":{"kind":"stop","name":"Trans Lux Dr.","stop_id":"325"},"type":"Feature"},{"geometry":{"coordinates":[-107.87333,37.24623],"type":"Point"},"properties":{"kind":"stop","name":"Serious Texas BBQ","stop_id":"329"},"type":"Feature"},{"geometry":{"coordinates":[-107.87518,37.25047],"type":"Point"},"properties":{"kind":"stop","name":"Big 5 Sporting Goods","stop_id":"331"},"type":"Feature"},{"geometry":{"coordinates":[-107.87588,37.25315],"type":"Point"},"properties":{"kind":"stop","name":"Nature's Oasis","stop_id":"333"},"type":"Feature"},{"geometry":{"coordinates":[-107.87749,37.28766],"type":"Point"},"properties":{"kind":"stop","name":"22nd St. & 2nd Ave.","stop_id":"3347862"},"type":"Feature"},{"geometry":{"coordinates":[-107.88218,37.2909],"type":"Point"},"properties":{"kind":"stop","name":"Arroyo Dr. & Delwood Ave.","stop_id":"3347863"},"type":"Feature"},{"geometry":{"coordinates":[-107.8816,37.28779],"type":"Point"},"properties":{"kind":"stop","name":"Delwood Ave. & Crestview Dr.","stop_id":"3347864"},"type":"Feature"},{"geometry":{"coordinates":[-107.88387,37.28763],"type":"Point"},"properties":{"kind":"stop","name":"Forest Ave. & Crestview Dr.","stop_id":"3347865"},"type":"Feature"},{"geometry":{"coordinates":[-107.88385,37.28288],"type":"Point"},"properties":{"kind":"stop","name":"Forest Ave. & Kearney St.","stop_id":"3347866"},"type":"Feature"},{"geometry":{"coordinates":[-107.86867,37.2398],"type":"Point"},"properties":{"kind":"stop","name":"Mercury Village Dr","stop_id":"3348116"},"type":"Feature"},{"geometry":{"coordinates":[-107.85979,37.22303],"type":"Point"},"properties":{"kind":"stop","name":"Sunnyside","stop_id":"3348117"},"type":"Feature"},{"geometry":{"coordinates":[-107.85959,37.22313],"type":"Point"},"properties":{"kind":"stop","name":"Home Depot","stop_id":"3348118"},"type":"Feature"},{"geometry":{"coordinates":[-107.82556,37.23953],"type":"Point"},"properties":{"kind":"stop","name":"Pinion Terrace","stop_id":"3349059"},"type":"Feature"},{"geometry":{"coordinates":[-107.82839,37.2327],"type":"Point"},"properties":{"kind":"stop","name":"Subaru","stop_id":"3560762"},"type":"Feature"},{"geometry":{"coordinates":[-107.82663,37.2327],"type":"Point"},"properties":{"kind":"stop","name":"Miremonte","stop_id":"3561484"},"type":"Feature"},{"geometry":{"coordinates":[-107.85081,37.29992],"type":"Point"},"properties":{"kind":"stop","name":"East Animas","stop_id":"3724509"},"type":"Feature"},{"geometry":{"coordinates":[-107.8688,37.29867],"type":"Point"},"properties":{"kind":"stop","name":"E. 3rd Ave. & 31st.","stop_id":"502"},"type":"Feature"},{"geometry":{"coordinates":[-107.86951,37.29511],"type":"Point"},"properties":{"kind":"stop","name":"Memorial Park","stop_id":"504"},"type":"Feature"},{"geometry":{"coordinates":[-107.86724,37.29238],"type":"Point"},"properties":{"kind":"stop","name":"Riverview Dr. & Mesa Ave.","stop_id":"506"},"type":"Feature"},{"geometry":{"coordinates":[-107.86951,37.2874],"type":"Point"},"properties":{"kind":"stop","name":"Riverview Dr. & N Animas Pl.","stop_id":"508"},"type":"Feature"},{"geometry":{"coordinates":[-107.86971,37.28476],"type":"Point"},"properties":{"kind":"stop","name":"Riverview Dr. & S Animas Pl.","stop_id":"510"},"type":"Feature"},{"geometry":{"coordinates":[-107.86824,37.28356],"type":"Point"},"properties":{"kind":"stop","name":"Florida Rd. & Chapman Hill","stop_id":"512"},"type":"Feature"},{"geometry":{"coordinates":[-107.86382,37.28974],"type":"Point"},"properties":{"kind":"stop","name":"Florida Rd. & Colorado Ave.","stop_id":"514"},"type":"Feature"},{"geometry":{"coordinates":[-107.86032,37.29256],"type":"Point"},"properties":{"kind":"stop","name":"Florida Rd. & Aspen Dr.","stop_id":"516"},"type":"Feature"},{"geometry":{"coordinates":[-107.85807,37.294],"type":"Point"},"properties":{"kind":"stop","name":"Florida Rd. & Oak Dr.","stop_id":"518"},"type":"Feature"},{"geometry":{"coordinates":[-107.85435,37.29568],"type":"Point"},"properties":{"kind":"stop","name":"Florida Rd. & N College Dr.","stop_id":"520"},"type":"Feature"},{"geometry":{"coordinates":[-107.85622,37.29286],"type":"Point"},"properties":{"kind":"stop","name":"N College Dr. & Willow Pl. SB","stop_id":"522"},"type":"Feature"},{"geometry":{"coordinates":[-107.85317,37.29012],"type":"Point"},"properties":{"kind":"stop","name":"Rim Drive","stop_id":"524"},"type":"Feature"},{"geometry":{"coordinates":[-107.85713,37.28226],"type":"Point"},"properties":{"kind":"stop","name":"Goeglein & Linda Court","stop_id":"526"},"type":"Feature"},{"geometry":{"coordinates":[-107.85947,37.27974],"type":"Point"},"properties":{"kind":"stop","name":"Goeglein & Fort Lewis Dr.","stop_id":"528"},"type":"Feature"}],"type":"FeatureCollection"}
