{"features":[{"geometry":{"coordinates":[[-122.20439,37.48538],[-122.2021,37.48512],[-122.20227,37.48448],[-122.20317,37.48315],[-122.20971,37.48462],[-122.2189,37.48593],[-122.21828,37.48703],[-122.22395,37.48667],[-122.2264,37.48767],[-122.23117,37.48745],[-122.23089,37.48561]],"type":"LineString"},"properties":{"color":"#EC7174","color_name":"pink","kind":"route","label":"RWC Line","long":"RWC Line","route_id":"11273689","text_color":"#000000","type_label":"Bus"},"type":"Feature"},{"geometry":{"coordinates":[[-122.16646,37.44416],[-122.16502,37.44305],[-122.16532,37.44266],[-122.16515,37.44237],[-122.16565,37.44151],[-122.16596,37.44037],[-122.16668,37.44072],[-122.16725,37.44136],[-122.16889,37.44253],[-122.17039,37.44126],[-122.173,37.43562],[-122.17315,37.4356],[-122.17312,37.43495],[-122.17344,37.43492],[-122.17427,37.43279],[-122.17395,37.43286],[-122.17394,37.43252],[-122.17341,37.43241],[-122.17408,37.43068],[-122.17478,37.43045],[-122.1784,37.43109],[-122.17913,37.43097],[-122.17981,37.4306],[-122.18055,37.4295],[-122.18103,37.42777],[-122.18156,37.42674],[-122.18145,37.42665],[-122.18083,37.42665],[-122.1791,37.42609],[-122.17773,37.42619],[-122.17309,37.4252],[-122.17355,37.42392],[-122.17336,37.42316],[-122.17212,37.42359],[-122.17043,37.42371],[-122.17,37.42257],[-122.16906,37.42256],[-122.16841,37.42142],[-122.16559,37.42283],[-122.16515,37.42288],[-122.16371,37.42234],[-122.16282,37.42229],[-122.16137,37.42256],[-122.16081,37.42325],[-122.15942,37.42662],[-122.15851,37.42673],[-122.15781,37.42712],[-122.15423,37.4295],[-122.15257,37.42942],[-122.15041,37.42777],[-122.15024,37.42732],[-122.15143,37.42584],[-122.1524,37.42567],[-122.1523,37.42505],[-122.1517,37.4248],[-122.14927,37.42769],[-122.14665,37.42539],[-122.12884,37.41608],[-122.12666,37.41434],[-122.12,37.40616],[-122.11515,37.40201],[-122.11357,37.40115],[-122.1108,37.40574],[-122.10715,37.4042],[-122.10621,37.40305],[-122.10993,37.39939],[-122.11466,37.40193],[-122.11534,37.40233],[-122.12,37.40641],[-122.12623,37.41412],[-122.12801,37.41574],[-122.14206,37.42315],[-122.14237,37.42346],[-122.14655,37.42552],[-122.14917,37.42783],[-122.1517,37.4248],[-122.1523,37.42505],[-122.1524,37.42567],[-122.15151,37.4258],[-122.15109,37.42613],[-122.15029,37.42714],[-122.15026,37.42751],[-122.15236,37.4293],[-122.15324,37.42953],[-122.15316,37.42968],[-122.15428,37.42964],[-122.1584,37.42691],[-122.15883,37.42678],[-122.15959,37.42694],[-122.15977,37.42602],[-122.1607,37.42428],[-122.16087,37.42341],[-122.16176,37.4226],[-122.1633,37.42244],[-122.16542,37.42292],[-122.16841,37.42142],[-122.16908,37.42263],[-122.17002,37.42262],[-122.17045,37.42372],[-122.17212,37.42359],[-122.17336,37.42316],[-122.17355,37.42392],[-122.17309,37.4252],[-122.17757,37.42617],[-122.1791,37.42609],[-122.18124,37.4268],[-122.18052,37.42942],[-122.18005,37.4301],[-122.17944,37.43055],[-122.17805,37.43083],[-122.17464,37.43035],[-122.17396,37.43063],[-122.1733,37.43239],[-122.17423,37.4326],[-122.17356,37.43475],[-122.17297,37.43498],[-122.17307,37.43542],[-122.17288,37.43586],[-122.17273,37.43581],[-122.17034,37.4411],[-122.16752,37.44356],[-122.16543,37.44157],[-122.16499,37.44233],[-122.1647,37.44225],[-122.16437,37.4426],[-122.1644,37.44299],[-122.16493,37.44306],[-122.16673,37.44415],[-122.16689,37.44435],[-122.16677,37.4444],[-122.16646,37.44416]],"type":"LineString"},"properties":{"color":"#D174AF","color_name":"pink","kind":"route","label":"SE","long":"Shopping Express","route_id":"12881950","text_color":"#FFFFFF","type_label":"Bus"},"type":"Feature"},{"geometry":{"coordinates":[[-122.15005,37.39541],[-122.14995,37.3955],[-122.14925,37.39488],[-122.14809,37.39276],[-122.14564,37.39359],[-122.14599,37.39433],[-122.14714,37.394],[-122.14752,37.39475],[-122.14722,37.39495],[-122.14647,37.39494],[-122.14564,37.3936],[-122.14324,37.39449],[-122.14376,37.39679],[-122.14601,37.40337],[-122.14598,37.40426],[-122.14543,37.40644],[-122.14536,37.4078],[-122.1458,37.4083],[-122.14722,37.40902],[-122.1481,37.40797],[-122.14867,37.40773],[-122.14953,37.40771],[-122.15322,37.40951],[-122.14191,37.42309],[-122.14655,37.42552],[-122.16294,37.43991],[-122.16485,37.44198],[-122.1643,37.4428],[-122.16463,37.44319]],"type":"LineString"},"properties":{"color":"#008579","color_name":"teal","kind":"route","label":"RP PM","long":"Research Park","route_id":"14602095","text_color":"#FFFFFF","type_label":"Bus"},"type":"Feature"},{"geometry":{"coordinates":[[-122.16646,37.44416],[-122.16673,37.44441],[-122.16685,37.44426],[-122.16564,37.44363],[-122.16497,37.44304],[-122.16532,37.44265],[-122.16515,37.44236],[-122.16568,37.44146],[-122.16596,37.44036],[-122.16657,37.44062],[-122.16717,37.44129],[-122.16888,37.44253],[-122.17038,37.44125],[-122.173,37.43562],[-122.17315,37.4356],[-122.17312,37.43495],[-122.17353,37.43476],[-122.17427,37.43279],[-122.17425,37.43258],[-122.1734,37.43241],[-122.17412,37.43062],[-122.17478,37.43044],[-122.1784,37.43109],[-122.1795,37.43082],[-122.18023,37.43019],[-122.18103,37.42777],[-122.18156,37.42674],[-122.18145,37.42665],[-122.18083,37.42664],[-122.17918,37.4261],[-122.17768,37.42619],[-122.17308,37.4252],[-122.17352,37.42392],[-122.17332,37.42316],[-122.17211,37.42358],[-122.17043,37.42371],[-122.17,37.42257],[-122.16906,37.42256],[-122.16841,37.42142],[-122.16568,37.42283],[-122.16516,37.42288],[-122.16282,37.42229],[-122.16142,37.42254],[-122.16081,37.42325],[-122.15939,37.42662],[-122.15851,37.42673],[-122.15781,37.42712],[-122.15423,37.4295],[-122.15257,37.42942],[-122.15026,37.42756],[-122.1503,37.42709],[-122.15114,37.42607],[-122.15177,37.42572],[-122.1524,37.42567],[-122.1523,37.42505],[-122.15169,37.42481],[-122.14929,37.42771],[-122.14656,37.42534],[-122.12884,37.41608],[-122.12666,37.41434],[-122.12,37.40616],[-122.11515,37.40201],[-122.11357,37.40115],[-122.11082,37.40573],[-122.10718,37.40423],[-122.10622,37.40307],[-122.10804,37.40115],[-122.1083,37.40124],[-122.10802,37.40114],[-122.10993,37.39939],[-122.11466,37.40193],[-122.11539,37.40236],[-122.12,37.40641],[-122.12605,37.41391],[-122.12811,37.41581],[-122.14636,37.42541],[-122.14919,37.42783],[-122.15169,37.42481],[-122.1523,37.42505],[-122.15241,37.42569],[-122.15157,37.42577],[-122.15124,37.42598],[-122.15029,37.42714],[-122.15026,37.42751],[-122.15236,37.4293],[-122.15324,37.42953],[-122.15316,37.42968],[-122.15428,37.42964],[-122.1584,37.42691],[-122.15883,37.42678],[-122.15959,37.42694],[-122.15977,37.42602],[-122.1607,37.42428],[-122.1609,37.42335],[-122.16131,37.42284],[-122.16205,37.4225],[-122.163,37.4224],[-122.16542,37.42293],[-122.16754,37.42201],[-122.16841,37.42142],[-122.16908,37.42263],[-122.17002,37.42264],[-122.17043,37.42371],[-122.17212,37.42359],[-122.17336,37.42316],[-122.17355,37.42392],[-122.17309,37.4252],[-122.17757,37.42617],[-122.1791,37.42609],[-122.18124,37.4268],[-122.18031,37.42975],[-122.17944,37.43055],[-122.17805,37.43083],[-122.17464,37.43035],[-122.17396,37.43063],[-122.1733,37.43239],[-122.17429,37.43257],[-122.17353,37.43477],[-122.17297,37.43497],[-122.17301,37.43548],[-122.17033,37.44114],[-122.16752,37.44356],[-122.16543,37.44157],[-122.16499,37.44232],[-122.16476,37.44223],[-122.16434,37.44257],[-122.1644,37.44299],[-122.16488,37.44307],[-122.16646,37.44416]],"type":"LineString"},"properties":{"color":"#D174AF","color_name":"pink","kind":"route","label":"SE","long":"Shopping Express - Weekend","route_id":"18","text_color":"#FFFFFF","type_label":"Bus"},"type":"Feature"},{"geometry":{"coordinates":[[-122.17066,37.42379],[-122.17098,37.4236],[-122.17212,37.42359],[-122.17336,37.42316],[-122.17355,37.42392],[-122.17309,37.4252],[-122.17768,37.42618],[-122.17904,37.42607],[-122.18124,37.4268],[-122.18066,37.42904],[-122.18005,37.4301],[-122.17944,37.43055],[-122.1787,37.43079],[-122.17481,37.43035],[-122.17396,37.43063],[-122.1733,37.43239],[-122.17424,37.43261],[-122.17356,37.43475],[-122.17298,37.43498],[-122.17307,37.43542],[-122.17289,37.43585],[-122.17273,37.43581],[-122.17108,37.43941],[-122.16674,37.43796],[-122.16567,37.4412],[-122.16499,37.44232],[-122.16469,37.44226],[-122.16437,37.44262],[-122.16433,37.44293],[-122.16463,37.44319]],"type":"LineString"},"properties":{"color":"#ED1C24","color_name":"red","kind":"route","label":"Y Line","long":"Y Line","route_id":"2","text_color":"#FFFFFF","type_label":"Bus"},"type":"Feature"},{"geometry":{"coordinates":[[-122.16433,37.44246],[-122.16433,37.44293],[-122.16464,37.44311],[-122.1653,37.4427],[-122.16515,37.44236],[-122.16568,37.44146],[-122.16891,37.43147],[-122.16976,37.43064],[-122.17013,37.42994],[-122.17018,37.42955],[-122.16998,37.42916],[-122.16933,37.42904],[-122.169,37.42923],[-122.16872,37.43028],[-122.16899,37.43126],[-122.16571,37.44109],[-122.16499,37.44232],[-122.16476,37.44223],[-122.16433,37.44246]],"type":"LineString"},"properties":{"color":"#AFDBBD","color_name":"white","kind":"route","label":"P Line","long":"P Line","route_id":"20","text_color":"#000000","type_label":"Bus"},"type":"Feature"},{"geometry":{"coordinates":[[-122.16423,37.44269],[-122.16464,37.44311],[-122.16525,37.44278],[-122.16518,37.44237],[-122.16568,37.44146],[-122.16596,37.44036],[-122.16657,37.44062],[-122.16717,37.44129],[-122.16888,37.44253],[-122.17051,37.44111],[-122.17247,37.43676],[-122.17593,37.43748],[-122.17656,37.43724],[-122.17895,37.43541],[-122.17957,37.43379],[-122.17704,37.43324],[-122.17684,37.43382],[-122.1774,37.434]],"type":"LineString"},"properties":{"color":"#91268F","color_name":"purple","kind":"route","label":"MC","long":"Medical Center","route_id":"22","text_color":"#FFFFFF","type_label":"Bus"},"type":"Feature"},{"geometry":{"coordinates":[[-122.17634,37.43078],[-122.1784,37.43109],[-122.1795,37.43082],[-122.18022,37.43018],[-122.18118,37.42732],[-122.18201,37.42559],[-122.18228,37.42371],[-122.18206,37.42253],[-122.18231,37.4219],[-122.17865,37.42099],[-122.17687,37.4203],[-122.17616,37.41968],[-122.17437,37.41732],[-122.16999,37.4142],[-122.1686,37.41343],[-122.16523,37.41259],[-122.16325,37.41174],[-122.15592,37.40626],[-122.15321,37.40952],[-122.14953,37.40772],[-122.14842,37.40783],[-122.14789,37.40817],[-122.14723,37.40904],[-122.1458,37.4083],[-122.14528,37.40747],[-122.14568,37.40541],[-122.14611,37.4043],[-122.14611,37.40347],[-122.14376,37.39679],[-122.14325,37.39455],[-122.14562,37.39366],[-122.14599,37.39433],[-122.14714,37.394],[-122.14752,37.39475],[-122.14722,37.39497],[-122.14647,37.39494],[-122.1457,37.39357],[-122.14324,37.39449],[-122.14376,37.39679],[-122.14603,37.40337],[-122.14528,37.40747],[-122.1458,37.4083],[-122.14723,37.40904],[-122.14783,37.40823],[-122.14848,37.40781],[-122.14953,37.40772],[-122.15334,37.40959],[-122.15591,37.40646],[-122.1632,37.41176],[-122.16523,37.41259],[-122.1686,37.41343],[-122.16999,37.4142],[-122.17437,37.41732],[-122.17517,37.4182],[-122.17602,37.41965],[-122.17674,37.42024],[-122.17865,37.42099],[-122.18193,37.42187],[-122.18214,37.42223],[-122.18226,37.42458],[-122.18173,37.42623],[-122.18124,37.42675],[-122.18042,37.42961],[-122.17993,37.43021],[-122.17922,37.43064],[-122.1783,37.43082],[-122.17828,37.42892],[-122.17798,37.42838],[-122.17739,37.42792],[-122.17646,37.42762],[-122.17556,37.43023],[-122.17621,37.43036],[-122.17611,37.43069],[-122.17634,37.43078]],"type":"LineString"},"properties":{"color":"#954A35","color_name":"brown","kind":"route","label":"1050A","long":"1050 Arastradero","route_id":"28","text_color":"#FFFFFF","type_label":"Bus"},"type":"Feature"},{"geometry":{"coordinates":[[-122.16463,37.44319],[-122.1653,37.4427],[-122.16515,37.44236],[-122.16568,37.44146],[-122.16596,37.44036],[-122.16657,37.44062],[-122.16717,37.44129],[-122.16888,37.44253],[-122.1703,37.44133],[-122.17308,37.43559],[-122.17303,37.43503],[-122.17353,37.4348],[-122.17397,37.4336],[-122.17414,37.43292],[-122.17395,37.43286],[-122.17394,37.43252],[-122.17341,37.43241],[-122.17408,37.43068],[-122.17478,37.43045],[-122.1784,37.43109],[-122.1795,37.43082],[-122.18022,37.43018],[-122.18118,37.42732],[-122.18156,37.42674],[-122.1791,37.42609],[-122.17773,37.42619],[-122.17309,37.42519],[-122.17355,37.42392],[-122.17336,37.42316],[-122.17212,37.42359],[-122.17065,37.42369]],"type":"LineString"},"properties":{"color":"#ED1C24","color_name":"red","kind":"route","label":"X Line","long":"X Line","route_id":"3","text_color":"#FFFFFF","type_label":"Bus"},"type":"Feature"},{"geometry":{"coordinates":[[-122.18801,37.43008],[-122.17595,37.43915],[-122.17628,37.43935],[-122.17748,37.43919],[-122.17806,37.43889],[-122.17836,37.43909],[-122.17923,37.43843],[-122.17819,37.43745],[-122.17486,37.43999],[-122.17433,37.44072],[-122.16679,37.43803],[-122.16565,37.44122],[-122.16505,37.4423],[-122.16479,37.44222],[-122.16436,37.44262],[-122.16434,37.44294],[-122.16489,37.4431],[-122.16686,37.44439],[-122.16497,37.44304],[-122.16529,37.44269],[-122.16516,37.44234],[-122.16569,37.44147],[-122.16673,37.43798],[-122.17113,37.43955],[-122.17192,37.43788],[-122.17547,37.43871],[-122.17596,37.43917],[-122.18863,37.42989],[-122.19007,37.42866],[-122.19176,37.42637],[-122.19717,37.42279],[-122.20056,37.4218],[-122.21094,37.42048],[-122.2109,37.41957],[-122.21128,37.4196],[-122.21177,37.42003],[-122.21128,37.4196],[-122.21077,37.41958],[-122.21081,37.42034],[-122.20426,37.42124],[-122.20473,37.42017],[-122.20492,37.42016],[-122.20451,37.42019],[-122.20412,37.42126],[-122.19987,37.42179],[-122.19735,37.42257],[-122.19625,37.42312],[-122.1915,37.42635],[-122.19005,37.42855],[-122.18801,37.43008]],"type":"LineString"},"properties":{"color":"#666733","color_name":"brown","kind":"route","label":"S Line","long":"S Line","route_id":"33","text_color":"#FFFFFF","type_label":"Bus"},"type":"Feature"},{"geometry":{"coordinates":[[-122.1812,37.43137],[-122.18266,37.43076],[-122.18271,37.43053],[-122.18128,37.42971],[-122.18048,37.4295],[-122.17975,37.43034],[-122.1787,37.43079],[-122.17481,37.43035],[-122.17426,37.43044],[-122.17388,37.43074],[-122.1733,37.43239],[-122.16894,37.43147],[-122.16986,37.43049],[-122.17013,37.42994],[-122.17014,37.42929],[-122.16933,37.42907],[-122.16884,37.42969],[-122.16873,37.43028],[-122.16894,37.43147],[-122.1733,37.43239],[-122.173,37.43329],[-122.1723,37.43413],[-122.17297,37.43497],[-122.17301,37.43548],[-122.17108,37.43941],[-122.16626,37.43777],[-122.16274,37.43586],[-122.1624,37.43619],[-122.15942,37.43752],[-122.15557,37.43845],[-122.1527,37.43943],[-122.12626,37.447],[-122.12526,37.44739],[-122.12273,37.44897],[-122.12206,37.44917],[-122.12154,37.4491],[-122.1213,37.44872],[-122.12143,37.44849],[-122.12188,37.44837],[-122.12225,37.44856],[-122.12505,37.45111],[-122.12802,37.45306],[-122.15235,37.4673],[-122.15378,37.46842],[-122.15422,37.46941],[-122.155,37.46965],[-122.15491,37.47179],[-122.15058,37.48039],[-122.15006,37.48181],[-122.14981,37.48202],[-122.14744,37.48259],[-122.14563,37.48364],[-122.12953,37.49834],[-122.11407,37.50887],[-122.1117,37.51069],[-122.10849,37.51388],[-122.10257,37.52195],[-122.09351,37.52984],[-122.09133,37.53117],[-122.0879,37.53248],[-122.07814,37.53414],[-122.07667,37.53458],[-122.07297,37.53623],[-122.07086,37.53761],[-122.05445,37.54999],[-122.0514,37.55158],[-122.05405,37.55285],[-122.05471,37.55176],[-122.05459,37.55162],[-122.05498,37.55124],[-122.05508,37.55139],[-122.05413,37.55271],[-122.05156,37.55148],[-122.0489,37.55376],[-122.04597,37.55559],[-122.04428,37.55688],[-122.04147,37.55966],[-122.03559,37.56714],[-122.0326,37.57056],[-122.03203,37.57059],[-122.01085,37.56019],[-121.9826,37.54556],[-121.97377,37.55704],[-121.97536,37.55786],[-121.9755,37.55765]],"type":"LineString"},"properties":{"color":"#AAAAAA","color_name":"gray","kind":"route","label":"AE-F Line","long":"AE-F Line","route_id":"36","text_color":"#900000","type_label":"Bus"},"type":"Feature"},{"geometry":{"coordinates":[[-122.16646,37.44416],[-122.16679,37.44442],[-122.16689,37.44425],[-122.16499,37.44305],[-122.16535,37.44261],[-122.16513,37.44231],[-122.16557,37.44171],[-122.16229,37.43912],[-122.14665,37.42539],[-122.14216,37.42304],[-122.15335,37.40959],[-122.14953,37.40771],[-122.14867,37.40773],[-122.1481,37.40797],[-122.14722,37.40902],[-122.14549,37.40804],[-122.14532,37.40707],[-122.14615,37.40384],[-122.14376,37.39679],[-122.14325,37.39455],[-122.14562,37.39366],[-122.14599,37.39433],[-122.14719,37.39404],[-122.14755,37.39473],[-122.14732,37.39497],[-122.14647,37.39497],[-122.14574,37.39363],[-122.14809,37.39276],[-122.14901,37.39456],[-122.15021,37.39577]],"type":"LineString"},"properties":{"color":"#008579","color_name":"teal","kind":"route","label":"RP AM","long":"Research Park","route_id":"38","text_color":"#FFFFFF","type_label":"Bus"},"type":"Feature"},{"geometry":{"coordinates":[[-122.17588,37.43972],[-122.17628,37.43935],[-122.17748,37.43919],[-122.17806,37.43889],[-122.17836,37.43909],[-122.17863,37.43891],[-122.17921,37.4384],[-122.17821,37.43751],[-122.18208,37.43467],[-122.18117,37.43413],[-122.17957,37.43378],[-122.17998,37.43255],[-122.18034,37.4326],[-122.18021,37.43152],[-122.18155,37.43133],[-122.18266,37.43076],[-122.18268,37.43053],[-122.18123,37.42969],[-122.18048,37.42949],[-122.17989,37.43024],[-122.1793,37.43062],[-122.17846,37.43083],[-122.17613,37.43059],[-122.17621,37.43036],[-122.16788,37.42859],[-122.16698,37.42838],[-122.16686,37.42819],[-122.16634,37.42827],[-122.16035,37.42699],[-122.15941,37.42661],[-122.15851,37.42673],[-122.15781,37.42712],[-122.15461,37.42947],[-122.15384,37.42974],[-122.15317,37.42968],[-122.15324,37.42953],[-122.15236,37.4293],[-122.15041,37.42777],[-122.1503,37.42709],[-122.15143,37.42584],[-122.1524,37.42567],[-122.1523,37.42505],[-122.15169,37.42481],[-122.15641,37.41914],[-122.15868,37.42042],[-122.16133,37.42261],[-122.1608,37.42322],[-122.1601,37.42521],[-122.1595,37.4265],[-122.1592,37.42675],[-122.15928,37.42694],[-122.15986,37.42688],[-122.16651,37.42833],[-122.16669,37.42853],[-122.16696,37.42843],[-122.16818,37.42866],[-122.17621,37.43036],[-122.17611,37.43069],[-122.17846,37.4311],[-122.17981,37.4306],[-122.18021,37.43018],[-122.18048,37.42949],[-122.18123,37.42969],[-122.18268,37.43053],[-122.18266,37.43076],[-122.18155,37.43133],[-122.1804,37.4315],[-122.18053,37.43236],[-122.18034,37.4326],[-122.17998,37.43255],[-122.17936,37.43435],[-122.18126,37.43419],[-122.18201,37.4346],[-122.17813,37.43745],[-122.17921,37.4384],[-122.17836,37.43909],[-122.17806,37.43889],[-122.17748,37.43919],[-122.17628,37.43935],[-122.17588,37.43909],[-122.17449,37.44028],[-122.17425,37.44069],[-122.17473,37.44085],[-122.17508,37.4402],[-122.17588,37.43972]],"type":"LineString"},"properties":{"color":"#6DCFF6","color_name":"white","kind":"route","label":"C Line","long":"C Line","route_id":"4","text_color":"#000000","type_label":"Bus"},"type":"Feature"},{"geometry":{"coordinates":[[-122.16463,37.44319],[-122.16532,37.44265],[-122.16515,37.44236],[-122.16568,37.44146],[-122.16791,37.43446],[-122.16738,37.43428],[-122.16048,37.42817],[-122.15967,37.42776],[-122.15943,37.42719],[-122.15966,37.42686],[-122.15977,37.42602],[-122.1607,37.42428],[-122.1609,37.42335],[-122.16131,37.42284],[-122.16218,37.42247],[-122.1633,37.42244],[-122.16542,37.42293],[-122.16754,37.42201],[-122.16839,37.42141],[-122.16908,37.42263],[-122.17002,37.42263],[-122.17037,37.42367],[-122.17066,37.42379]],"type":"LineString"},"properties":{"color":"#ED1C24","color_name":"red","kind":"route","label":"YL-AM","long":"Y Limited AM","route_id":"44","text_color":"#FFFFFF","type_label":"Bus"},"type":"Feature"},{"geometry":{"coordinates":[[-122.16463,37.44319],[-122.1653,37.4427],[-122.16515,37.44236],[-122.16568,37.44146],[-122.16596,37.44036],[-122.16657,37.44062],[-122.16717,37.44129],[-122.16888,37.44253],[-122.17033,37.44131],[-122.17307,37.43558],[-122.17312,37.43495],[-122.17344,37.43492],[-122.17358,37.43471],[-122.17427,37.43279],[-122.17414,37.43292],[-122.17426,37.4326],[-122.17341,37.43241],[-122.17408,37.43068],[-122.17478,37.43045],[-122.1784,37.43109],[-122.17913,37.43097],[-122.18022,37.43018],[-122.18097,37.428],[-122.18112,37.42803]],"type":"LineString"},"properties":{"color":"#ED1C24","color_name":"red","kind":"route","label":"XL-AM","long":"X Limited AM","route_id":"45","text_color":"#FFFFFF","type_label":"Bus"},"type":"Feature"},{"geometry":{"coordinates":[[-122.18121,37.43148],[-122.18266,37.43076],[-122.18268,37.43053],[-122.18099,37.4296],[-122.18048,37.42949],[-122.17989,37.43024],[-122.1793,37.43062],[-122.17846,37.43083],[-122.17613,37.43059],[-122.17621,37.43036],[-122.17594,37.43025],[-122.16785,37.42862],[-122.16696,37.42841],[-122.16681,37.42817],[-122.16639,37.42829],[-122.16035,37.42699],[-122.15941,37.42661],[-122.15851,37.42673],[-122.15781,37.42712],[-122.15461,37.42947],[-122.15384,37.42974],[-122.15317,37.42968],[-122.15324,37.42953],[-122.15236,37.4293],[-122.15026,37.42753],[-122.15033,37.42705],[-122.15114,37.42607],[-122.15177,37.42572],[-122.1524,37.42567],[-122.1523,37.42505],[-122.15169,37.42481],[-122.15641,37.41914],[-122.15868,37.42042],[-122.16131,37.42261],[-122.1608,37.42322],[-122.1601,37.42521],[-122.1592,37.42675],[-122.1593,37.42695],[-122.16063,37.42704],[-122.16653,37.42833],[-122.16669,37.42853],[-122.16806,37.42863],[-122.17621,37.43036],[-122.17611,37.43069],[-122.1784,37.43109],[-122.17939,37.43087],[-122.17991,37.43165],[-122.17998,37.43255],[-122.18034,37.4326],[-122.18021,37.43151],[-122.18121,37.43148]],"type":"LineString"},"properties":{"color":"#6DCFF6","color_name":"white","kind":"route","label":"C Line Limited AM/PM","long":"C Line Limited AM/PM","route_id":"46","text_color":"#000000","type_label":"Bus"},"type":"Feature"},{"geometry":{"coordinates":[[-122.1807,37.42856],[-122.18066,37.42904],[-122.18005,37.4301],[-122.17944,37.43055],[-122.1787,37.43079],[-122.17464,37.43036],[-122.17392,37.43067],[-122.1733,37.43239],[-122.17426,37.4326],[-122.17426,37.43282],[-122.17353,37.43477],[-122.17297,37.43497],[-122.17301,37.43548],[-122.17108,37.43941],[-122.16674,37.43796],[-122.16567,37.4412],[-122.16499,37.44232],[-122.16469,37.44226],[-122.16437,37.44262],[-122.16433,37.44293],[-122.16463,37.44319]],"type":"LineString"},"properties":{"color":"#ED1C24","color_name":"red","kind":"route","label":"YL-PM","long":"Y Limited PM","route_id":"47","text_color":"#FFFFFF","type_label":"Bus"},"type":"Feature"},{"geometry":{"coordinates":[[-122.16053,37.42864],[-122.16334,37.43079],[-122.16406,37.43147],[-122.16407,37.43177],[-122.1633,37.43403],[-122.16305,37.43564],[-122.16228,37.43623],[-122.15998,37.43731],[-122.16386,37.44074],[-122.16485,37.44198],[-122.1643,37.4428],[-122.16463,37.44319]],"type":"LineString"},"properties":{"color":"#ED1C24","color_name":"red","kind":"route","label":"XL-PM","long":"X Limited PM","route_id":"48","text_color":"#FFFFFF","type_label":"Bus"},"type":"Feature"},{"geometry":{"coordinates":[[-122.16463,37.44319],[-122.16532,37.44265],[-122.16515,37.44236],[-122.16568,37.44146],[-122.16891,37.43147],[-122.17426,37.43262],[-122.17385,37.43371]],"type":"LineString"},"properties":{"color":"#ED1C24","color_name":"red","kind":"route","label":"X Express AM","long":"X Express AM","route_id":"51","text_color":"#FFFFFF","type_label":"Bus"},"type":"Feature"},{"geometry":{"coordinates":[[-122.17365,37.43251],[-122.17425,37.43258],[-122.17354,37.43476],[-122.17297,37.43497],[-122.17301,37.43548],[-122.17108,37.43941],[-122.16674,37.43796],[-122.16567,37.4412],[-122.16499,37.44232],[-122.16469,37.44226],[-122.16437,37.44262],[-122.16433,37.44293],[-122.16463,37.44319]],"type":"LineString"},"properties":{"color":"#ED1C24","color_name":"red","kind":"route","label":"Y Express PM","long":"Y Express PM","route_id":"52","text_color":"#FFFFFF","type_label":"Bus"},"type":"Feature"},{"geometry":{"coordinates":[[-122.17066,37.42379],[-122.17098,37.4236],[-122.17212,37.42359],[-122.17336,37.42316],[-122.17355,37.42392],[-122.17309,37.4252],[-122.17757,37.42617],[-122.1791,37.42609],[-122.18124,37.4268],[-122.18048,37.42949],[-122.18123,37.42969],[-122.18236,37.43044],[-122.1847,37.43072],[-122.18576,37.43198],[-122.18852,37.42996],[-122.18866,37.43009],[-122.18953,37.42963],[-122.18994,37.42979],[-122.19026,37.43131],[-122.18889,37.43168],[-122.18792,37.43218],[-122.18746,37.43314],[-122.18547,37.43335],[-122.18474,37.43366],[-122.18404,37.43454],[-122.18349,37.43486],[-122.18268,37.43425],[-122.18576,37.43198],[-122.1847,37.43072],[-122.1825,37.43048],[-122.18128,37.42971],[-122.18055,37.4295],[-122.18103,37.42777],[-122.18156,37.42674],[-122.17918,37.4261],[-122.17773,37.4262],[-122.17309,37.4252],[-122.17355,37.42392],[-122.17336,37.42316],[-122.17212,37.42359],[-122.17036,37.42357],[-122.17066,37.42379]],"type":"LineString"},"properties":{"color":"#73909F","color_name":"gray","kind":"route","label":"OCA","long":"Oak Creek Apartments","route_id":"56","text_color":"#FFFFFF","type_label":"Bus"},"type":"Feature"},{"geometry":{"coordinates":[[-122.16902,37.44218],[-122.16758,37.44352],[-122.16566,37.44166],[-122.16601,37.44037],[-122.16652,37.44057],[-122.16721,37.44131],[-122.16891,37.44254],[-122.17038,37.44125],[-122.17247,37.43676],[-122.17504,37.43741],[-122.17613,37.43742],[-122.17889,37.43549],[-122.17957,37.43378],[-122.17703,37.43325],[-122.17683,37.43381],[-122.17937,37.43435],[-122.17998,37.43255],[-122.18056,37.43264],[-122.18057,37.4325],[-122.17998,37.43255],[-122.17957,37.43378],[-122.17703,37.43325],[-122.17683,37.43381],[-122.17756,37.43403]],"type":"LineString"},"properties":{"color":"#2DBCB5","color_name":"teal","kind":"route","label":"HD","long":"Hospital: Direct","route_id":"59","text_color":"#FFFFFF","type_label":"Bus"},"type":"Feature"},{"geometry":{"coordinates":[[-122.17621,37.42852],[-122.17646,37.42762],[-122.17739,37.42792],[-122.17798,37.42838],[-122.17833,37.42911],[-122.17827,37.43107],[-122.17898,37.43101],[-122.17981,37.4306],[-122.18029,37.43005],[-122.18048,37.42949],[-122.18123,37.42969],[-122.18251,37.43049],[-122.18474,37.43072],[-122.18576,37.43196],[-122.19007,37.42866],[-122.19176,37.42637],[-122.19593,37.42347],[-122.19717,37.42279],[-122.19927,37.42205],[-122.20429,37.42137],[-122.20426,37.42097],[-122.20466,37.42054],[-122.20466,37.42029],[-122.20351,37.42037],[-122.20313,37.42019],[-122.2029,37.4197],[-122.20303,37.41923],[-122.20332,37.41913],[-122.20328,37.41873],[-122.20265,37.4188],[-122.20265,37.41938],[-122.20196,37.41976],[-122.20085,37.41994],[-122.19974,37.41962],[-122.19877,37.4199],[-122.19806,37.41979],[-122.19753,37.41951],[-122.19704,37.41882],[-122.19712,37.41773],[-122.19695,37.41725],[-122.1973,37.41719],[-122.19725,37.41645],[-122.19692,37.41629],[-122.19686,37.41695],[-122.19712,37.41773],[-122.19704,37.41882],[-122.19753,37.41951],[-122.1986,37.41991],[-122.19974,37.41962],[-122.20085,37.41994],[-122.20248,37.41957],[-122.20271,37.41924],[-122.20265,37.4188],[-122.20315,37.41874],[-122.20303,37.41923],[-122.20316,37.41926],[-122.20333,37.41912],[-122.20328,37.41873],[-122.20315,37.41874],[-122.20292,37.41988],[-122.20351,37.42037],[-122.20438,37.42023],[-122.20448,37.42047],[-122.20412,37.42126],[-122.20053,37.42167],[-122.19857,37.42211],[-122.19574,37.42343],[-122.1915,37.42635],[-122.19005,37.42855],[-122.18568,37.43189],[-122.18506,37.43096],[-122.1847,37.43072],[-122.1825,37.43048],[-122.18128,37.42971],[-122.18055,37.4295],[-122.17975,37.43034],[-122.1787,37.43079],[-122.17614,37.4306],[-122.17624,37.43037],[-122.17552,37.43019],[-122.17621,37.42852]],"type":"LineString"},"properties":{"color":"#00A650","color_name":"green","kind":"route","label":"SLAC","long":"S L A C","route_id":"8","text_color":"#FFFFFF","type_label":"Bus"},"type":"Feature"},{"geometry":{"coordinates":[[-122.14141,37.42884],[-122.14237,37.42939],[-122.14312,37.4284],[-122.14022,37.42689],[-122.14107,37.42586],[-122.14041,37.42551],[-122.14044,37.42505],[-122.15334,37.40959],[-122.14944,37.4077],[-122.1488,37.40772],[-122.148,37.40806],[-122.14721,37.40904],[-122.14549,37.40802],[-122.14532,37.40707],[-122.14617,37.40384],[-122.14376,37.39679],[-122.14325,37.39455],[-122.14809,37.39276],[-122.14901,37.39456],[-122.15021,37.39577]],"type":"LineString"},"properties":{"color":"#EDE80C","color_name":"yellow","kind":"route","label":"CAX","long":"California Ave Caltrain","route_id":"CAX","text_color":"#000000","type_label":"Bus"},"type":"Feature"},{"geometry":{"coordinates":[-122.16915,37.42893],"type":"Point"},"properties":{"kind":"stop","name":"On Jane Stanford Way @ Campus Oval","stop_id":"1"},"type":"Feature"},{"geometry":{"coordinates":[-122.16464,37.42796],"type":"Point"},"properties":{"kind":"stop","name":"On Jane Stanford Way @ Burnham Pavilion","stop_id":"10"},"type":"Feature"},{"geometry":{"coordinates":[-122.16902,37.44218],"type":"Point"},"properties":{"kind":"stop","name":"On Quarry Road @ Neuroscience Health Center","stop_id":"101"},"type":"Feature"},{"geometry":{"coordinates":[-122.16952,37.44212],"type":"Point"},"properties":{"kind":"stop","name":"On Quarry Road @ Stanford Shopping Center","stop_id":"102"},"type":"Feature"},{"geometry":{"coordinates":[-122.17365,37.43251],"type":"Point"},"properties":{"kind":"stop","name":"On Roth Way @ Campus Drive","stop_id":"103"},"type":"Feature"},{"geometry":{"coordinates":[-122.17074,37.43191],"type":"Point"},"properties":{"kind":"stop","name":"On Roth Way @ Rodin Sculpture Garden","stop_id":"104"},"type":"Feature"},{"geometry":{"coordinates":[-122.1787,37.43873],"type":"Point"},"properties":{"kind":"stop","name":"On Clark Way Across From Leasing Office","stop_id":"108"},"type":"Feature"},{"geometry":{"coordinates":[-122.16412,37.42771],"type":"Point"},"properties":{"kind":"stop","name":"On Jane Stanford Way @ Encina Hall","stop_id":"11"},"type":"Feature"},{"geometry":{"coordinates":[-122.18393,37.43068],"type":"Point"},"properties":{"kind":"stop","name":"On Stock Farm Road @ Parking Lot L-20","stop_id":"111"},"type":"Feature"},{"geometry":{"coordinates":[-122.18388,37.43051],"type":"Point"},"properties":{"kind":"stop","name":"On Stock Farm Road @ Automotive Innovation Facility","stop_id":"112"},"type":"Feature"},{"geometry":{"coordinates":[-122.16657,37.44425],"type":"Point"},"properties":{"kind":"stop","name":"PATC @ Bus Depot Bay # 6","stop_id":"113"},"type":"Feature"},{"geometry":{"coordinates":[-122.11287,37.40215],"type":"Point"},"properties":{"kind":"stop","name":"On San Antonio Road @ El Camino Real NB","stop_id":"114"},"type":"Feature"},{"geometry":{"coordinates":[-122.17075,37.44072],"type":"Point"},"properties":{"kind":"stop","name":"On Quarry Road @ Sweet Olive Way","stop_id":"116"},"type":"Feature"},{"geometry":{"coordinates":[-122.16646,37.44416],"type":"Point"},"properties":{"kind":"stop","name":"PATC @ Bus Depot Bay #7","stop_id":"117"},"type":"Feature"},{"geometry":{"coordinates":[-122.16114,37.4272],"type":"Point"},"properties":{"kind":"stop","name":"On Jane Stanford Way @ Campus Drive","stop_id":"12"},"type":"Feature"},{"geometry":{"coordinates":[-122.17454,37.43719],"type":"Point"},"properties":{"kind":"stop","name":"On Welch Road @ LPCH","stop_id":"122"},"type":"Feature"},{"geometry":{"coordinates":[-122.14549,37.40814],"type":"Point"},"properties":{"kind":"stop","name":"Hillview Avenue @ Watkins Johnson","stop_id":"123"},"type":"Feature"},{"geometry":{"coordinates":[-122.16629,37.444],"type":"Point"},"properties":{"kind":"stop","name":"Palo Alto Transit Center","stop_id":"12309081"},"type":"Feature"},{"geometry":{"coordinates":[-122.10823,37.4012],"type":"Point"},"properties":{"kind":"stop","name":"On Showers Drive @ San Antonio Shopping Center","stop_id":"124"},"type":"Feature"},{"geometry":{"coordinates":[-122.23089,37.48561],"type":"Point"},"properties":{"kind":"stop","name":"On Winslow Street @ Redwood City Caltrain","stop_id":"125"},"type":"Feature"},{"geometry":{"coordinates":[-122.14609,37.42535],"type":"Point"},"properties":{"kind":"stop","name":"On El Camino Real NB @ California Avenue","stop_id":"126"},"type":"Feature"},{"geometry":{"coordinates":[-122.14577,37.42484],"type":"Point"},"properties":{"kind":"stop","name":"On El Camino Real SB @ California Avenue","stop_id":"127"},"type":"Feature"},{"geometry":{"coordinates":[-122.20439,37.48538],"type":"Point"},"properties":{"kind":"stop","name":"On Broadway @ Cardinal Hall","stop_id":"128"},"type":"Feature"},{"geometry":{"coordinates":[-122.20232,37.48476],"type":"Point"},"properties":{"kind":"stop","name":"On Barron Avenue @ Discovery Hall","stop_id":"129"},"type":"Feature"},{"geometry":{"coordinates":[-122.16037,37.42694],"type":"Point"},"properties":{"kind":"stop","name":"On Jane Stanford Way @ Manzanita Field","stop_id":"13"},"type":"Feature"},{"geometry":{"coordinates":[-122.17899,37.43501],"type":"Point"},"properties":{"kind":"stop","name":"On Welch Road @ Pasteur Staff Garage","stop_id":"130"},"type":"Feature"},{"geometry":{"coordinates":[-122.17698,37.43679],"type":"Point"},"properties":{"kind":"stop","name":"On Welch Road @ Blake Wilbur Drive","stop_id":"132"},"type":"Feature"},{"geometry":{"coordinates":[-122.17859,37.43584],"type":"Point"},"properties":{"kind":"stop","name":"1000 Welch Road","stop_id":"134"},"type":"Feature"},{"geometry":{"coordinates":[-122.17783,37.43639],"type":"Point"},"properties":{"kind":"stop","name":"900 Welch Road","stop_id":"136"},"type":"Feature"},{"geometry":{"coordinates":[-122.17664,37.43729],"type":"Point"},"properties":{"kind":"stop","name":"780 Welch Road","stop_id":"137"},"type":"Feature"},{"geometry":{"coordinates":[-122.15218,37.42523],"type":"Point"},"properties":{"kind":"stop","name":"On Olmsted Road @ Wellesley Street East","stop_id":"142"},"type":"Feature"},{"geometry":{"coordinates":[-122.14544,37.40709],"type":"Point"},"properties":{"kind":"stop","name":"3300 Hillview Avenue","stop_id":"146"},"type":"Feature"},{"geometry":{"coordinates":[-122.14565,37.40503],"type":"Point"},"properties":{"kind":"stop","name":"3375 Hillview Avenue","stop_id":"149"},"type":"Feature"},{"geometry":{"coordinates":[-122.18199,37.43484],"type":"Point"},"properties":{"kind":"stop","name":"On Sand Hill Road @ Clark Way","stop_id":"150"},"type":"Feature"},{"geometry":{"coordinates":[-122.17588,37.43972],"type":"Point"},"properties":{"kind":"stop","name":"On Clark Way @ Vi At Palo Alto","stop_id":"151"},"type":"Feature"},{"geometry":{"coordinates":[-122.18174,37.4347],"type":"Point"},"properties":{"kind":"stop","name":"On Sand Hill Road @ Pasteur Drive","stop_id":"152"},"type":"Feature"},{"geometry":{"coordinates":[-122.15151,37.42954],"type":"Point"},"properties":{"kind":"stop","name":"On El Camino Real SB @ Serra Street","stop_id":"153"},"type":"Feature"},{"geometry":{"coordinates":[-122.05486,37.55137],"type":"Point"},"properties":{"kind":"stop","name":"Ardenwood Park & Ride (Line U/DB Stop)","stop_id":"154"},"type":"Feature"},{"geometry":{"coordinates":[-121.9755,37.55765],"type":"Point"},"properties":{"kind":"stop","name":"Fremont BART (Line U Stop)","stop_id":"156"},"type":"Feature"},{"geometry":{"coordinates":[-122.20493,37.42041],"type":"Point"},"properties":{"kind":"stop","name":"In Parking Lot @ SLAC Main Gate (Restricted Access)","stop_id":"158"},"type":"Feature"},{"geometry":{"coordinates":[-122.14982,37.41397],"type":"Point"},"properties":{"kind":"stop","name":"1530 Page Mill Road","stop_id":"159"},"type":"Feature"},{"geometry":{"coordinates":[-122.18143,37.43436],"type":"Point"},"properties":{"kind":"stop","name":"On N Pasteur Drive @ Sand Hill Road","stop_id":"160"},"type":"Feature"},{"geometry":{"coordinates":[-122.18173,37.43422],"type":"Point"},"properties":{"kind":"stop","name":"On S Pasteur Drive @ Sand Hill Road","stop_id":"161"},"type":"Feature"},{"geometry":{"coordinates":[-122.15156,37.41187],"type":"Point"},"properties":{"kind":"stop","name":"On Page Mill Road @ Peter Coutts Road","stop_id":"163"},"type":"Feature"},{"geometry":{"coordinates":[-122.15093,37.41217],"type":"Point"},"properties":{"kind":"stop","name":"1501 Page Mill Road","stop_id":"164"},"type":"Feature"},{"geometry":{"coordinates":[-121.98017,37.54916],"type":"Point"},"properties":{"kind":"stop","name":"On Walnut Avenue @ Liberty Street","stop_id":"169"},"type":"Feature"},{"geometry":{"coordinates":[-122.16082,37.42377],"type":"Point"},"properties":{"kind":"stop","name":"On Campus Drive @ Parking Lot L-63","stop_id":"17"},"type":"Feature"},{"geometry":{"coordinates":[-121.98011,37.54876],"type":"Point"},"properties":{"kind":"stop","name":"On Walnut Avenue @ Wells Fargo","stop_id":"170"},"type":"Feature"},{"geometry":{"coordinates":[-122.00776,37.55872],"type":"Point"},"properties":{"kind":"stop","name":"On Fremont Blvd @ ACE Station","stop_id":"171"},"type":"Feature"},{"geometry":{"coordinates":[-122.0088,37.55901],"type":"Point"},"properties":{"kind":"stop","name":"ACE Station (Fremont Boulevard @ Bonde Way)","stop_id":"172"},"type":"Feature"},{"geometry":{"coordinates":[-122.17634,37.43078],"type":"Point"},"properties":{"kind":"stop","name":"On Campus Drive @ Li Ka Shing Center","stop_id":"177"},"type":"Feature"},{"geometry":{"coordinates":[-122.1758,37.43048],"type":"Point"},"properties":{"kind":"stop","name":"On Campus Drive Across From Li Ka Shing Center","stop_id":"178"},"type":"Feature"},{"geometry":{"coordinates":[-122.16022,37.42472],"type":"Point"},"properties":{"kind":"stop","name":"On Campus Drive @ Studio 2","stop_id":"18"},"type":"Feature"},{"geometry":{"coordinates":[-122.17266,37.43231],"type":"Point"},"properties":{"kind":"stop","name":"On Roth Way @ Roth Way Garage","stop_id":"180"},"type":"Feature"},{"geometry":{"coordinates":[-122.14268,37.42259],"type":"Point"},"properties":{"kind":"stop","name":"On Page Mill Road @ El Camino Real SB","stop_id":"183"},"type":"Feature"},{"geometry":{"coordinates":[-122.14689,37.4175],"type":"Point"},"properties":{"kind":"stop","name":"1290 Page Mill Road @ Hanover Street","stop_id":"184"},"type":"Feature"},{"geometry":{"coordinates":[-122.14666,37.40867],"type":"Point"},"properties":{"kind":"stop","name":"On Hillview Avenue @ Porter Drive","stop_id":"185"},"type":"Feature"},{"geometry":{"coordinates":[-122.14541,37.40125],"type":"Point"},"properties":{"kind":"stop","name":"On Hillview Avenue @ Coyote Hill Road","stop_id":"186"},"type":"Feature"},{"geometry":{"coordinates":[-122.14448,37.39862],"type":"Point"},"properties":{"kind":"stop","name":"3412 Hillview Avenue","stop_id":"187"},"type":"Feature"},{"geometry":{"coordinates":[-122.14637,37.39468],"type":"Point"},"properties":{"kind":"stop","name":"1070 Arastradero Road @ Side Door","stop_id":"188"},"type":"Feature"},{"geometry":{"coordinates":[-122.14867,37.39416],"type":"Point"},"properties":{"kind":"stop","name":"3495 Deer Creek Road","stop_id":"189"},"type":"Feature"},{"geometry":{"coordinates":[-122.16099,37.42285],"type":"Point"},"properties":{"kind":"stop","name":"On Campus Drive @ Rains, Building # 238","stop_id":"19"},"type":"Feature"},{"geometry":{"coordinates":[-122.15021,37.39577],"type":"Point"},"properties":{"kind":"stop","name":"3475 Deer Creek Road","stop_id":"190"},"type":"Feature"},{"geometry":{"coordinates":[-122.15005,37.39541],"type":"Point"},"properties":{"kind":"stop","name":"3500 Deer Creek Road","stop_id":"191"},"type":"Feature"},{"geometry":{"coordinates":[-122.14875,37.39383],"type":"Point"},"properties":{"kind":"stop","name":"Across From 3495 Deer Creek Road @ Arastradero Road","stop_id":"192"},"type":"Feature"},{"geometry":{"coordinates":[-122.14662,37.39415],"type":"Point"},"properties":{"kind":"stop","name":"1070 Arastradero Road @ Front Door","stop_id":"193"},"type":"Feature"},{"geometry":{"coordinates":[-122.1444,37.39894],"type":"Point"},"properties":{"kind":"stop","name":"3421 Hillview Avenue","stop_id":"194"},"type":"Feature"},{"geometry":{"coordinates":[-122.14553,37.40224],"type":"Point"},"properties":{"kind":"stop","name":"3405 Hillview Avenue","stop_id":"195"},"type":"Feature"},{"geometry":{"coordinates":[-122.14753,37.40878],"type":"Point"},"properties":{"kind":"stop","name":"On Porter Drive @ Hillview Avenue","stop_id":"196"},"type":"Feature"},{"geometry":{"coordinates":[-122.14653,37.41747],"type":"Point"},"properties":{"kind":"stop","name":"Across From 1290 Page Mill Road @ Hanover Street","stop_id":"197"},"type":"Feature"},{"geometry":{"coordinates":[-122.15168,37.4088],"type":"Point"},"properties":{"kind":"stop","name":"3145 Porter Drive","stop_id":"199"},"type":"Feature"},{"geometry":{"coordinates":[-122.17008,37.42899],"type":"Point"},"properties":{"kind":"stop","name":"On Jane Stanford Way @ Main Quad","stop_id":"2"},"type":"Feature"},{"geometry":{"coordinates":[-122.16207,37.42255],"type":"Point"},"properties":{"kind":"stop","name":"On Campus Drive @ Parking Lot L-62","stop_id":"20"},"type":"Feature"},{"geometry":{"coordinates":[-122.2118,37.42006],"type":"Point"},"properties":{"kind":"stop","name":"Rosewood Hotel","stop_id":"206"},"type":"Feature"},{"geometry":{"coordinates":[-122.16371,37.42234],"type":"Point"},"properties":{"kind":"stop","name":"On Campus Drive @ Vaden Health Center","stop_id":"21"},"type":"Feature"},{"geometry":{"coordinates":[-122.14157,37.42258],"type":"Point"},"properties":{"kind":"stop","name":"On El Camino Real SB @ Page Mill Road","stop_id":"217"},"type":"Feature"},{"geometry":{"coordinates":[-122.14237,37.42346],"type":"Point"},"properties":{"kind":"stop","name":"On El Camino Real NB @ Oregon Expressway","stop_id":"218"},"type":"Feature"},{"geometry":{"coordinates":[-122.13762,37.42052],"type":"Point"},"properties":{"kind":"stop","name":"On El Camino Real SB @ Hansen Way","stop_id":"219"},"type":"Feature"},{"geometry":{"coordinates":[-122.16387,37.42264],"type":"Point"},"properties":{"kind":"stop","name":"On Campus Drive @ Wilbur Field","stop_id":"22"},"type":"Feature"},{"geometry":{"coordinates":[-122.13813,37.42116],"type":"Point"},"properties":{"kind":"stop","name":"On El Camino Real NB @ Portage Avenue","stop_id":"220"},"type":"Feature"},{"geometry":{"coordinates":[-122.12496,37.41211],"type":"Point"},"properties":{"kind":"stop","name":"On El Camino Real SB @ Maybell Avenue","stop_id":"221"},"type":"Feature"},{"geometry":{"coordinates":[-122.12477,37.41246],"type":"Point"},"properties":{"kind":"stop","name":"On El Camino Real NB @ El Camino Way","stop_id":"222"},"type":"Feature"},{"geometry":{"coordinates":[-122.10805,37.40461],"type":"Point"},"properties":{"kind":"stop","name":"On California Street @ Pacchetti Way","stop_id":"223"},"type":"Feature"},{"geometry":{"coordinates":[-122.1784,37.43054],"type":"Point"},"properties":{"kind":"stop","name":"On Panama Street @ Campus Drive","stop_id":"226"},"type":"Feature"},{"geometry":{"coordinates":[-122.17373,37.43717],"type":"Point"},"properties":{"kind":"stop","name":"On Welch Road Across From LPCH","stop_id":"228"},"type":"Feature"},{"geometry":{"coordinates":[-122.16544,37.42297],"type":"Point"},"properties":{"kind":"stop","name":"On Campus Drive @ Munger Graduate Residence","stop_id":"23"},"type":"Feature"},{"geometry":{"coordinates":[-122.17863,37.43891],"type":"Point"},"properties":{"kind":"stop","name":"On Clark Way @ Leasing O\ufb00ice","stop_id":"232"},"type":"Feature"},{"geometry":{"coordinates":[-122.17621,37.42852],"type":"Point"},"properties":{"kind":"stop","name":"On Via Ortega @ Cypress Hall","stop_id":"236"},"type":"Feature"},{"geometry":{"coordinates":[-122.17597,37.42886],"type":"Point"},"properties":{"kind":"stop","name":"On Via Ortega @ Shriram Center","stop_id":"238"},"type":"Feature"},{"geometry":{"coordinates":[-122.16595,37.42264],"type":"Point"},"properties":{"kind":"stop","name":"On Campus Drive @ Alvarado Row","stop_id":"24"},"type":"Feature"},{"geometry":{"coordinates":[-122.18029,37.43021],"type":"Point"},"properties":{"kind":"stop","name":"On Campus Drive @ Parking Lot L-17","stop_id":"240"},"type":"Feature"},{"geometry":{"coordinates":[-122.18031,37.42975],"type":"Point"},"properties":{"kind":"stop","name":"On Campus Drive @ Stock Farm Road","stop_id":"241"},"type":"Feature"},{"geometry":{"coordinates":[-122.14597,37.41864],"type":"Point"},"properties":{"kind":"stop","name":"On Page Mill Road @ Hansen Way","stop_id":"242"},"type":"Feature"},{"geometry":{"coordinates":[-122.14513,37.41917],"type":"Point"},"properties":{"kind":"stop","name":"965 Page Mill Road @ Hansen Way","stop_id":"243"},"type":"Feature"},{"geometry":{"coordinates":[-122.1796,37.43345],"type":"Point"},"properties":{"kind":"stop","name":"On Welch Road @ Lucas Center For Imaging","stop_id":"244"},"type":"Feature"},{"geometry":{"coordinates":[-122.17988,37.43317],"type":"Point"},"properties":{"kind":"stop","name":"On Welch Road @ Comparative Medicine Pavilion","stop_id":"245"},"type":"Feature"},{"geometry":{"coordinates":[-122.1518,37.43027],"type":"Point"},"properties":{"kind":"stop","name":"On El Camino Real NB @ Park Avenue","stop_id":"246"},"type":"Feature"},{"geometry":{"coordinates":[-122.16823,37.42163],"type":"Point"},"properties":{"kind":"stop","name":"On Campus Drive @ Mayfield Avenue North","stop_id":"25"},"type":"Feature"},{"geometry":{"coordinates":[-122.15234,37.42514],"type":"Point"},"properties":{"kind":"stop","name":"On Olmsted Road @ Studio 6","stop_id":"250"},"type":"Feature"},{"geometry":{"coordinates":[-122.15036,37.40793],"type":"Point"},"properties":{"kind":"stop","name":"3170 Porter Drive","stop_id":"255"},"type":"Feature"},{"geometry":{"coordinates":[-122.15019,37.40801],"type":"Point"},"properties":{"kind":"stop","name":"3165 Porter Drive","stop_id":"256"},"type":"Feature"},{"geometry":{"coordinates":[-122.17215,37.4376],"type":"Point"},"properties":{"kind":"stop","name":"On Quarry Road @ Vineyard Lane","stop_id":"258"},"type":"Feature"},{"geometry":{"coordinates":[-122.16814,37.42152],"type":"Point"},"properties":{"kind":"stop","name":"On Campus Drive @ Mayfield Avenue South","stop_id":"26"},"type":"Feature"},{"geometry":{"coordinates":[-122.15827,37.42022],"type":"Point"},"properties":{"kind":"stop","name":"On Bowdoin Street @ Pine Hill Court","stop_id":"267"},"type":"Feature"},{"geometry":{"coordinates":[-122.17066,37.42379],"type":"Point"},"properties":{"kind":"stop","name":"Tresidder Union","stop_id":"27"},"type":"Feature"},{"geometry":{"coordinates":[-122.12737,37.44678],"type":"Point"},"properties":{"kind":"stop","name":"On Embarcadero Road @ Wildwood Lane","stop_id":"272"},"type":"Feature"},{"geometry":{"coordinates":[-122.1281,37.44637],"type":"Point"},"properties":{"kind":"stop","name":"On Embarcadero Road @ N California Avenue","stop_id":"273"},"type":"Feature"},{"geometry":{"coordinates":[-122.16049,37.42188],"type":"Point"},"properties":{"kind":"stop","name":"On Bowdoin Street @ Rains Building # 227","stop_id":"277"},"type":"Feature"},{"geometry":{"coordinates":[-122.17065,37.42369],"type":"Point"},"properties":{"kind":"stop","name":"Tresidder Union (Island)","stop_id":"28"},"type":"Feature"},{"geometry":{"coordinates":[-122.17417,37.43277],"type":"Point"},"properties":{"kind":"stop","name":"On Quarry Extension @ Roth Way","stop_id":"280"},"type":"Feature"},{"geometry":{"coordinates":[-122.18112,37.42803],"type":"Point"},"properties":{"kind":"stop","name":"On Campus Drive @ Parking Lot L-22","stop_id":"281"},"type":"Feature"},{"geometry":{"coordinates":[-122.1807,37.42856],"type":"Point"},"properties":{"kind":"stop","name":"On Campus Drive Across From Parking Lot L-22","stop_id":"282"},"type":"Feature"},{"geometry":{"coordinates":[-122.19028,37.43115],"type":"Point"},"properties":{"kind":"stop","name":"Oak Creek Apartments @ Building # 1824","stop_id":"289"},"type":"Feature"},{"geometry":{"coordinates":[-122.17363,37.4254],"type":"Point"},"properties":{"kind":"stop","name":"On Santa Teresa Street @ Thornton Center","stop_id":"29"},"type":"Feature"},{"geometry":{"coordinates":[-122.1876,37.43275],"type":"Point"},"properties":{"kind":"stop","name":"Oak Creek Apartments @ Club","stop_id":"290"},"type":"Feature"},{"geometry":{"coordinates":[-122.18857,37.43175],"type":"Point"},"properties":{"kind":"stop","name":"Oak Creek Apartments @ Building # 1704","stop_id":"291"},"type":"Feature"},{"geometry":{"coordinates":[-122.18573,37.4333],"type":"Point"},"properties":{"kind":"stop","name":"Oak Creek Apartments @ Building # 1470","stop_id":"293"},"type":"Feature"},{"geometry":{"coordinates":[-122.18415,37.43412],"type":"Point"},"properties":{"kind":"stop","name":"Oak Creek Apartments @ Building # 1380","stop_id":"294"},"type":"Feature"},{"geometry":{"coordinates":[-122.16718,37.42854],"type":"Point"},"properties":{"kind":"stop","name":"On Jane Stanford Way @ Memorial Auditorium","stop_id":"3"},"type":"Feature"},{"geometry":{"coordinates":[-122.17349,37.42526],"type":"Point"},"properties":{"kind":"stop","name":"On Santa Teresa Street @ Papua New Guinea Sculpture Garden","stop_id":"30"},"type":"Feature"},{"geometry":{"coordinates":[-122.16327,37.43084],"type":"Point"},"properties":{"kind":"stop","name":"On Campus Drive @ Sam McDonald Mall","stop_id":"305"},"type":"Feature"},{"geometry":{"coordinates":[-122.16331,37.43049],"type":"Point"},"properties":{"kind":"stop","name":"On Campus Dr @ Koret Plaza","stop_id":"306"},"type":"Feature"},{"geometry":{"coordinates":[-122.16053,37.42812],"type":"Point"},"properties":{"kind":"stop","name":"On Campus Drive @ Knight Management Center Garage","stop_id":"307"},"type":"Feature"},{"geometry":{"coordinates":[-122.16053,37.42864],"type":"Point"},"properties":{"kind":"stop","name":"On Campus Drive @ Maples Pavilion","stop_id":"308"},"type":"Feature"},{"geometry":{"coordinates":[-122.15975,37.42628],"type":"Point"},"properties":{"kind":"stop","name":"On Campus Drive @ Manzanita Field Garage","stop_id":"309"},"type":"Feature"},{"geometry":{"coordinates":[-122.15948,37.42629],"type":"Point"},"properties":{"kind":"stop","name":"On Campus Drive @ Serra Street","stop_id":"310"},"type":"Feature"},{"geometry":{"coordinates":[-122.15781,37.42712],"type":"Point"},"properties":{"kind":"stop","name":"On Serra Street @ EVGR 2 (C)","stop_id":"311"},"type":"Feature"},{"geometry":{"coordinates":[-122.15825,37.42706],"type":"Point"},"properties":{"kind":"stop","name":"On Serra Street @ Fire Department","stop_id":"312"},"type":"Feature"},{"geometry":{"coordinates":[-122.15529,37.42876],"type":"Point"},"properties":{"kind":"stop","name":"On Serra Street @ Hulme Court","stop_id":"313"},"type":"Feature"},{"geometry":{"coordinates":[-122.15556,37.4289],"type":"Point"},"properties":{"kind":"stop","name":"On Serra Street @ Pampas Lane","stop_id":"314"},"type":"Feature"},{"geometry":{"coordinates":[-122.20328,37.41873],"type":"Point"},"properties":{"kind":"stop","name":"SLAC Arrillaga Science Center (B057) (Restricted Access)","stop_id":"315"},"type":"Feature"},{"geometry":{"coordinates":[-122.19728,37.41672],"type":"Point"},"properties":{"kind":"stop","name":"SLAC LCLS Office Building (B901) (Restricted Access)","stop_id":"316"},"type":"Feature"},{"geometry":{"coordinates":[-121.98741,37.5483],"type":"Point"},"properties":{"kind":"stop","name":"Fremont Blvd & Mowry Ave","stop_id":"317"},"type":"Feature"},{"geometry":{"coordinates":[-121.98755,37.54799],"type":"Point"},"properties":{"kind":"stop","name":"Fremont Blvd & Mowry Ave","stop_id":"318"},"type":"Feature"},{"geometry":{"coordinates":[-122.0259,37.56783],"type":"Point"},"properties":{"kind":"stop","name":"Fremont Blvd & Tamayo St","stop_id":"319"},"type":"Feature"},{"geometry":{"coordinates":[-122.02643,37.5677],"type":"Point"},"properties":{"kind":"stop","name":"Fremont Blvd & Tamayo St","stop_id":"320"},"type":"Feature"},{"geometry":{"coordinates":[-122.15232,37.40898],"type":"Point"},"properties":{"kind":"stop","name":"On Porter Drive Near Page Mill Road","stop_id":"325"},"type":"Feature"},{"geometry":{"coordinates":[-122.17756,37.43403],"type":"Point"},"properties":{"kind":"stop","name":"500 Pasteur Drive - HD Line","stop_id":"326"},"type":"Feature"},{"geometry":{"coordinates":[-122.14141,37.42884],"type":"Point"},"properties":{"kind":"stop","name":"California Avenue Caltrain","stop_id":"327"},"type":"Feature"},{"geometry":{"coordinates":[-122.17594,37.43025],"type":"Point"},"properties":{"kind":"stop","name":"On Jane Stanford Way @ ChEM-H Building","stop_id":"33"},"type":"Feature"},{"geometry":{"coordinates":[-122.14352,37.39525],"type":"Point"},"properties":{"kind":"stop","name":"3460 Hillview Ave","stop_id":"332"},"type":"Feature"},{"geometry":{"coordinates":[-122.14612,37.39353],"type":"Point"},"properties":{"kind":"stop","name":"1070 Arastradero","stop_id":"333"},"type":"Feature"},{"geometry":{"coordinates":[-122.1453,37.39367],"type":"Point"},"properties":{"kind":"stop","name":"Across From 1070 Arastradero Road","stop_id":"334"},"type":"Feature"},{"geometry":{"coordinates":[-122.14328,37.39504],"type":"Point"},"properties":{"kind":"stop","name":"On Hillview  Ave @ Arastradero Rd","stop_id":"335"},"type":"Feature"},{"geometry":{"coordinates":[-122.14534,37.40643],"type":"Point"},"properties":{"kind":"stop","name":"3373 Hillview Ave","stop_id":"336"},"type":"Feature"},{"geometry":{"coordinates":[-122.17592,37.43033],"type":"Point"},"properties":{"kind":"stop","name":"On Jane Stanford Way Across From ChEM-H Building","stop_id":"34"},"type":"Feature"},{"geometry":{"coordinates":[-122.17692,37.4261],"type":"Point"},"properties":{"kind":"stop","name":"On Santa Teresa Street @ Via Ortega","stop_id":"35"},"type":"Feature"},{"geometry":{"coordinates":[-122.17629,37.42583],"type":"Point"},"properties":{"kind":"stop","name":"On Santa Teresa Street @ Lagunita Court","stop_id":"36"},"type":"Feature"},{"geometry":{"coordinates":[-122.18053,37.4265],"type":"Point"},"properties":{"kind":"stop","name":"On Santa Teresa Street @ Governor\u2019s Corner","stop_id":"37"},"type":"Feature"},{"geometry":{"coordinates":[-122.18052,37.42662],"type":"Point"},"properties":{"kind":"stop","name":"On Santa Teresa Street @ Los Arboles Avenue","stop_id":"38"},"type":"Feature"},{"geometry":{"coordinates":[-122.16638,37.42823],"type":"Point"},"properties":{"kind":"stop","name":"On Jane Stanford Way @ Hoover Tower","stop_id":"4"},"type":"Feature"},{"geometry":{"coordinates":[-122.1519,37.42888],"type":"Point"},"properties":{"kind":"stop","name":"On Olmsted Road @ Barnes Court West","stop_id":"45"},"type":"Feature"},{"geometry":{"coordinates":[-122.15164,37.4288],"type":"Point"},"properties":{"kind":"stop","name":"On Olmsted Road @ Barnes Court East","stop_id":"46"},"type":"Feature"},{"geometry":{"coordinates":[-122.15071,37.4265],"type":"Point"},"properties":{"kind":"stop","name":"On Olmsted Road @ Yale Street East","stop_id":"47"},"type":"Feature"},{"geometry":{"coordinates":[-122.15086,37.4265],"type":"Point"},"properties":{"kind":"stop","name":"On Olmsted Road @ Yale Street West","stop_id":"48"},"type":"Feature"},{"geometry":{"coordinates":[-122.16423,37.44269],"type":"Point"},"properties":{"kind":"stop","name":"University Circle @ Platform East","stop_id":"55"},"type":"Feature"},{"geometry":{"coordinates":[-122.1774,37.434],"type":"Point"},"properties":{"kind":"stop","name":"500 Pasteur Drive - MC Line","stop_id":"57"},"type":"Feature"},{"geometry":{"coordinates":[-122.16433,37.44246],"type":"Point"},"properties":{"kind":"stop","name":"University Circle @ Platform South","stop_id":"60"},"type":"Feature"},{"geometry":{"coordinates":[-122.16113,37.43701],"type":"Point"},"properties":{"kind":"stop","name":"On Galvez Street @ El Camino Real SB","stop_id":"62"},"type":"Feature"},{"geometry":{"coordinates":[-122.16033,37.43772],"type":"Point"},"properties":{"kind":"stop","name":"On El Camino Real NB @ Town & Country Village","stop_id":"63"},"type":"Feature"},{"geometry":{"coordinates":[-122.16239,37.43906],"type":"Point"},"properties":{"kind":"stop","name":"On El Camino Real SB Across From PAMF","stop_id":"64"},"type":"Feature"},{"geometry":{"coordinates":[-122.16285,37.43998],"type":"Point"},"properties":{"kind":"stop","name":"On El Camino Real NB @ PAMF","stop_id":"65"},"type":"Feature"},{"geometry":{"coordinates":[-122.16463,37.44319],"type":"Point"},"properties":{"kind":"stop","name":"University Circle @ Caltrain Platform","stop_id":"66"},"type":"Feature"},{"geometry":{"coordinates":[-122.17315,37.4356],"type":"Point"},"properties":{"kind":"stop","name":"On Quarry Road Across From Parking Lot L-3","stop_id":"69"},"type":"Feature"},{"geometry":{"coordinates":[-122.17273,37.43581],"type":"Point"},"properties":{"kind":"stop","name":"On Quarry Road @ Parking Lot L-3","stop_id":"70"},"type":"Feature"},{"geometry":{"coordinates":[-122.17158,37.43877],"type":"Point"},"properties":{"kind":"stop","name":"On Quarry Road Across From Psychiatry Building","stop_id":"71"},"type":"Feature"},{"geometry":{"coordinates":[-122.17142,37.43837],"type":"Point"},"properties":{"kind":"stop","name":"On Quarry Road @ Psychiatry Building","stop_id":"72"},"type":"Feature"},{"geometry":{"coordinates":[-122.17401,37.4336],"type":"Point"},"properties":{"kind":"stop","name":"On Quarry Extension @ Medical Center","stop_id":"73"},"type":"Feature"},{"geometry":{"coordinates":[-122.17385,37.43371],"type":"Point"},"properties":{"kind":"stop","name":"On Quarry Extension Across From Medical Center","stop_id":"74"},"type":"Feature"},{"geometry":{"coordinates":[-122.17427,37.43279],"type":"Point"},"properties":{"kind":"stop","name":"On Quarry Extension @ Grant Building","stop_id":"75"},"type":"Feature"},{"geometry":{"coordinates":[-122.17248,37.42966],"type":"Point"},"properties":{"kind":"stop","name":"On Jane Stanford Way @ Gilbert Biological Sciences","stop_id":"79"},"type":"Feature"},{"geometry":{"coordinates":[-122.1639,37.43196],"type":"Point"},"properties":{"kind":"stop","name":"On Galvez Street @ Visitor Center","stop_id":"8"},"type":"Feature"},{"geometry":{"coordinates":[-122.17259,37.42951],"type":"Point"},"properties":{"kind":"stop","name":"On Jane Stanford Way @ David Packard Electrical Engineering","stop_id":"80"},"type":"Feature"},{"geometry":{"coordinates":[-122.17801,37.43074],"type":"Point"},"properties":{"kind":"stop","name":"On Campus Drive @ Panama Street","stop_id":"81"},"type":"Feature"},{"geometry":{"coordinates":[-122.17915,37.43103],"type":"Point"},"properties":{"kind":"stop","name":"On Campus Drive @ Welch Road","stop_id":"82"},"type":"Feature"},{"geometry":{"coordinates":[-122.19497,37.42389],"type":"Point"},"properties":{"kind":"stop","name":"On Sand Hill Road Across From Sharon Park Drive","stop_id":"85"},"type":"Feature"},{"geometry":{"coordinates":[-122.196,37.42354],"type":"Point"},"properties":{"kind":"stop","name":"On Sand Hill Road @ Sharon Park Drive","stop_id":"86"},"type":"Feature"},{"geometry":{"coordinates":[-122.18121,37.43148],"type":"Point"},"properties":{"kind":"stop","name":"Stock Farm Garage","stop_id":"87"},"type":"Feature"},{"geometry":{"coordinates":[-122.18036,37.4324],"type":"Point"},"properties":{"kind":"stop","name":"In Parking Lot L-18 @ Oak Road","stop_id":"88"},"type":"Feature"},{"geometry":{"coordinates":[-122.1812,37.43137],"type":"Point"},"properties":{"kind":"stop","name":"Across From  Stock Farm Garage","stop_id":"89"},"type":"Feature"},{"geometry":{"coordinates":[-122.18629,37.43167],"type":"Point"},"properties":{"kind":"stop","name":"On Sand Hill Road @ Oak Creek Apartments","stop_id":"91"},"type":"Feature"},{"geometry":{"coordinates":[-122.18801,37.43008],"type":"Point"},"properties":{"kind":"stop","name":"On Sand Hill Road Across From Oak Creek Apartments","stop_id":"92"},"type":"Feature"},{"geometry":{"coordinates":[-122.16789,37.42852],"type":"Point"},"properties":{"kind":"stop","name":"On Jane Stanford Way @ Lasuen Mall","stop_id":"95"},"type":"Feature"},{"geometry":{"coordinates":[-122.169,37.42923],"type":"Point"},"properties":{"kind":"stop","name":"Campus Oval","stop_id":"96"},"type":"Feature"},{"geometry":{"coordinates":[-122.16289,37.42759],"type":"Point"},"properties":{"kind":"stop","name":"On Jane Stanford Way @ Graduate School Of Business","stop_id":"98"},"type":"Feature"},{"geometry":{"coordinates":[-122.16293,37.42748],"type":"Point"},"properties":{"kind":"stop","name":"On Jane Stanford Way @ Schwab Residential Center","stop_id":"99"},"type":"Feature"}],"type":"FeatureCollection"}
