{"features":[{"geometry":{"coordinates":[[-87.62318,41.88421],[-87.62296,41.8756],[-87.62266,41.87347],[-87.62264,41.87159],[-87.61942,41.86334],[-87.61613,41.8516],[-87.61474,41.84746],[-87.61352,41.84447],[-87.60849,41.83301],[-87.59871,41.8202],[-87.58918,41.80671],[-87.58827,41.80502],[-87.5875,41.80283],[-87.58684,41.79951],[-87.58674,41.79749],[-87.58713,41.79477],[-87.61223,41.68546],[-87.61227,41.68355],[-87.60996,41.67827],[-87.60924,41.67724],[-87.5957,41.66154],[-87.59447,41.66019],[-87.59296,41.65907],[-87.59119,41.65837],[-87.58943,41.65808],[-87.5708,41.65805],[-87.56094,41.65829],[-87.55897,41.65792],[-87.55755,41.6572],[-87.54038,41.64374],[-87.53836,41.64229],[-87.53485,41.64021],[-87.53152,41.63776],[-87.52611,41.63351],[-87.52464,41.63216],[-87.52363,41.63165],[-87.51982,41.63095],[-87.5194,41.63073],[-87.51885,41.63006],[-87.51911,41.62208],[-87.52006,41.61926],[-87.51885,41.61399],[-87.51862,41.61197],[-87.51845,41.57925],[-87.51855,41.55368],[-87.5181,41.55021],[-87.51791,41.54387],[-87.51792,41.52284]],"type":"LineString"},"properties":{"color":"#ED1B24","color_name":"red","kind":"route","label":"Monon","long":"Monon Corridor","route_id":"mo_co","text_color":"#FFFFFF","type_label":"Rail"},"type":"Feature"},{"geometry":{"coordinates":[[-86.31095,41.70076],[-86.30612,41.70108],[-86.30532,41.70133],[-86.30385,41.70243],[-86.30329,41.70265],[-86.29944,41.70278],[-86.29582,41.70333],[-86.2947,41.70318],[-86.29398,41.70279],[-86.29342,41.70168],[-86.29322,41.68595],[-86.2935,41.68536],[-86.29403,41.68492],[-86.29481,41.68473],[-86.30656,41.68453],[-86.30784,41.68414],[-86.30884,41.68354],[-86.30987,41.68344],[-86.36428,41.69058],[-86.37766,41.69218],[-86.38167,41.69289],[-86.39201,41.69384],[-86.47019,41.70296],[-86.47602,41.70395],[-86.48217,41.70437],[-86.49684,41.7061],[-86.51375,41.70962],[-86.516,41.70966],[-86.52066,41.70916],[-86.53658,41.70937],[-86.55736,41.7122],[-86.57081,41.71308],[-86.57476,41.71368],[-86.5777,41.71455],[-86.58203,41.71621],[-86.58497,41.71662],[-86.80833,41.71841],[-86.81052,41.71833],[-86.81384,41.71787],[-86.83724,41.71214],[-86.84175,41.71149],[-86.84495,41.71152],[-86.86466,41.71326],[-86.88135,41.71334],[-86.88401,41.71325],[-86.88568,41.71299],[-86.89368,41.71298],[-86.90718,41.7091],[-86.90931,41.7092],[-86.91362,41.70804],[-86.92545,41.70592],[-86.92651,41.70532],[-86.93472,41.69685],[-86.93584,41.69592],[-86.93846,41.69426],[-86.95567,41.68618],[-86.99572,41.66867],[-87.02234,41.65862],[-87.06795,41.64243],[-87.1084,41.63],[-87.11044,41.6291],[-87.12798,41.61961],[-87.12955,41.61896],[-87.13161,41.61843],[-87.13471,41.61829],[-87.15556,41.6199],[-87.17165,41.61946],[-87.19834,41.61566],[-87.20119,41.61515],[-87.25522,41.60212],[-87.25709,41.60138],[-87.26255,41.59815],[-87.26363,41.59779],[-87.27211,41.59802],[-87.28324,41.59544],[-87.28642,41.59501],[-87.28823,41.59496],[-87.29131,41.59512],[-87.29369,41.59547],[-87.33208,41.60392],[-87.33965,41.60501],[-87.3425,41.60565],[-87.34944,41.60575],[-87.39632,41.60549],[-87.402,41.60592],[-87.42637,41.60969],[-87.43323,41.61014],[-87.44327,41.61046],[-87.47525,41.61073],[-87.47689,41.61087],[-87.47842,41.61135],[-87.48801,41.6161],[-87.48902,41.61694],[-87.49008,41.61829],[-87.49062,41.61971],[-87.49144,41.62315],[-87.49231,41.62484],[-87.49449,41.62673],[-87.50035,41.63013],[-87.50183,41.6306],[-87.50365,41.6309],[-87.517,41.63096],[-87.52295,41.63163],[-87.52415,41.63192],[-87.53485,41.64021],[-87.53836,41.64229],[-87.54038,41.64374],[-87.55755,41.6572],[-87.55897,41.65792],[-87.56094,41.65829],[-87.5708,41.65805],[-87.58943,41.65808],[-87.59119,41.65837],[-87.59296,41.65907],[-87.59447,41.66019],[-87.5957,41.66154],[-87.60996,41.67827],[-87.61227,41.68355],[-87.61223,41.68546],[-87.58713,41.79477],[-87.58674,41.79749],[-87.58684,41.79951],[-87.5875,41.80283],[-87.58827,41.80502],[-87.58918,41.80671],[-87.59871,41.8202],[-87.60849,41.83301],[-87.61352,41.84447],[-87.61474,41.84746],[-87.61613,41.8516],[-87.61942,41.86334],[-87.62264,41.87159],[-87.62266,41.87347],[-87.62296,41.8756],[-87.62318,41.88421]],"type":"LineString"},"properties":{"color":"#F6931C","color_name":"orange","kind":"route","label":"Lakeshore","long":"Lakeshore Corridor","route_id":"so_shore","text_color":"#000000","type_label":"Rail"},"type":"Feature"},{"geometry":{"coordinates":[-87.62306,41.88417],"type":"Point"},"properties":{"kind":"stop","name":"Millennium Station","stop_id":"s1"},"type":"Feature"},{"geometry":{"coordinates":[-87.39424,41.6055],"type":"Point"},"properties":{"kind":"stop","name":"Gary/Chicago Airport","stop_id":"s10"},"type":"Feature"},{"geometry":{"coordinates":[-87.33792,41.60473],"type":"Point"},"properties":{"kind":"stop","name":"Gary Metro Center","stop_id":"s11"},"type":"Feature"},{"geometry":{"coordinates":[-87.26797,41.59786],"type":"Point"},"properties":{"kind":"stop","name":"Miller","stop_id":"s12"},"type":"Feature"},{"geometry":{"coordinates":[-87.18687,41.61733],"type":"Point"},"properties":{"kind":"stop","name":"Portage/Ogden Dunes","stop_id":"s13"},"type":"Feature"},{"geometry":{"coordinates":[-87.06082,41.6449],"type":"Point"},"properties":{"kind":"stop","name":"Dune Park","stop_id":"s14"},"type":"Feature"},{"geometry":{"coordinates":[-86.98552,41.67321],"type":"Point"},"properties":{"kind":"stop","name":"Beverly Shores","stop_id":"s15"},"type":"Feature"},{"geometry":{"coordinates":[-86.89792,41.71179],"type":"Point"},"properties":{"kind":"stop","name":"11th St. (Michigan City)","stop_id":"s16"},"type":"Feature"},{"geometry":{"coordinates":[-86.86769,41.71327],"type":"Point"},"properties":{"kind":"stop","name":"Carroll Ave. (Michigan City)","stop_id":"s17"},"type":"Feature"},{"geometry":{"coordinates":[-86.53766,41.70945],"type":"Point"},"properties":{"kind":"stop","name":"Hudson Lake","stop_id":"s18"},"type":"Feature"},{"geometry":{"coordinates":[-86.31095,41.70076],"type":"Point"},"properties":{"kind":"stop","name":"South Bend Airport","stop_id":"s19"},"type":"Feature"},{"geometry":{"coordinates":[-87.62398,41.877],"type":"Point"},"properties":{"kind":"stop","name":"Van Buren St.","stop_id":"s2"},"type":"Feature"},{"geometry":{"coordinates":[-87.5189,41.58098],"type":"Point"},"properties":{"kind":"stop","name":"South Hammond","stop_id":"s20"},"type":"Feature"},{"geometry":{"coordinates":[-87.51909,41.56416],"type":"Point"},"properties":{"kind":"stop","name":"Munster Ridge Station","stop_id":"s21"},"type":"Feature"},{"geometry":{"coordinates":[-87.52026,41.52407],"type":"Point"},"properties":{"kind":"stop","name":"Munster Dyer Station","stop_id":"s22"},"type":"Feature"},{"geometry":{"coordinates":[-87.62139,41.86861],"type":"Point"},"properties":{"kind":"stop","name":"Museum Campus/11th St.","stop_id":"s3"},"type":"Feature"},{"geometry":{"coordinates":[-87.5875,41.79333],"type":"Point"},"properties":{"kind":"stop","name":"57th St. (Hyde Park)","stop_id":"s5"},"type":"Feature"},{"geometry":{"coordinates":[-87.59056,41.78028],"type":"Point"},"properties":{"kind":"stop","name":"63rd St.","stop_id":"s6"},"type":"Feature"},{"geometry":{"coordinates":[-87.54347,41.64619],"type":"Point"},"properties":{"kind":"stop","name":"Hegewisch","stop_id":"s7"},"type":"Feature"},{"geometry":{"coordinates":[-87.51885,41.63105],"type":"Point"},"properties":{"kind":"stop","name":"Hammond Gateway","stop_id":"s8"},"type":"Feature"},{"geometry":{"coordinates":[-87.4793,41.61178],"type":"Point"},"properties":{"kind":"stop","name":"East Chicago","stop_id":"s9"},"type":"Feature"}],"type":"FeatureCollection"}
