{"features":[{"geometry":{"coordinates":[[-123.73116,46.6856],[-123.72944,46.68562],[-123.72938,46.68671],[-123.72953,46.68814],[-123.73115,46.69018],[-123.73611,46.6937],[-123.73827,46.69374],[-123.73828,46.6947],[-123.73947,46.6947],[-123.73947,46.69373],[-123.73611,46.6937],[-123.73734,46.69473],[-123.73801,46.69565],[-123.73827,46.6966],[-123.73837,46.69831],[-123.73904,46.70042],[-123.7406,46.70217],[-123.74091,46.70286],[-123.74075,46.70373],[-123.73907,46.70647],[-123.73914,46.70715],[-123.74009,46.70996],[-123.74085,46.71141],[-123.74351,46.71477],[-123.74392,46.71611],[-123.74364,46.71828],[-123.74122,46.72274],[-123.74068,46.72546],[-123.74152,46.72662],[-123.74429,46.72803],[-123.74468,46.7287],[-123.74466,46.72995],[-123.74545,46.73111],[-123.74602,46.73174],[-123.74783,46.73299],[-123.74791,46.73368],[-123.74765,46.73416],[-123.74555,46.73528],[-123.74478,46.73615],[-123.7438,46.73852],[-123.74392,46.73944],[-123.74909,46.74707],[-123.75405,46.75797],[-123.75474,46.7602],[-123.75446,46.76176],[-123.75361,46.76308],[-123.74103,46.77756],[-123.74057,46.77828],[-123.74036,46.77914],[-123.74106,46.78275],[-123.74035,46.78874],[-123.74098,46.79086],[-123.7405,46.79188],[-123.73903,46.79304],[-123.73853,46.79369],[-123.7384,46.7944],[-123.73853,46.79496],[-123.739,46.79579],[-123.73959,46.79627],[-123.74291,46.79689],[-123.74506,46.79794],[-123.74626,46.79892],[-123.74679,46.79979],[-123.74693,46.80056],[-123.74694,46.80362],[-123.74677,46.80449],[-123.74636,46.80529],[-123.74545,46.80622],[-123.73671,46.8138],[-123.73086,46.81786],[-123.73036,46.8187],[-123.72947,46.82348],[-123.72903,46.82423],[-123.72066,46.82878],[-123.72011,46.82929],[-123.7197,46.83053],[-123.72032,46.83219],[-123.72032,46.83278],[-123.7194,46.8344],[-123.7191,46.8356],[-123.71943,46.83834],[-123.71939,46.84243],[-123.71913,46.8434],[-123.71752,46.84623],[-123.71722,46.85017],[-123.71357,46.8554],[-123.7097,46.85972],[-123.70917,46.86082],[-123.70927,46.86182],[-123.71074,46.866],[-123.71081,46.86732],[-123.70996,46.86892],[-123.70805,46.87047],[-123.70738,46.87136],[-123.70743,46.87226],[-123.70844,46.87403],[-123.70855,46.87495],[-123.70788,46.8761],[-123.70648,46.87749],[-123.70617,46.87821],[-123.70617,46.87885],[-123.70676,46.87997],[-123.713,46.88541],[-123.71475,46.89025],[-123.71487,46.89095],[-123.71435,46.89037],[-123.71448,46.89018],[-123.71483,46.89066],[-123.71535,46.89574],[-123.71686,46.89972],[-123.7172,46.90109],[-123.71775,46.90852],[-123.71683,46.91387],[-123.71688,46.91456],[-123.71993,46.91907],[-123.71991,46.91987],[-123.71893,46.92156],[-123.71855,46.92277],[-123.71883,46.92367],[-123.71878,46.9246],[-123.71989,46.92599],[-123.72013,46.92668],[-123.71985,46.92913],[-123.72031,46.92974],[-123.72069,46.92992],[-123.72226,46.93019],[-123.72308,46.93053],[-123.7236,46.9311],[-123.72401,46.93233],[-123.72526,46.9338],[-123.72585,46.93422],[-123.72678,46.93448],[-123.72758,46.93448],[-123.7304,46.93388],[-123.734,46.93441],[-123.73491,46.93507],[-123.73537,46.93618],[-123.73597,46.93674],[-123.74084,46.93931],[-123.74435,46.94062],[-123.74573,46.94184],[-123.74867,46.94284],[-123.75229,46.94324],[-123.75638,46.94475],[-123.76418,46.95006],[-123.77541,46.95955],[-123.78809,46.96789],[-123.80239,46.96787],[-123.80245,46.96228],[-123.80662,46.95558],[-123.80446,46.95508],[-123.80455,46.95431],[-123.8038,46.9534],[-123.8039,46.95289],[-123.80459,46.95262],[-123.80444,46.952],[-123.80241,46.95183],[-123.80115,46.95222],[-123.80332,46.95228],[-123.8033,46.95266],[-123.8039,46.95289],[-123.8038,46.9534],[-123.80455,46.95431],[-123.80446,46.95508],[-123.80662,46.95558],[-123.80245,46.96228],[-123.80242,46.96924],[-123.80282,46.96968],[-123.80439,46.97021],[-123.81131,46.97345],[-123.81498,46.97659]],"type":"LineString"},"properties":{"color":"#2B672C","color_name":"green","kind":"route","label":"Green","long":"Raymond - Aberdeen","route_id":"77669","text_color":"#FFFFFF","type_label":"Bus"},"type":"Feature"},{"geometry":{"coordinates":[[-123.81274,46.66701],[-123.81231,46.66657],[-123.81323,46.66605],[-123.81407,46.66678],[-123.813,46.66736],[-123.81448,46.66999],[-123.81781,46.6728],[-123.82043,46.6758],[-123.82747,46.68314],[-123.84211,46.69755],[-123.84382,46.69874],[-123.84594,46.69911],[-123.84781,46.69886],[-123.84965,46.69802],[-123.86917,46.68811],[-123.87507,46.68446],[-123.8762,46.68416],[-123.87718,46.68418],[-123.88152,46.68555],[-123.88295,46.68568],[-123.88468,46.68554],[-123.88648,46.68497],[-123.88902,46.68354],[-123.89197,46.68245],[-123.89252,46.68199],[-123.8936,46.68047],[-123.89473,46.67988],[-123.90065,46.67925],[-123.9045,46.6782],[-123.90643,46.67788],[-123.91554,46.67737],[-123.91746,46.67639],[-123.91884,46.67424],[-123.92068,46.67238],[-123.92105,46.67156],[-123.92078,46.67048],[-123.91929,46.66894],[-123.9189,46.66821],[-123.91897,46.66555],[-123.91972,46.6628],[-123.91954,46.66123],[-123.92068,46.65513],[-123.91922,46.65182],[-123.91825,46.64773],[-123.91811,46.64581],[-123.92085,46.63552],[-123.92291,46.62885],[-123.92316,46.62655],[-123.92289,46.62509],[-123.9221,46.62339],[-123.92088,46.62196],[-123.91714,46.61926],[-123.91583,46.61798],[-123.91474,46.61626],[-123.91423,46.61435],[-123.91419,46.6131],[-123.91448,46.61168],[-123.9189,46.60063],[-123.91938,46.59903],[-123.91901,46.59715],[-123.91704,46.59134],[-123.91585,46.58492],[-123.91566,46.58134],[-123.91629,46.57455],[-123.91612,46.57334],[-123.91566,46.57236],[-123.91483,46.57134],[-123.89434,46.54964],[-123.89289,46.54763],[-123.89213,46.54615],[-123.89115,46.5428],[-123.88626,46.52244],[-123.88582,46.51848],[-123.88634,46.50226],[-123.88831,46.49188],[-123.88748,46.48971],[-123.88734,46.48854],[-123.88748,46.48143],[-123.88783,46.47919],[-123.88509,46.47534],[-123.88364,46.47426],[-123.88199,46.47246],[-123.87964,46.46828],[-123.87867,46.4651],[-123.87415,46.45931],[-123.87392,46.4587],[-123.87368,46.45287],[-123.87176,46.44808],[-123.86991,46.44585],[-123.8687,46.44488],[-123.85804,46.43798],[-123.85671,46.43689],[-123.85619,46.43601],[-123.85549,46.43274],[-123.8558,46.43158],[-123.85635,46.4308],[-123.85767,46.42936],[-123.85955,46.43018],[-123.86107,46.43051],[-123.86696,46.431],[-123.87044,46.43071],[-123.87221,46.43033],[-123.87519,46.43032],[-123.87806,46.4308],[-123.87974,46.43078],[-123.88166,46.43124],[-123.88236,46.43158],[-123.88318,46.43248],[-123.88395,46.4329],[-123.88687,46.43397],[-123.88932,46.43434],[-123.89145,46.43526],[-123.89322,46.43537],[-123.90015,46.43486],[-123.90117,46.43436],[-123.9018,46.43383],[-123.90412,46.43035],[-123.90478,46.42972],[-123.90542,46.42941],[-123.90689,46.42924],[-123.91,46.4295],[-123.91183,46.43031],[-123.91297,46.43046],[-123.91435,46.4304],[-123.91615,46.42973],[-123.91718,46.42878],[-123.91972,46.42724],[-123.92011,46.42546],[-123.9214,46.42351],[-123.92122,46.42175],[-123.92411,46.41918],[-123.92727,46.41757],[-123.9286,46.41725],[-123.93113,46.41707],[-123.93452,46.41597],[-123.93474,46.41568],[-123.93482,46.41477],[-123.93646,46.41342],[-123.93724,46.41206],[-123.9373,46.411],[-123.93703,46.40969],[-123.93824,46.40793],[-123.93822,46.40415],[-123.93845,46.4036],[-123.93895,46.40317],[-123.93988,46.40307],[-123.94621,46.40399],[-123.94788,46.40373],[-123.95198,46.40252],[-123.95215,46.40203],[-123.95137,46.40038],[-123.95124,46.39971],[-123.95137,46.39841],[-123.951,46.39698],[-123.95098,46.39465],[-123.95189,46.39176],[-123.95253,46.38859],[-123.95228,46.38809],[-123.95065,46.38678],[-123.94992,46.38556],[-123.94952,46.38432],[-123.94998,46.38368],[-123.95218,46.38307],[-123.95265,46.38259],[-123.95273,46.38186],[-123.95214,46.38016],[-123.95324,46.37846],[-123.95306,46.37808],[-123.95124,46.37676],[-123.95072,46.37618],[-123.94991,46.37305],[-123.95555,46.35044],[-123.95602,46.34971],[-123.95686,46.34903],[-123.95975,46.34792],[-123.96058,46.34743],[-123.96227,46.34532],[-123.963,46.34482],[-123.9671,46.34392],[-123.96862,46.34315],[-123.96975,46.34188],[-123.97097,46.33843],[-123.97158,46.33784],[-123.97371,46.3365],[-123.97638,46.33317],[-123.97776,46.33233],[-123.98464,46.33089],[-123.9874,46.33064],[-124.02503,46.33114],[-124.0549,46.33116],[-124.05446,46.34459],[-124.05476,46.34604],[-124.05462,46.34897],[-124.05337,46.34894],[-124.05339,46.34863]],"type":"LineString"},"properties":{"color":"#6D1950","color_name":"brown","kind":"route","label":"Purple","long":"South Bend - Long Beach","route_id":"77670","text_color":"#FFFFFF","type_label":"Bus"},"type":"Feature"},{"geometry":{"coordinates":[[-123.73116,46.6856],[-123.72944,46.68562],[-123.72944,46.68338],[-123.72864,46.68337],[-123.72851,46.68351],[-123.72857,46.68464],[-123.72623,46.68466],[-123.72624,46.685],[-123.72537,46.68565],[-123.72944,46.68562],[-123.72947,46.68801],[-123.73081,46.68984],[-123.73611,46.6937],[-123.74665,46.69367],[-123.74661,46.69267],[-123.74432,46.69277],[-123.74424,46.6937],[-123.73707,46.69374],[-123.73618,46.69356],[-123.73146,46.69043],[-123.73175,46.68972],[-123.73326,46.68781],[-123.73334,46.68396],[-123.73129,46.68339],[-123.72948,46.68329],[-123.73125,46.682],[-123.7368,46.68053],[-123.73696,46.68085],[-123.73776,46.68086],[-123.73873,46.68114],[-123.7382,46.68189],[-123.73848,46.68186],[-123.739,46.68111],[-123.73959,46.68072],[-123.73956,46.67735],[-123.74208,46.67732],[-123.74206,46.67606],[-123.73955,46.67607],[-123.73958,46.68034],[-123.741,46.68033],[-123.74205,46.68059],[-123.74535,46.68252],[-123.74743,46.68443],[-123.74838,46.68478],[-123.7494,46.6848],[-123.7503,46.68452],[-123.75667,46.68132],[-123.76342,46.67637],[-123.76829,46.67393],[-123.77854,46.67072],[-123.78177,46.67019],[-123.78693,46.6687],[-123.78699,46.66681],[-123.78885,46.66683],[-123.78894,46.66314],[-123.79257,46.66318],[-123.79255,46.66411],[-123.79509,46.66412],[-123.79698,46.66327],[-123.80058,46.66316],[-123.80186,46.66329],[-123.80915,46.66491],[-123.81121,46.66599],[-123.81238,46.66533],[-123.81407,46.66678],[-123.813,46.66736],[-123.81274,46.66701]],"type":"LineString"},"properties":{"color":"#FFFF00","color_name":"yellow","kind":"route","label":"Yellow","long":"Raymond - South Bend (Local)","route_id":"77671","text_color":"#FFFFFF","type_label":"Bus"},"type":"Feature"},{"geometry":{"coordinates":[[-123.83332,46.19024],[-123.83311,46.19045],[-123.84614,46.19058],[-123.84713,46.19029],[-123.85271,46.18768],[-123.85322,46.18803],[-123.85382,46.18798],[-123.8543,46.18762],[-123.8543,46.18724],[-123.8539,46.18704],[-123.85339,46.18707],[-123.8495,46.18839],[-123.8489,46.18893],[-123.84891,46.18959],[-123.87503,46.24117],[-123.87738,46.24112],[-123.88707,46.24268],[-123.89397,46.24332],[-123.90382,46.24542],[-123.90865,46.24586],[-123.91008,46.24647],[-123.91526,46.25006],[-123.92268,46.25336],[-123.92372,46.2544],[-123.92511,46.25686],[-123.92999,46.26198],[-123.93195,46.2634],[-123.93787,46.26642],[-123.945,46.27224],[-123.94862,46.27632],[-123.95271,46.28377],[-123.9625,46.29431],[-123.96368,46.29624],[-123.96725,46.30473],[-123.96834,46.3062],[-123.96947,46.30705],[-123.97065,46.30762],[-124.00583,46.32204],[-124.00564,46.32263],[-124.0055,46.33093],[-124.03913,46.33121],[-124.0549,46.33116],[-124.05446,46.34459],[-124.05474,46.34594],[-124.05273,46.34592],[-124.05259,46.34892],[-124.05337,46.34894],[-124.05339,46.34863]],"type":"LineString"},"properties":{"color":"#3284C0","color_name":"teal","kind":"route","label":"Blue","long":"Long Beach - Astoria","route_id":"77672","text_color":"#FFFFFF","type_label":"Bus"},"type":"Feature"},{"geometry":{"coordinates":[[-124.03766,46.54919],[-124.03106,46.54915],[-124.03117,46.54653],[-124.03053,46.54246],[-124.03076,46.52296],[-124.02887,46.51217],[-124.02897,46.51172],[-124.03256,46.50874],[-124.03313,46.50784],[-124.03419,46.48249],[-124.03387,46.48157],[-124.02917,46.47544],[-124.02963,46.45414],[-124.02938,46.45367],[-124.0282,46.45273],[-124.02771,46.45209],[-124.02591,46.44483],[-124.02509,46.44365],[-124.02447,46.44197],[-124.02115,46.42714],[-124.02097,46.42532],[-124.02321,46.40311],[-124.02577,46.38594],[-124.02742,46.3708],[-124.02759,46.36723],[-124.02839,46.36355],[-124.02964,46.3548],[-124.03002,46.35424],[-124.03159,46.35477],[-124.03188,46.35415],[-124.03136,46.35469],[-124.03002,46.35424],[-124.03361,46.34996],[-124.03445,46.34959],[-124.03955,46.34838],[-124.04094,46.34653],[-124.04119,46.34573],[-124.05273,46.34592],[-124.05259,46.34892],[-124.05337,46.34894],[-124.05339,46.34864]],"type":"LineString"},"properties":{"color":"#694538","color_name":"brown","kind":"route","label":"Brown","long":"Long Beach - Oysterville","route_id":"77673","text_color":"#FFFFFF","type_label":"Bus"},"type":"Feature"},{"geometry":{"coordinates":[[-124.05361,46.34863],[-124.0536,46.34894],[-124.05337,46.34894],[-124.0538,46.33437],[-124.0547,46.33439],[-124.05478,46.33506],[-124.05446,46.34459],[-124.05474,46.34594],[-124.0615,46.34604],[-124.05628,46.34595],[-124.0557,46.35012],[-124.0579,46.35025],[-124.05906,46.35],[-124.05958,46.35053],[-124.05897,46.35141],[-124.05347,46.3513],[-124.0533,46.35055],[-124.05341,46.34863]],"type":"LineString"},"properties":{"color":"#D2B48C","color_name":"gray","kind":"route","label":"Tan","long":"Long Beach","route_id":"77775","text_color":"#FFFFFF","type_label":"Bus"},"type":"Feature"},{"geometry":{"coordinates":[[-124.05339,46.34862],[-124.05348,46.34593],[-124.05474,46.34594],[-124.05476,46.3462],[-124.05275,46.38486],[-124.05278,46.38623],[-124.05356,46.39009],[-124.05249,46.40282],[-124.0509,46.44686],[-124.05102,46.4501],[-124.05135,46.45119],[-124.05272,46.45413],[-124.05295,46.45613],[-124.05225,46.47287],[-124.05033,46.483],[-124.05004,46.49072],[-124.04903,46.49071],[-124.049,46.49148],[-124.05002,46.49149],[-124.05033,46.483],[-124.05225,46.47287],[-124.05295,46.45613],[-124.05272,46.45413],[-124.05135,46.45119],[-124.05102,46.4501],[-124.0509,46.44686],[-124.05249,46.40282],[-124.05356,46.39009],[-124.05274,46.38535],[-124.05448,46.35132],[-124.05347,46.3513],[-124.0533,46.35055],[-124.0534,46.34862]],"type":"LineString"},"properties":{"color":"#FF0000","color_name":"red","kind":"route","label":"Red","long":"Long Beach - Ilwaco","route_id":"77776","text_color":"#FFFFFF","type_label":"Bus"},"type":"Feature"},{"geometry":{"coordinates":[[-123.73115,46.6856],[-123.72944,46.68562],[-123.72953,46.68814],[-123.73115,46.69018],[-123.73611,46.6937],[-123.74665,46.69367],[-123.74661,46.69267],[-123.74432,46.69277],[-123.74424,46.6937],[-123.73707,46.69374],[-123.73618,46.69356],[-123.73146,46.69043],[-123.73152,46.6901],[-123.73326,46.68781],[-123.73338,46.68558],[-123.73094,46.6856],[-123.7309,46.68335],[-123.72944,46.68338],[-123.73115,46.68203],[-123.7368,46.68053],[-123.73696,46.68085],[-123.739,46.68111],[-123.73839,46.68189],[-123.73824,46.68182],[-123.73873,46.68114],[-123.73776,46.68086],[-123.73696,46.68085],[-123.7368,46.68053],[-123.741,46.68033],[-123.74205,46.68059],[-123.74535,46.68252],[-123.74743,46.68443],[-123.74888,46.68483],[-123.74988,46.6847],[-123.75724,46.68098],[-123.76342,46.67637],[-123.76697,46.67452],[-123.77,46.67335],[-123.77441,46.672],[-123.77455,46.6722],[-123.77391,46.67241],[-123.77347,46.67229],[-123.77854,46.67072],[-123.78177,46.67019],[-123.78682,46.66875],[-123.78932,46.66755],[-123.7957,46.66376],[-123.79679,46.66329],[-123.80058,46.66316],[-123.80186,46.66329],[-123.80915,46.66491],[-123.81121,46.66599],[-123.81586,46.66343],[-123.81762,46.66485],[-123.813,46.66736],[-123.81274,46.66701]],"type":"LineString"},"properties":{"color":"#FFA500","color_name":"yellow","kind":"route","label":"Orange","long":"Raymond - South Bend (Frequency)","route_id":"77777","text_color":"#FFFFFF","type_label":"Bus"},"type":"Feature"},{"geometry":{"coordinates":[-123.73928,46.69376],"type":"Point"},"properties":{"kind":"stop","name":"Riverdale Grocery","stop_id":"4259372"},"type":"Feature"},{"geometry":{"coordinates":[-123.81157,46.66553],"type":"Point"},"properties":{"kind":"stop","name":"Pioneer Grocery","stop_id":"4259373"},"type":"Feature"},{"geometry":{"coordinates":[-123.74081,46.67735],"type":"Point"},"properties":{"kind":"stop","name":"Grays Harbor Riverview Campus","stop_id":"4259374"},"type":"Feature"},{"geometry":{"coordinates":[-124.03364,46.49732],"type":"Point"},"properties":{"kind":"stop","name":"Nahcotta / 270th","stop_id":"4259375"},"type":"Feature"},{"geometry":{"coordinates":[-123.81173,46.66576],"type":"Point"},"properties":{"kind":"stop","name":"South Bend Pharmacy","stop_id":"4259376"},"type":"Feature"},{"geometry":{"coordinates":[-123.73219,46.68349],"type":"Point"},"properties":{"kind":"stop","name":"Alder & Co","stop_id":"4259377"},"type":"Feature"},{"geometry":{"coordinates":[-123.72582,46.68514],"type":"Point"},"properties":{"kind":"stop","name":"Raymond High School","stop_id":"4259378"},"type":"Feature"},{"geometry":{"coordinates":[-123.73847,46.68195],"type":"Point"},"properties":{"kind":"stop","name":"Thriftway","stop_id":"4259379"},"type":"Feature"},{"geometry":{"coordinates":[-123.74753,46.67536],"type":"Point"},"properties":{"kind":"stop","name":"Willapa Harbor Care Center","stop_id":"4259380"},"type":"Feature"},{"geometry":{"coordinates":[-123.74021,46.6802],"type":"Point"},"properties":{"kind":"stop","name":"Fowler & 101","stop_id":"4259381"},"type":"Feature"},{"geometry":{"coordinates":[-123.78658,46.66878],"type":"Point"},"properties":{"kind":"stop","name":"Quincy & 101","stop_id":"4259382"},"type":"Feature"},{"geometry":{"coordinates":[-123.78695,46.66802],"type":"Point"},"properties":{"kind":"stop","name":"Grower's Outlet","stop_id":"4259383"},"type":"Feature"},{"geometry":{"coordinates":[-123.79256,46.66242],"type":"Point"},"properties":{"kind":"stop","name":"South Bend High School","stop_id":"4259384"},"type":"Feature"},{"geometry":{"coordinates":[-123.79438,46.66413],"type":"Point"},"properties":{"kind":"stop","name":"Dollar Store Crosswalk","stop_id":"4259385"},"type":"Feature"},{"geometry":{"coordinates":[-123.81203,46.66217],"type":"Point"},"properties":{"kind":"stop","name":"Willapa Harbor Hospital","stop_id":"4259386"},"type":"Feature"},{"geometry":{"coordinates":[-123.7329,46.68871],"type":"Point"},"properties":{"kind":"stop","name":"3rd & Franklin","stop_id":"4259387"},"type":"Feature"},{"geometry":{"coordinates":[-123.74672,46.69266],"type":"Point"},"properties":{"kind":"stop","name":"Howard & Garfield","stop_id":"4259388"},"type":"Feature"},{"geometry":{"coordinates":[-123.80342,46.97076],"type":"Point"},"properties":{"kind":"stop","name":"Swanson's","stop_id":"4259389"},"type":"Feature"},{"geometry":{"coordinates":[-123.80336,46.95274],"type":"Point"},"properties":{"kind":"stop","name":"Grays Harbor College #3 (NW)","stop_id":"4259390"},"type":"Feature"},{"geometry":{"coordinates":[-123.81509,46.97653],"type":"Point"},"properties":{"kind":"stop","name":"Aberdeen Transit Station","stop_id":"4259391"},"type":"Feature"},{"geometry":{"coordinates":[-123.71742,46.90572],"type":"Point"},"properties":{"kind":"stop","name":"Clark's Restaurant","stop_id":"4259392"},"type":"Feature"},{"geometry":{"coordinates":[-123.71445,46.89071],"type":"Point"},"properties":{"kind":"stop","name":"Artic RV","stop_id":"4259393"},"type":"Feature"},{"geometry":{"coordinates":[-123.73116,46.68539],"type":"Point"},"properties":{"kind":"stop","name":"5th & Commercial","stop_id":"4259394"},"type":"Feature"},{"geometry":{"coordinates":[-124.05008,46.49064],"type":"Point"},"properties":{"kind":"stop","name":"Coastal Caf\u00e9","stop_id":"4259395"},"type":"Feature"},{"geometry":{"coordinates":[-124.03146,46.35483],"type":"Point"},"properties":{"kind":"stop","name":"County Offices","stop_id":"4259396"},"type":"Feature"},{"geometry":{"coordinates":[-124.03357,46.49159],"type":"Point"},"properties":{"kind":"stop","name":"Bay Ave & Sandridge","stop_id":"4259397"},"type":"Feature"},{"geometry":{"coordinates":[-124.03766,46.54912],"type":"Point"},"properties":{"kind":"stop","name":"Oysterville/Stackpole Rd.","stop_id":"4259398"},"type":"Feature"},{"geometry":{"coordinates":[-124.05562,46.53129],"type":"Point"},"properties":{"kind":"stop","name":"Surfside Inn","stop_id":"4259399"},"type":"Feature"},{"geometry":{"coordinates":[-124.04998,46.49058],"type":"Point"},"properties":{"kind":"stop","name":"Jack's Country Store","stop_id":"4259400"},"type":"Feature"},{"geometry":{"coordinates":[-124.0543,46.35246],"type":"Point"},"properties":{"kind":"stop","name":"N. 3rd St. Coulter Park","stop_id":"4259401"},"type":"Feature"},{"geometry":{"coordinates":[-123.81279,46.66699],"type":"Point"},"properties":{"kind":"stop","name":"Pacific & 101","stop_id":"4259402"},"type":"Feature"},{"geometry":{"coordinates":[-123.95248,46.62864],"type":"Point"},"properties":{"kind":"stop","name":"Skylar's Restaurant","stop_id":"4259403"},"type":"Feature"},{"geometry":{"coordinates":[-123.8045,46.37645],"type":"Point"},"properties":{"kind":"stop","name":"Naselle Shelter","stop_id":"4259404"},"type":"Feature"},{"geometry":{"coordinates":[-123.94597,46.27347],"type":"Point"},"properties":{"kind":"stop","name":"Chinook Post Office","stop_id":"4259405"},"type":"Feature"},{"geometry":{"coordinates":[-123.83329,46.1902],"type":"Point"},"properties":{"kind":"stop","name":"Astoria Transit Center","stop_id":"4259406"},"type":"Feature"},{"geometry":{"coordinates":[-123.94666,46.27395],"type":"Point"},"properties":{"kind":"stop","name":"Chinook Store","stop_id":"4259407"},"type":"Feature"},{"geometry":{"coordinates":[-124.03961,46.30625],"type":"Point"},"properties":{"kind":"stop","name":"Ilwaco Port","stop_id":"4259408"},"type":"Feature"},{"geometry":{"coordinates":[-124.05351,46.34863],"type":"Point"},"properties":{"kind":"stop","name":"Long Beach Transit Center","stop_id":"4259947"},"type":"Feature"},{"geometry":{"coordinates":[-123.731,46.6843],"type":"Point"},"properties":{"kind":"stop","name":"Dennis Co.","stop_id":"4259948"},"type":"Feature"},{"geometry":{"coordinates":[-123.77412,46.67232],"type":"Point"},"properties":{"kind":"stop","name":"Boondocks","stop_id":"4259949"},"type":"Feature"},{"geometry":{"coordinates":[-123.79462,46.66447],"type":"Point"},"properties":{"kind":"stop","name":"Dollar General","stop_id":"4259950"},"type":"Feature"},{"geometry":{"coordinates":[-124.04381,46.3167],"type":"Point"},"properties":{"kind":"stop","name":"Black Lake Shelter","stop_id":"4259951"},"type":"Feature"},{"geometry":{"coordinates":[-124.04326,46.30946],"type":"Point"},"properties":{"kind":"stop","name":"Ilwaco City Hall","stop_id":"4259952"},"type":"Feature"},{"geometry":{"coordinates":[-124.04329,46.31081],"type":"Point"},"properties":{"kind":"stop","name":"Ilwaco Timberland Library","stop_id":"4259953"},"type":"Feature"},{"geometry":{"coordinates":[-124.04294,46.31302],"type":"Point"},"properties":{"kind":"stop","name":"Ocean Beach Hospital","stop_id":"4259954"},"type":"Feature"},{"geometry":{"coordinates":[-124.05329,46.37099],"type":"Point"},"properties":{"kind":"stop","name":"26th and Pacific","stop_id":"4259955"},"type":"Feature"},{"geometry":{"coordinates":[-124.05275,46.45849],"type":"Point"},"properties":{"kind":"stop","name":"Peninsula Senior Activity Center","stop_id":"4259956"},"type":"Feature"},{"geometry":{"coordinates":[-124.05245,46.4664],"type":"Point"},"properties":{"kind":"stop","name":"Klipsan Beach and 227th","stop_id":"4259957"},"type":"Feature"},{"geometry":{"coordinates":[-123.80114,46.66311],"type":"Point"},"properties":{"kind":"stop","name":"Buds Lumber","stop_id":"4259958"},"type":"Feature"},{"geometry":{"coordinates":[-124.05465,46.33463],"type":"Point"},"properties":{"kind":"stop","name":"Sid's Supermarket","stop_id":"4262084"},"type":"Feature"},{"geometry":{"coordinates":[-124.05439,46.34224],"type":"Point"},"properties":{"kind":"stop","name":"Mcdonald's","stop_id":"4262085"},"type":"Feature"},{"geometry":{"coordinates":[-124.061,46.34599],"type":"Point"},"properties":{"kind":"stop","name":"Sid Snyder Beach Approach","stop_id":"4262086"},"type":"Feature"},{"geometry":{"coordinates":[-124.059,46.35119],"type":"Point"},"properties":{"kind":"stop","name":"Bolstad Pavillion","stop_id":"4262087"},"type":"Feature"}],"type":"FeatureCollection"}
