{"features":[{"geometry":{"coordinates":[[-73.99309,40.75074],[-73.98914,40.74945],[-73.97648,40.74418],[-73.9745,40.74352],[-73.9724,40.74313],[-73.95454,40.7412],[-73.95167,40.74137],[-73.94891,40.742],[-73.94563,40.74314],[-73.93865,40.74602],[-73.93529,40.74702],[-73.91427,40.75096],[-73.91212,40.75109],[-73.91071,40.75087],[-73.90813,40.7499],[-73.90587,40.74854],[-73.89618,40.73968],[-73.89461,40.73855],[-73.89341,40.73794],[-73.8833,40.73369],[-73.84365,40.71916],[-73.84057,40.71773],[-73.83739,40.71551],[-73.82055,40.70047],[-73.8189,40.69941],[-73.81765,40.69886],[-73.8163,40.69848],[-73.81487,40.69837],[-73.81137,40.69899],[-73.80101,40.70194],[-73.78642,40.70548],[-73.70495,40.72507],[-73.53688,40.76508],[-73.52869,40.76722],[-73.5245,40.76807],[-73.52307,40.76816],[-73.52169,40.76787],[-73.5205,40.76726],[-73.46842,40.73317],[-73.46596,40.73203],[-73.38942,40.71233],[-73.34538,40.6959],[-73.34396,40.6957],[-73.34182,40.69586],[-73.32431,40.7007]],"type":"LineString"},"properties":{"color":"#00985F","color_name":"green","kind":"route","label":"Babylon Branch","long":"Babylon Branch","route_id":"1","text_color":"#FFFFFF","type_label":"Rail"},"type":"Feature"},{"geometry":{"coordinates":[[-73.99309,40.75074],[-73.98914,40.74945],[-73.97648,40.74418],[-73.9745,40.74352],[-73.9724,40.74313],[-73.95454,40.7412],[-73.95167,40.74137],[-73.94891,40.742],[-73.94563,40.74314],[-73.93865,40.74602],[-73.93529,40.74702],[-73.91427,40.75096],[-73.91212,40.75109],[-73.91071,40.75087],[-73.90813,40.7499],[-73.90587,40.74854],[-73.89618,40.73968],[-73.89461,40.73855],[-73.89341,40.73794],[-73.8833,40.73369],[-73.8443,40.7194],[-73.84116,40.71805],[-73.83891,40.71668],[-73.83739,40.71551],[-73.82202,40.70168],[-73.82002,40.70009],[-73.81829,40.69912],[-73.8163,40.69848],[-73.81487,40.69837],[-73.81345,40.69855],[-73.81069,40.69917],[-73.80101,40.70194],[-73.78642,40.70548],[-73.70495,40.72507],[-73.53688,40.76508],[-73.52342,40.76848],[-73.5223,40.76916],[-73.52095,40.77045],[-73.51988,40.77247],[-73.51267,40.80995],[-73.51222,40.81156],[-73.5111,40.81358],[-73.50566,40.82133],[-73.50486,40.82224],[-73.50382,40.823],[-73.50094,40.82466],[-73.49824,40.82541],[-73.47256,40.82856],[-73.46609,40.82903],[-73.46248,40.82905],[-73.45822,40.82966],[-73.45635,40.83047],[-73.45413,40.83187],[-73.44958,40.83747],[-73.44848,40.83817],[-73.44716,40.83861],[-73.44502,40.83871],[-73.4429,40.83836],[-73.43847,40.83651],[-73.4371,40.83617],[-73.43495,40.83617],[-73.43358,40.83651],[-73.43186,40.8375],[-73.41272,40.85169],[-73.41155,40.85233],[-73.35667,40.87076],[-73.34887,40.8719],[-73.34751,40.87225],[-73.34636,40.87291],[-73.34494,40.87415],[-73.33855,40.87861],[-73.33677,40.87954],[-73.33545,40.87999],[-73.33191,40.8805],[-73.25464,40.88375],[-73.25177,40.88365],[-73.24918,40.8827],[-73.23299,40.87347],[-73.23169,40.87217],[-73.22862,40.86721],[-73.22759,40.86644],[-73.22285,40.86393],[-73.2187,40.86014],[-73.21403,40.8587],[-73.20805,40.85561],[-73.20597,40.85521],[-73.20308,40.85521],[-73.19356,40.85779],[-73.18794,40.86123],[-73.14542,40.8926],[-73.14436,40.89402],[-73.14025,40.90282],[-73.13952,40.90376],[-73.13724,40.90589],[-73.13666,40.90689],[-73.13657,40.90798],[-73.13749,40.9112],[-73.13733,40.91228],[-73.13707,40.91279],[-73.13623,40.91367],[-73.13175,40.91645],[-73.12967,40.91869],[-73.12726,40.92207],[-73.12591,40.92336],[-73.12481,40.92406],[-73.11878,40.92589],[-73.11706,40.92688],[-73.11454,40.92885],[-73.11269,40.92969],[-73.10266,40.93072],[-73.08974,40.93429],[-73.0869,40.93464],[-73.08378,40.93602],[-73.08242,40.93636],[-73.08098,40.93632],[-73.07893,40.93579],[-73.07703,40.93499],[-73.07418,40.93331],[-73.07279,40.93304],[-73.07138,40.93322],[-73.06882,40.93424],[-73.0674,40.93443],[-73.06173,40.93368],[-73.05263,40.93449]],"type":"LineString"},"properties":{"color":"#006EC7","color_name":"teal","kind":"route","label":"Port Jefferson Branch","long":"Port Jefferson Branch","route_id":"10","text_color":"#FFFFFF","type_label":"Rail"},"type":"Feature"},{"geometry":{"coordinates":[[-73.80933,40.69955],[-73.81206,40.69883],[-73.81487,40.69837],[-73.81699,40.69864],[-73.8189,40.69941],[-73.82154,40.70126],[-73.83739,40.71551],[-73.84057,40.71773],[-73.84365,40.71916],[-73.8833,40.73369],[-73.89341,40.73794],[-73.89461,40.73855],[-73.89618,40.73968],[-73.90587,40.74854],[-73.90813,40.7499],[-73.91071,40.75087],[-73.91212,40.75109],[-73.91427,40.75096],[-73.93529,40.74702],[-73.93865,40.74602],[-73.94563,40.74314],[-73.94891,40.742],[-73.95167,40.74137],[-73.95454,40.7412],[-73.9724,40.74313],[-73.9745,40.74352],[-73.97648,40.74418],[-73.98914,40.74945],[-73.99309,40.75074]],"type":"LineString"},"properties":{"color":"#4D5357","color_name":"green","kind":"route","label":"City Terminal Zone","long":"City Terminal Zone","route_id":"12","text_color":"#FFFFFF","type_label":"Rail"},"type":"Feature"},{"geometry":{"coordinates":[[-72.36328,41.09965],[-72.37628,41.09662],[-72.37886,41.09562],[-72.3805,41.09455],[-72.39998,41.07903],[-72.44403,41.05885],[-72.52822,41.00006],[-72.53011,40.9984],[-72.57721,40.94634],[-72.57868,40.94513],[-72.5799,40.94455],[-72.58196,40.94406],[-72.61356,40.94101],[-72.61634,40.94041],[-72.61882,40.93929],[-72.64988,40.92221],[-72.65312,40.92102],[-72.72792,40.91477],[-72.73146,40.91422],[-72.73416,40.91345],[-72.7379,40.91178],[-72.79573,40.88067],[-72.91519,40.82592],[-72.91901,40.82438],[-72.92184,40.82397],[-73.10564,40.80815]],"type":"LineString"},"properties":{"color":"#A626AA","color_name":"purple","kind":"route","label":"Greenport Service","long":"Greenport Service","route_id":"13","text_color":"#FFFFFF","type_label":"Rail"},"type":"Feature"},{"geometry":{"coordinates":[[-73.99309,40.75074],[-73.98914,40.74945],[-73.97648,40.74418],[-73.9745,40.74352],[-73.9724,40.74313],[-73.95454,40.7412],[-73.95167,40.74137],[-73.94891,40.742],[-73.94563,40.74314],[-73.93865,40.74602],[-73.93529,40.74702],[-73.91427,40.75096],[-73.91212,40.75109],[-73.91071,40.75087],[-73.90813,40.7499],[-73.90587,40.74854],[-73.89618,40.73968],[-73.89461,40.73855],[-73.89341,40.73794],[-73.8833,40.73369],[-73.84365,40.71916],[-73.84057,40.71773],[-73.83739,40.71551],[-73.82106,40.70086],[-73.81829,40.69912],[-73.81699,40.69864],[-73.81559,40.69839],[-73.81415,40.69842],[-73.81137,40.69899],[-73.80101,40.70194],[-73.79501,40.7034],[-73.70701,40.72457],[-73.70321,40.72517],[-73.70179,40.72506],[-73.69761,40.72421],[-73.68399,40.72305],[-73.64214,40.72292],[-73.63303,40.7245],[-73.63173,40.72406],[-73.62994,40.72171],[-73.62716,40.7192],[-73.62643,40.71766],[-73.62525,40.71345]],"type":"LineString"},"properties":{"color":"#CE8E00","color_name":"orange","kind":"route","label":"Hempstead Branch","long":"Hempstead Branch","route_id":"2","text_color":"#121212","type_label":"Rail"},"type":"Feature"},{"geometry":{"coordinates":[[-73.99309,40.75074],[-73.98914,40.74945],[-73.97648,40.74418],[-73.9745,40.74352],[-73.9724,40.74313],[-73.95454,40.7412],[-73.95167,40.74137],[-73.94891,40.742],[-73.94563,40.74314],[-73.93865,40.74602],[-73.93529,40.74702],[-73.91427,40.75096],[-73.91212,40.75109],[-73.91071,40.75087],[-73.90813,40.7499],[-73.90587,40.74854],[-73.89618,40.73968],[-73.89461,40.73855],[-73.89341,40.73794],[-73.8833,40.73369],[-73.84365,40.71916],[-73.84057,40.71773],[-73.83739,40.71551],[-73.82106,40.70086],[-73.81829,40.69912],[-73.81699,40.69864],[-73.81559,40.69839],[-73.81415,40.69842],[-73.81137,40.69899],[-73.80101,40.70194],[-73.79501,40.7034],[-73.63846,40.74095],[-73.63682,40.74198],[-73.63622,40.74297],[-73.63609,40.74405],[-73.63885,40.75201],[-73.63907,40.7531],[-73.64049,40.76457],[-73.64317,40.78091],[-73.6433,40.79299],[-73.64406,40.79623],[-73.64405,40.79787],[-73.64329,40.80055],[-73.64224,40.80198],[-73.63732,40.80673],[-73.62929,40.81225],[-73.62801,40.81357],[-73.62693,40.8156],[-73.62654,40.81777],[-73.62564,40.82653],[-73.62731,40.84515],[-73.62695,40.84732],[-73.6257,40.85047],[-73.62531,40.8543],[-73.62467,40.85586],[-73.62328,40.8571],[-73.62139,40.85791],[-73.62029,40.85861],[-73.61959,40.85956],[-73.61911,40.86227],[-73.61867,40.86331],[-73.61704,40.86512],[-73.61496,40.86664],[-73.61309,40.86746],[-73.60711,40.86941],[-73.59731,40.87504],[-73.59223,40.87714],[-73.58528,40.87862],[-73.5824,40.87865],[-73.58102,40.87894],[-73.5799,40.87962],[-73.57798,40.88126],[-73.57609,40.88204],[-73.57037,40.88271],[-73.56824,40.8825],[-73.56432,40.88111],[-73.56329,40.88035],[-73.5617,40.87851],[-73.56063,40.87778],[-73.55592,40.87642],[-73.55449,40.87628],[-73.55308,40.87651],[-73.55185,40.87707],[-73.54943,40.87908],[-73.54736,40.87946],[-73.5454,40.87883],[-73.54339,40.87657],[-73.54162,40.87566],[-73.5402,40.87547],[-73.53404,40.87533]],"type":"LineString"},"properties":{"color":"#00AF3F","color_name":"green","kind":"route","label":"Oyster Bay Branch","long":"Oyster Bay Branch","route_id":"3","text_color":"#FFFFFF","type_label":"Rail"},"type":"Feature"},{"geometry":{"coordinates":[[-73.99309,40.75074],[-73.98914,40.74945],[-73.97648,40.74418],[-73.9745,40.74352],[-73.9724,40.74313],[-73.95454,40.7412],[-73.95167,40.74137],[-73.94891,40.742],[-73.94563,40.74314],[-73.93865,40.74602],[-73.93529,40.74702],[-73.91427,40.75096],[-73.91212,40.75109],[-73.91071,40.75087],[-73.90813,40.7499],[-73.90587,40.74854],[-73.89618,40.73968],[-73.89461,40.73855],[-73.89341,40.73794],[-73.8833,40.73369],[-73.84365,40.71916],[-73.84057,40.71773],[-73.83739,40.71551],[-73.82055,40.70047],[-73.8189,40.69941],[-73.81765,40.69886],[-73.8163,40.69848],[-73.81487,40.69837],[-73.81137,40.69899],[-73.80101,40.70194],[-73.70908,40.72408],[-73.53688,40.76508],[-73.52869,40.76722],[-73.5245,40.76807],[-73.52236,40.76807],[-73.5205,40.76726],[-73.46789,40.73296],[-73.46666,40.73239],[-73.46464,40.73181],[-73.46106,40.73158],[-73.45894,40.73191],[-73.41606,40.74161],[-73.19815,40.79113],[-73.125,40.80636],[-73.10636,40.80809]],"type":"LineString"},"properties":{"color":"#A626AA","color_name":"purple","kind":"route","label":"Ronkonkoma Branch","long":"Ronkonkoma Branch","route_id":"4","text_color":"#FFFFFF","type_label":"Rail"},"type":"Feature"},{"geometry":{"coordinates":[[-73.99309,40.75074],[-73.98914,40.74945],[-73.97648,40.74418],[-73.9745,40.74352],[-73.9724,40.74313],[-73.95454,40.7412],[-73.95167,40.74137],[-73.94891,40.742],[-73.94563,40.74314],[-73.93865,40.74602],[-73.93529,40.74702],[-73.91427,40.75096],[-73.91212,40.75109],[-73.91071,40.75087],[-73.90813,40.7499],[-73.90587,40.74854],[-73.89618,40.73968],[-73.89461,40.73855],[-73.89341,40.73794],[-73.8833,40.73369],[-73.84365,40.71916],[-73.84057,40.71773],[-73.83739,40.71551],[-73.82055,40.70047],[-73.8189,40.69941],[-73.81765,40.69886],[-73.8163,40.69848],[-73.81487,40.69837],[-73.81137,40.69899],[-73.80101,40.70194],[-73.78642,40.70548],[-73.70495,40.72507],[-73.53688,40.76508],[-73.52869,40.76722],[-73.5245,40.76807],[-73.52307,40.76816],[-73.52169,40.76787],[-73.5205,40.76726],[-73.46842,40.73317],[-73.46661,40.73228],[-73.46395,40.73142],[-73.39009,40.71253],[-73.34605,40.69609],[-73.34468,40.69577],[-73.34253,40.69575],[-73.32198,40.70132],[-73.31938,40.70228],[-73.31069,40.70617],[-73.29771,40.70953],[-73.25743,40.72302],[-73.2555,40.72376],[-73.24701,40.72792],[-73.24439,40.72883],[-73.2053,40.73663],[-73.20316,40.73683],[-73.19522,40.73694],[-73.16187,40.74164],[-73.15981,40.74213],[-73.15787,40.74286],[-73.15227,40.74631],[-73.15104,40.74687],[-73.14967,40.74722],[-73.14681,40.74725],[-73.13837,40.74576],[-73.13004,40.7425],[-73.12657,40.74177],[-73.08403,40.74035],[-73.08117,40.7406],[-73.04682,40.747],[-73.04488,40.74772],[-73.02751,40.7566],[-73.02207,40.7602],[-73.02012,40.7609],[-73.00286,40.76491],[-72.97715,40.76778],[-72.93148,40.776],[-72.92894,40.77703],[-72.89267,40.79506],[-72.89007,40.79599],[-72.82577,40.80327],[-72.82361,40.80327],[-72.81005,40.80165],[-72.80501,40.8018],[-72.75687,40.81163],[-72.75558,40.8121],[-72.75409,40.81328],[-72.74446,40.82489],[-72.7428,40.82593],[-72.74144,40.82629],[-72.73929,40.82628],[-72.69671,40.82007],[-72.69527,40.82003],[-72.69321,40.8205],[-72.66941,40.82846],[-72.60777,40.83451],[-72.60644,40.83493],[-72.60529,40.83559],[-72.58601,40.84803],[-72.55928,40.86483],[-72.51559,40.8794],[-72.51435,40.87997],[-72.51111,40.88215],[-72.50504,40.88514],[-72.50051,40.88787],[-72.49926,40.88841],[-72.49282,40.88909],[-72.48217,40.89065],[-72.46337,40.89093],[-72.45035,40.89068],[-72.41568,40.89205],[-72.39333,40.89334],[-72.39138,40.89404],[-72.38179,40.89896],[-72.35608,40.91018],[-72.35456,40.91135],[-72.34029,40.92448],[-72.33874,40.92563],[-72.32065,40.93474],[-72.31094,40.93842],[-72.30463,40.94293],[-72.3029,40.94392],[-72.293,40.9473],[-72.28955,40.9481],[-72.18658,40.96626],[-72.14417,40.97901],[-72.14141,40.97967],[-72.13711,40.98008],[-72.11466,40.97979],[-72.10965,40.98034],[-72.02848,41.00391],[-72.02659,41.00472],[-72.02501,41.00584],[-72.01861,41.01249],[-72.01804,41.0135],[-72.01754,41.0151],[-72.01759,41.01948],[-72.01701,41.02163],[-72.01568,41.02357],[-72.00984,41.02986],[-72.00846,41.03113],[-72.00635,41.03263],[-71.98994,41.04258],[-71.98735,41.04353],[-71.98519,41.04366],[-71.98377,41.04347],[-71.98181,41.04277],[-71.97624,41.03927],[-71.97413,41.03899],[-71.96379,41.04149],[-71.96253,41.04204],[-71.95917,41.04413],[-71.95559,41.04599],[-71.95412,41.04705]],"type":"LineString"},"properties":{"color":"#00B2A9","color_name":"teal","kind":"route","label":"Montauk Branch","long":"Montauk Branch","route_id":"5","text_color":"#121212","type_label":"Rail"},"type":"Feature"},{"geometry":{"coordinates":[[-73.66452,40.59018],[-73.66448,40.59212],[-73.66392,40.59312],[-73.66221,40.59488],[-73.65546,40.60059],[-73.65373,40.60234],[-73.6489,40.60845],[-73.64845,40.60949],[-73.64833,40.61113],[-73.65605,40.63962],[-73.6571,40.64105],[-73.66927,40.65399],[-73.67083,40.65511],[-73.68088,40.65697],[-73.69436,40.65879],[-73.72001,40.66578],[-73.72287,40.66603],[-73.74305,40.66602],[-73.74519,40.66627],[-73.74721,40.66684],[-73.74958,40.66807],[-73.75091,40.66936],[-73.76268,40.68574],[-73.76554,40.69137],[-73.76654,40.69283],[-73.77501,40.70172],[-73.77881,40.70501],[-73.78072,40.70576],[-73.78213,40.70598],[-73.78357,40.70596],[-73.80075,40.70182],[-73.80332,40.70082],[-73.808,40.69938],[-73.80933,40.69955],[-73.81206,40.69883],[-73.81487,40.69837],[-73.8163,40.69848],[-73.81765,40.69886],[-73.81948,40.69974],[-73.82106,40.70086],[-73.83739,40.71551],[-73.84057,40.71773],[-73.84365,40.71916],[-73.8833,40.73369],[-73.89341,40.73794],[-73.89461,40.73855],[-73.89618,40.73968],[-73.90587,40.74854],[-73.90813,40.7499],[-73.91071,40.75087],[-73.91212,40.75109],[-73.91427,40.75096],[-73.93529,40.74702],[-73.93865,40.74602],[-73.94563,40.74314],[-73.94891,40.742],[-73.95167,40.74137],[-73.95454,40.7412],[-73.9724,40.74313],[-73.9745,40.74352],[-73.97648,40.74418],[-73.98914,40.74945],[-73.99309,40.75074]],"type":"LineString"},"properties":{"color":"#FF6319","color_name":"orange","kind":"route","label":"Long Beach Branch","long":"Long Beach Branch","route_id":"6","text_color":"#FFFFFF","type_label":"Rail"},"type":"Feature"},{"geometry":{"coordinates":[[-73.75045,40.60926],[-73.74778,40.61088],[-73.7375,40.61484],[-73.73231,40.6178],[-73.72278,40.6245],[-73.71252,40.6322],[-73.70253,40.63848],[-73.70198,40.63949],[-73.70192,40.64003],[-73.70171,40.65925],[-73.70179,40.65979],[-73.70249,40.66073],[-73.70473,40.66163],[-73.71862,40.66548],[-73.72072,40.66588],[-73.72287,40.66603],[-73.74305,40.66602],[-73.74588,40.66642],[-73.74785,40.6671],[-73.75009,40.66847],[-73.75126,40.66984],[-73.76268,40.68574],[-73.76554,40.69137],[-73.76654,40.69283],[-73.77501,40.70172],[-73.77881,40.70501],[-73.78072,40.70576],[-73.78213,40.70598],[-73.78357,40.70596],[-73.80075,40.70182],[-73.80332,40.70082],[-73.808,40.69938],[-73.80933,40.69955],[-73.81206,40.69883],[-73.81487,40.69837],[-73.8163,40.69848],[-73.81765,40.69886],[-73.81948,40.69974],[-73.82106,40.70086],[-73.83739,40.71551],[-73.84057,40.71773],[-73.84365,40.71916],[-73.8833,40.73369],[-73.89341,40.73794],[-73.89461,40.73855],[-73.89618,40.73968],[-73.903,40.74607],[-73.90221,40.74509],[-73.90563,40.7482],[-73.90765,40.74953],[-73.90918,40.75022],[-73.91174,40.75076],[-73.9144,40.75076],[-73.91876,40.75009],[-73.9291,40.74806],[-73.93087,40.74808],[-73.93249,40.74862],[-73.94111,40.75333],[-73.94851,40.75709],[-73.96165,40.76279],[-73.96418,40.76339],[-73.96679,40.76305],[-73.97072,40.76147],[-73.97129,40.76096],[-73.97565,40.75506]],"type":"LineString"},"properties":{"color":"#6E3219","color_name":"brown","kind":"route","label":"Far Rockaway Branch","long":"Far Rockaway Branch","route_id":"7","text_color":"#FFFFFF","type_label":"Rail"},"type":"Feature"},{"geometry":{"coordinates":[[-73.64171,40.70177],[-73.65229,40.68563],[-73.65358,40.68432],[-73.69494,40.66043],[-73.69617,40.65988],[-73.69758,40.65972],[-73.69828,40.65984],[-73.71794,40.6653],[-73.72072,40.66588],[-73.72287,40.66603],[-73.74233,40.66601],[-73.74448,40.66615],[-73.74785,40.6671],[-73.74958,40.66807],[-73.75053,40.6689],[-73.76268,40.68574],[-73.76616,40.69236],[-73.77501,40.70172],[-73.77881,40.70501],[-73.78072,40.70576],[-73.78213,40.70598],[-73.78357,40.70596],[-73.80075,40.70182],[-73.80332,40.70082],[-73.808,40.69938],[-73.80933,40.69955],[-73.81206,40.69883],[-73.81487,40.69837],[-73.8163,40.69848],[-73.81765,40.69886],[-73.81948,40.69974],[-73.82106,40.70086],[-73.83739,40.71551],[-73.84057,40.71773],[-73.84365,40.71916],[-73.8833,40.73369],[-73.89341,40.73794],[-73.89461,40.73855],[-73.89618,40.73968],[-73.90587,40.74854],[-73.90813,40.7499],[-73.91004,40.75067],[-73.91212,40.75109],[-73.91427,40.75096],[-73.93529,40.74702],[-73.93865,40.74602],[-73.94563,40.74314],[-73.94891,40.742],[-73.95167,40.74137],[-73.95454,40.7412],[-73.9724,40.74313],[-73.9745,40.74352],[-73.97648,40.74418],[-73.98914,40.74945],[-73.99309,40.75074]],"type":"LineString"},"properties":{"color":"#00A1DE","color_name":"teal","kind":"route","label":"West Hempstead Branch","long":"West Hempstead Branch","route_id":"8","text_color":"#121212","type_label":"Rail"},"type":"Feature"},{"geometry":{"coordinates":[[-73.99309,40.75074],[-73.98914,40.74945],[-73.97648,40.74418],[-73.9745,40.74352],[-73.9724,40.74313],[-73.95454,40.7412],[-73.95167,40.74137],[-73.94891,40.742],[-73.94563,40.74314],[-73.93865,40.74602],[-73.93529,40.74702],[-73.91497,40.75084],[-73.91284,40.7511],[-73.91141,40.75101],[-73.90875,40.75018],[-73.90587,40.74854],[-73.89668,40.74018],[-73.89515,40.73902],[-73.89335,40.73812],[-73.89122,40.73795],[-73.85224,40.74954],[-73.83783,40.7546],[-73.8337,40.75681],[-73.8288,40.75913],[-73.81659,40.7625],[-73.81518,40.76272],[-73.81302,40.76273],[-73.79437,40.76115],[-73.78073,40.76223],[-73.75498,40.76487],[-73.75246,40.76594],[-73.7508,40.76699],[-73.73484,40.77969],[-73.73356,40.78102],[-73.7307,40.78483],[-73.72924,40.78604],[-73.72737,40.78686],[-73.72197,40.78841],[-73.71629,40.79081],[-73.71084,40.79227],[-73.70484,40.79415],[-73.70239,40.79531],[-73.69609,40.79898],[-73.69502,40.8004],[-73.69479,40.80148],[-73.69588,40.80633],[-73.69482,40.81231],[-73.69419,40.81329],[-73.69321,40.8141],[-73.68817,40.81622],[-73.68728,40.81707],[-73.68703,40.81758],[-73.68683,40.82141],[-73.68618,40.8241],[-73.68761,40.82993]],"type":"LineString"},"properties":{"color":"#C60C30","color_name":"red","kind":"route","label":"Port Washington Branch","long":"Port Washington Branch","route_id":"9","text_color":"#FFFFFF","type_label":"Rail"},"type":"Feature"},{"geometry":{"coordinates":[-73.64169,40.77206],"type":"Point"},"properties":{"kind":"stop","name":"Albertson","stop_id":"1"},"type":"Feature"},{"geometry":{"coordinates":[-73.20932,40.73583],"type":"Point"},"properties":{"kind":"stop","name":"Islip","stop_id":"100"},"type":"Feature"},{"geometry":{"coordinates":[-73.74418,40.61229],"type":"Point"},"properties":{"kind":"stop","name":"Inwood","stop_id":"101"},"type":"Feature"},{"geometry":{"coordinates":[-73.80853,40.69961],"type":"Point"},"properties":{"kind":"stop","name":"Jamaica","stop_id":"102"},"type":"Feature"},{"geometry":{"coordinates":[-73.83089,40.70965],"type":"Point"},"properties":{"kind":"stop","name":"Kew Gardens","stop_id":"107"},"type":"Feature"},{"geometry":{"coordinates":[-73.80177,40.76165],"type":"Point"},"properties":{"kind":"stop","name":"Broadway","stop_id":"11"},"type":"Feature"},{"geometry":{"coordinates":[-73.25625,40.88367],"type":"Point"},"properties":{"kind":"stop","name":"Kings Park","stop_id":"111"},"type":"Feature"},{"geometry":{"coordinates":[-73.66482,40.59018],"type":"Point"},"properties":{"kind":"stop","name":"Long Beach","stop_id":"113"},"type":"Feature"},{"geometry":{"coordinates":[-73.7359,40.61573],"type":"Point"},"properties":{"kind":"stop","name":"Lawrence","stop_id":"114"},"type":"Feature"},{"geometry":{"coordinates":[-73.36921,40.68827],"type":"Point"},"properties":{"kind":"stop","name":"Lindenhurst","stop_id":"117"},"type":"Feature"},{"geometry":{"coordinates":[-73.95764,40.74134],"type":"Point"},"properties":{"kind":"stop","name":"Long Island City","stop_id":"118"},"type":"Feature"},{"geometry":{"coordinates":[-73.76504,40.67514],"type":"Point"},"properties":{"kind":"stop","name":"Locust Manor","stop_id":"119"},"type":"Feature"},{"geometry":{"coordinates":[-73.74065,40.77504],"type":"Point"},"properties":{"kind":"stop","name":"Little Neck","stop_id":"120"},"type":"Feature"},{"geometry":{"coordinates":[-73.75175,40.66848],"type":"Point"},"properties":{"kind":"stop","name":"Laurelton","stop_id":"122"},"type":"Feature"},{"geometry":{"coordinates":[-73.5983,40.87447],"type":"Point"},"properties":{"kind":"stop","name":"Locust Valley","stop_id":"123"},"type":"Feature"},{"geometry":{"coordinates":[-73.65214,40.68586],"type":"Point"},"properties":{"kind":"stop","name":"Lakeview","stop_id":"124"},"type":"Feature"},{"geometry":{"coordinates":[-73.67607,40.65606],"type":"Point"},"properties":{"kind":"stop","name":"Lynbrook","stop_id":"125"},"type":"Feature"},{"geometry":{"coordinates":[-72.53606,40.99179],"type":"Point"},"properties":{"kind":"stop","name":"Mattituck","stop_id":"126"},"type":"Feature"},{"geometry":{"coordinates":[-73.66252,40.73517],"type":"Point"},"properties":{"kind":"stop","name":"Merillon Avenue","stop_id":"127"},"type":"Feature"},{"geometry":{"coordinates":[-72.99891,40.8174],"type":"Point"},"properties":{"kind":"stop","name":"Medford","stop_id":"129"},"type":"Feature"},{"geometry":{"coordinates":[-72.31005,40.93898],"type":"Point"},"properties":{"kind":"stop","name":"Bridgehampton","stop_id":"13"},"type":"Feature"},{"geometry":{"coordinates":[-73.81454,40.76271],"type":"Point"},"properties":{"kind":"stop","name":"Murray Hill","stop_id":"130"},"type":"Feature"},{"geometry":{"coordinates":[-73.6999,40.79672],"type":"Point"},"properties":{"kind":"stop","name":"Manhasset","stop_id":"131"},"type":"Feature"},{"geometry":{"coordinates":[-73.64086,40.74035],"type":"Point"},"properties":{"kind":"stop","name":"Mineola","stop_id":"132"},"type":"Feature"},{"geometry":{"coordinates":[-73.45474,40.67786],"type":"Point"},"properties":{"kind":"stop","name":"Massapequa Park","stop_id":"135"},"type":"Feature"},{"geometry":{"coordinates":[-73.46906,40.67693],"type":"Point"},"properties":{"kind":"stop","name":"Massapequa","stop_id":"136"},"type":"Feature"},{"geometry":{"coordinates":[-73.12855,40.92032],"type":"Point"},"properties":{"kind":"stop","name":"Stony Brook","stop_id":"14"},"type":"Feature"},{"geometry":{"coordinates":[-72.86442,40.79899],"type":"Point"},"properties":{"kind":"stop","name":"Mastic-Shirley","stop_id":"140"},"type":"Feature"},{"geometry":{"coordinates":[-71.95388,41.04711],"type":"Point"},"properties":{"kind":"stop","name":"Montauk","stop_id":"141"},"type":"Feature"},{"geometry":{"coordinates":[-73.66886,40.67548],"type":"Point"},"properties":{"kind":"stop","name":"Malverne","stop_id":"142"},"type":"Feature"},{"geometry":{"coordinates":[-73.94822,40.67839],"type":"Point"},"properties":{"kind":"stop","name":"Nostrand Avenue","stop_id":"148"},"type":"Feature"},{"geometry":{"coordinates":[-73.6627,40.72296],"type":"Point"},"properties":{"kind":"stop","name":"Nassau Boulevard","stop_id":"149"},"type":"Feature"},{"geometry":{"coordinates":[-73.68096,40.73076],"type":"Point"},"properties":{"kind":"stop","name":"New Hyde Park","stop_id":"152"},"type":"Feature"},{"geometry":{"coordinates":[-73.32849,40.88065],"type":"Point"},"properties":{"kind":"stop","name":"Northport","stop_id":"153"},"type":"Feature"},{"geometry":{"coordinates":[-73.53403,40.87534],"type":"Point"},"properties":{"kind":"stop","name":"Oyster Bay","stop_id":"154"},"type":"Feature"},{"geometry":{"coordinates":[-73.65467,40.63472],"type":"Point"},"properties":{"kind":"stop","name":"Oceanside","stop_id":"155"},"type":"Feature"},{"geometry":{"coordinates":[-73.13244,40.74343],"type":"Point"},"properties":{"kind":"stop","name":"Oakdale","stop_id":"157"},"type":"Feature"},{"geometry":{"coordinates":[-73.52886,40.6688],"type":"Point"},"properties":{"kind":"stop","name":"Bellmore","stop_id":"16"},"type":"Feature"},{"geometry":{"coordinates":[-73.69521,40.8107],"type":"Point"},"properties":{"kind":"stop","name":"Plandome","stop_id":"162"},"type":"Feature"},{"geometry":{"coordinates":[-73.01574,40.76188],"type":"Point"},"properties":{"kind":"stop","name":"Patchogue","stop_id":"163"},"type":"Feature"},{"geometry":{"coordinates":[-73.0525,40.93455],"type":"Point"},"properties":{"kind":"stop","name":"Port Jefferson","stop_id":"164"},"type":"Feature"},{"geometry":{"coordinates":[-73.3996,40.74536],"type":"Point"},"properties":{"kind":"stop","name":"Pinelawn","stop_id":"165"},"type":"Feature"},{"geometry":{"coordinates":[-73.6874,40.82904],"type":"Point"},"properties":{"kind":"stop","name":"Port Washington","stop_id":"171"},"type":"Feature"},{"geometry":{"coordinates":[-73.73646,40.71746],"type":"Point"},"properties":{"kind":"stop","name":"Queens Village","stop_id":"175"},"type":"Feature"},{"geometry":{"coordinates":[-72.66691,40.91984],"type":"Point"},"properties":{"kind":"stop","name":"Riverhead","stop_id":"176"},"type":"Feature"},{"geometry":{"coordinates":[-73.10594,40.80809],"type":"Point"},"properties":{"kind":"stop","name":"Ronkonkoma","stop_id":"179"},"type":"Feature"},{"geometry":{"coordinates":[-73.73555,40.66595],"type":"Point"},"properties":{"kind":"stop","name":"Rosedale","stop_id":"180"},"type":"Feature"},{"geometry":{"coordinates":[-73.64326,40.79048],"type":"Point"},"properties":{"kind":"stop","name":"Roslyn","stop_id":"182"},"type":"Feature"},{"geometry":{"coordinates":[-73.64655,40.65832],"type":"Point"},"properties":{"kind":"stop","name":"Rockville Centre","stop_id":"183"},"type":"Feature"},{"geometry":{"coordinates":[-73.76551,40.69118],"type":"Point"},"properties":{"kind":"stop","name":"St. Albans","stop_id":"184"},"type":"Feature"},{"geometry":{"coordinates":[-73.62542,40.85237],"type":"Point"},"properties":{"kind":"stop","name":"Sea Cliff","stop_id":"185"},"type":"Feature"},{"geometry":{"coordinates":[-73.48657,40.67572],"type":"Point"},"properties":{"kind":"stop","name":"Seaford","stop_id":"187"},"type":"Feature"},{"geometry":{"coordinates":[-72.42788,41.06632],"type":"Point"},"properties":{"kind":"stop","name":"Southold","stop_id":"190"},"type":"Feature"},{"geometry":{"coordinates":[-72.39012,40.89472],"type":"Point"},"properties":{"kind":"stop","name":"Southampton","stop_id":"191"},"type":"Feature"},{"geometry":{"coordinates":[-73.15951,40.88217],"type":"Point"},"properties":{"kind":"stop","name":"St. James","stop_id":"193"},"type":"Feature"},{"geometry":{"coordinates":[-73.68102,40.72303],"type":"Point"},"properties":{"kind":"stop","name":"Stewart Manor","stop_id":"195"},"type":"Feature"},{"geometry":{"coordinates":[-72.70526,40.82132],"type":"Point"},"properties":{"kind":"stop","name":"Speonk","stop_id":"198"},"type":"Feature"},{"geometry":{"coordinates":[-73.8437,40.7524],"type":"Point"},"properties":{"kind":"stop","name":"Mets-Willets Point","stop_id":"199"},"type":"Feature"},{"geometry":{"coordinates":[-73.78996,40.76144],"type":"Point"},"properties":{"kind":"stop","name":"Auburndale","stop_id":"2"},"type":"Feature"},{"geometry":{"coordinates":[-73.48344,40.74304],"type":"Point"},"properties":{"kind":"stop","name":"Bethpage","stop_id":"20"},"type":"Feature"},{"geometry":{"coordinates":[-73.19803,40.85655],"type":"Point"},"properties":{"kind":"stop","name":"Smithtown","stop_id":"202"},"type":"Feature"},{"geometry":{"coordinates":[-73.08646,40.74035],"type":"Point"},"properties":{"kind":"stop","name":"Sayville","stop_id":"204"},"type":"Feature"},{"geometry":{"coordinates":[-73.50045,40.82486],"type":"Point"},"properties":{"kind":"stop","name":"Syosset","stop_id":"205"},"type":"Feature"},{"geometry":{"coordinates":[-72.94397,40.77374],"type":"Point"},"properties":{"kind":"stop","name":"Bellport","stop_id":"21"},"type":"Feature"},{"geometry":{"coordinates":[-73.70476,40.66152],"type":"Point"},"properties":{"kind":"stop","name":"Valley Stream","stop_id":"211"},"type":"Feature"},{"geometry":{"coordinates":[-73.58587,40.75345],"type":"Point"},"properties":{"kind":"stop","name":"Westbury","stop_id":"213"},"type":"Feature"},{"geometry":{"coordinates":[-73.90298,40.74585],"type":"Point"},"properties":{"kind":"stop","name":"Woodside","stop_id":"214"},"type":"Feature"},{"geometry":{"coordinates":[-73.50896,40.67299],"type":"Point"},"properties":{"kind":"stop","name":"Wantagh","stop_id":"215"},"type":"Feature"},{"geometry":{"coordinates":[-73.64164,40.70196],"type":"Point"},"properties":{"kind":"stop","name":"West Hempstead","stop_id":"216"},"type":"Feature"},{"geometry":{"coordinates":[-73.71372,40.63134],"type":"Point"},"properties":{"kind":"stop","name":"Woodmere","stop_id":"217"},"type":"Feature"},{"geometry":{"coordinates":[-73.68121,40.66837],"type":"Point"},"properties":{"kind":"stop","name":"Westwood","stop_id":"219"},"type":"Feature"},{"geometry":{"coordinates":[-73.35807,40.7548],"type":"Point"},"properties":{"kind":"stop","name":"Wyandanch","stop_id":"220"},"type":"Feature"},{"geometry":{"coordinates":[-72.91588,40.82561],"type":"Point"},"properties":{"kind":"stop","name":"Yaphank","stop_id":"223"},"type":"Feature"},{"geometry":{"coordinates":[-73.60716,40.65673],"type":"Point"},"properties":{"kind":"stop","name":"Baldwin","stop_id":"225"},"type":"Feature"},{"geometry":{"coordinates":[-73.55062,40.6638],"type":"Point"},"properties":{"kind":"stop","name":"Merrick","stop_id":"226"},"type":"Feature"},{"geometry":{"coordinates":[-73.71665,40.7222],"type":"Point"},"properties":{"kind":"stop","name":"Bellerose","stop_id":"23"},"type":"Feature"},{"geometry":{"coordinates":[-72.65032,40.83031],"type":"Point"},"properties":{"kind":"stop","name":"Westhampton","stop_id":"233"},"type":"Feature"},{"geometry":{"coordinates":[-73.99358,40.75059],"type":"Point"},"properties":{"kind":"stop","name":"Penn Station","stop_id":"237"},"type":"Feature"},{"geometry":{"coordinates":[-73.7283,40.71369],"type":"Point"},"properties":{"kind":"stop","name":"Belmont Park","stop_id":"24"},"type":"Feature"},{"geometry":{"coordinates":[-73.97567,40.6836],"type":"Point"},"properties":{"kind":"stop","name":"Atlantic Terminal","stop_id":"241"},"type":"Feature"},{"geometry":{"coordinates":[-73.77125,40.76315],"type":"Point"},"properties":{"kind":"stop","name":"Bayside","stop_id":"25"},"type":"Feature"},{"geometry":{"coordinates":[-73.25408,40.72443],"type":"Point"},"properties":{"kind":"stop","name":"Bay Shore","stop_id":"26"},"type":"Feature"},{"geometry":{"coordinates":[-73.32406,40.70069],"type":"Point"},"properties":{"kind":"stop","name":"Babylon","stop_id":"27"},"type":"Feature"},{"geometry":{"coordinates":[-73.24361,40.78083],"type":"Point"},"properties":{"kind":"stop","name":"Brentwood","stop_id":"29"},"type":"Feature"},{"geometry":{"coordinates":[-73.66397,40.64832],"type":"Point"},"properties":{"kind":"stop","name":"Centre Avenue","stop_id":"31"},"type":"Feature"},{"geometry":{"coordinates":[-73.72618,40.62217],"type":"Point"},"properties":{"kind":"stop","name":"Cedarhurst","stop_id":"32"},"type":"Feature"},{"geometry":{"coordinates":[-73.19486,40.79185],"type":"Point"},"properties":{"kind":"stop","name":"Central Islip","stop_id":"33"},"type":"Feature"},{"geometry":{"coordinates":[-73.97545,40.75516],"type":"Point"},"properties":{"kind":"stop","name":"Grand Central","stop_id":"349"},"type":"Feature"},{"geometry":{"coordinates":[-73.72555,40.72007],"type":"Point"},"properties":{"kind":"stop","name":"Elmont-UBS Arena","stop_id":"359"},"type":"Feature"},{"geometry":{"coordinates":[-73.62967,40.72146],"type":"Point"},"properties":{"kind":"stop","name":"Country Life Press","stop_id":"36"},"type":"Feature"},{"geometry":{"coordinates":[-73.39834,40.68102],"type":"Point"},"properties":{"kind":"stop","name":"Copiague","stop_id":"38"},"type":"Feature"},{"geometry":{"coordinates":[-73.60365,40.74921],"type":"Point"},"properties":{"kind":"stop","name":"Carle Place","stop_id":"39"},"type":"Feature"},{"geometry":{"coordinates":[-72.13233,40.98004],"type":"Point"},"properties":{"kind":"stop","name":"Amagansett","stop_id":"4"},"type":"Feature"},{"geometry":{"coordinates":[-73.45109,40.83564],"type":"Point"},"properties":{"kind":"stop","name":"Cold Spring Harbor","stop_id":"40"},"type":"Feature"},{"geometry":{"coordinates":[-73.74941,40.76807],"type":"Point"},"properties":{"kind":"stop","name":"Douglaston","stop_id":"42"},"type":"Feature"},{"geometry":{"coordinates":[-73.29356,40.76948],"type":"Point"},"properties":{"kind":"stop","name":"Deer Park","stop_id":"44"},"type":"Feature"},{"geometry":{"coordinates":[-72.19324,40.96509],"type":"Point"},"properties":{"kind":"stop","name":"East Hampton","stop_id":"48"},"type":"Feature"},{"geometry":{"coordinates":[-73.90281,40.67581],"type":"Point"},"properties":{"kind":"stop","name":"East New York","stop_id":"50"},"type":"Feature"},{"geometry":{"coordinates":[-73.65822,40.64221],"type":"Point"},"properties":{"kind":"stop","name":"East Rockaway","stop_id":"51"},"type":"Feature"},{"geometry":{"coordinates":[-73.63941,40.75602],"type":"Point"},"properties":{"kind":"stop","name":"East Williston","stop_id":"52"},"type":"Feature"},{"geometry":{"coordinates":[-73.84481,40.71958],"type":"Point"},"properties":{"kind":"stop","name":"Forest Hills","stop_id":"55"},"type":"Feature"},{"geometry":{"coordinates":[-73.83135,40.75789],"type":"Point"},"properties":{"kind":"stop","name":"Flushing Main Street","stop_id":"56"},"type":"Feature"},{"geometry":{"coordinates":[-73.44124,40.73592],"type":"Point"},"properties":{"kind":"stop","name":"Farmingdale","stop_id":"59"},"type":"Feature"},{"geometry":{"coordinates":[-73.7064,40.72464],"type":"Point"},"properties":{"kind":"stop","name":"Floral Park","stop_id":"63"},"type":"Feature"},{"geometry":{"coordinates":[-73.58232,40.65746],"type":"Point"},"properties":{"kind":"stop","name":"Freeport","stop_id":"64"},"type":"Feature"},{"geometry":{"coordinates":[-73.75054,40.60914],"type":"Point"},"properties":{"kind":"stop","name":"Far Rockaway","stop_id":"65"},"type":"Feature"},{"geometry":{"coordinates":[-73.70183,40.64925],"type":"Point"},"properties":{"kind":"stop","name":"Gibson","stop_id":"66"},"type":"Feature"},{"geometry":{"coordinates":[-73.61617,40.86583],"type":"Point"},"properties":{"kind":"stop","name":"Glen Cove","stop_id":"67"},"type":"Feature"},{"geometry":{"coordinates":[-73.64036,40.7231],"type":"Point"},"properties":{"kind":"stop","name":"Garden City","stop_id":"68"},"type":"Feature"},{"geometry":{"coordinates":[-73.62612,40.83223],"type":"Point"},"properties":{"kind":"stop","name":"Glen Head","stop_id":"71"},"type":"Feature"},{"geometry":{"coordinates":[-73.7261,40.78722],"type":"Point"},"properties":{"kind":"stop","name":"Great Neck","stop_id":"72"},"type":"Feature"},{"geometry":{"coordinates":[-72.3631,41.09971],"type":"Point"},"properties":{"kind":"stop","name":"Greenport","stop_id":"73"},"type":"Feature"},{"geometry":{"coordinates":[-73.1702,40.74044],"type":"Point"},"properties":{"kind":"stop","name":"Great River","stop_id":"74"},"type":"Feature"},{"geometry":{"coordinates":[-73.62122,40.85798],"type":"Point"},"properties":{"kind":"stop","name":"Glen Street","stop_id":"76"},"type":"Feature"},{"geometry":{"coordinates":[-73.62687,40.81572],"type":"Point"},"properties":{"kind":"stop","name":"Greenvale","stop_id":"77"},"type":"Feature"},{"geometry":{"coordinates":[-73.36285,40.86867],"type":"Point"},"properties":{"kind":"stop","name":"Greenlawn","stop_id":"78"},"type":"Feature"},{"geometry":{"coordinates":[-73.42031,40.68025],"type":"Point"},"properties":{"kind":"stop","name":"Amityville","stop_id":"8"},"type":"Feature"},{"geometry":{"coordinates":[-72.52395,40.87661],"type":"Point"},"properties":{"kind":"stop","name":"Hampton Bays","stop_id":"83"},"type":"Feature"},{"geometry":{"coordinates":[-73.62503,40.7133],"type":"Point"},"properties":{"kind":"stop","name":"Hempstead","stop_id":"84"},"type":"Feature"},{"geometry":{"coordinates":[-73.64621,40.69491],"type":"Point"},"properties":{"kind":"stop","name":"Hempstead Gardens","stop_id":"85"},"type":"Feature"},{"geometry":{"coordinates":[-73.77696,40.70774],"type":"Point"},"properties":{"kind":"stop","name":"Hillside Facility","stop_id":"86"},"type":"Feature"},{"geometry":{"coordinates":[-73.76675,40.71018],"type":"Point"},"properties":{"kind":"stop","name":"Hollis","stop_id":"89"},"type":"Feature"},{"geometry":{"coordinates":[-73.94679,40.74239],"type":"Point"},"properties":{"kind":"stop","name":"Hunterspoint Avenue","stop_id":"90"},"type":"Feature"},{"geometry":{"coordinates":[-73.40953,40.85301],"type":"Point"},"properties":{"kind":"stop","name":"Huntington","stop_id":"91"},"type":"Feature"},{"geometry":{"coordinates":[-73.52853,40.76717],"type":"Point"},"properties":{"kind":"stop","name":"Hicksville","stop_id":"92"},"type":"Feature"},{"geometry":{"coordinates":[-73.70514,40.63676],"type":"Point"},"properties":{"kind":"stop","name":"Hewlett","stop_id":"94"},"type":"Feature"},{"geometry":{"coordinates":[-73.65474,40.6013],"type":"Point"},"properties":{"kind":"stop","name":"Island Park","stop_id":"99"},"type":"Feature"}],"type":"FeatureCollection"}
